<?xml version='1.0' encoding='utf-8'?>
<gpx version="1.1" creator="Road Replay" xmlns="http://www.topografix.com/GPX/1/1"><metadata><name>Jun 2025 — Bellevue → Olympic Peninsula</name></metadata><wpt lat="47.6038321" lon="-122.330062"><name>Seattle, WA</name><desc>38.7659 kWh</desc></wpt><wpt lat="48.0849312" lon="-123.1096706"><name>Sequim, WA</name><desc>48.7678 kWh</desc></wpt><wpt lat="47.950222" lon="-124.386165"><name>Forks, WA</name><desc>41.0506 kWh</desc></wpt><wpt lat="46.975371" lon="-123.815722"><name>Aberdeen, WA</name><desc>23.0106 kWh</desc></wpt><wpt lat="47.9793437" lon="-122.2127011"><name>Everett, WA</name><desc>63.8252 kWh</desc></wpt></gpx>