<?xml version='1.0' encoding='utf-8'?>
<gpx version="1.1" creator="Road Replay" xmlns="http://www.topografix.com/GPX/1/1"><metadata><name>Dec 2024 — Bellevue → Leavenworth</name></metadata><wpt lat="47.6167921" lon="-122.1115836"><name>Bellevue, WA - Northeast 8th Street</name><desc>33.493 kWh</desc></wpt><wpt lat="47.5969138" lon="-120.661081"><name>Leavenworth, WA</name><desc>40.893 kWh</desc></wpt><wpt lat="47.6167921" lon="-122.1115836"><name>Bellevue, WA - Northeast 8th Street</name><desc>49.247 kWh</desc></wpt></gpx>