<?xml version='1.0' encoding='utf-8'?>
<gpx version="1.1" creator="My Mile Diary" xmlns="http://www.topografix.com/GPX/1/1"><metadata><name>Jun 2024 — Addison → Colorado (Round Trip)</name></metadata><wpt lat="32.9601193" lon="-96.8300029"><name>Addison, TX</name><desc>Addison, TX</desc></wpt><wpt lat="33.8166258" lon="-98.194682"><name>Henrietta, TX</name><desc>Henrietta, TX</desc></wpt><wpt lat="34.2937246" lon="-99.7423674"><name>Quanah, TX</name><desc>Quanah, TX</desc></wpt><wpt lat="35.20729" lon="-101.8371192"><name>Amarillo, TX</name><desc>Amarillo, TX</desc></wpt><wpt lat="36.4507836" lon="-103.184797"><name>Clayton, NM</name><desc>Clayton, NM</desc></wpt><wpt lat="37.169397" lon="-104.500541"><name>Trinidad, CO</name><desc>Trinidad, CO</desc></wpt><wpt lat="38.8339578" lon="-104.825348"><name>Colorado Springs, CO (Pay to Park, Floor 1)</name><desc>Colorado Springs, CO (Pay to Park, Floor 1)</desc></wpt><wpt lat="38.8339578" lon="-104.825348"><name>Colorado Springs, CO (Pay to Park, Floor 1)</name><desc>Colorado Springs, CO (Pay to Park, Floor 1)</desc></wpt><wpt lat="38.5138823" lon="-106.0737176"><name>Poncha Springs, CO</name><desc>Poncha Springs, CO</desc></wpt><wpt lat="39.1911128" lon="-106.82356"><name>Aspen, CO</name><desc>Aspen, CO</desc></wpt><wpt lat="39.446423" lon="-108.0522672"><name>Parachute, CO</name><desc>Parachute, CO</desc></wpt><wpt lat="38.4375391" lon="-108.2403855"><name>Montrose, CO</name><desc>Montrose, CO</desc></wpt><wpt lat="37.9313827" lon="-107.856453"><name>Mountain Village, CO (Floor 1)</name><desc>Mountain Village, CO (Floor 1)</desc></wpt><wpt lat="36.7291152" lon="-108.205445"><name>Farmington, NM</name><desc>Farmington, NM</desc></wpt><wpt lat="35.1730831" lon="-106.5889238"><name>Albuquerque, NM - Lang Avenue Northeast</name><desc>Albuquerque, NM - Lang Avenue Northeast</desc></wpt><wpt lat="34.93867" lon="-104.682489"><name>Santa Rosa, NM</name><desc>Santa Rosa, NM</desc></wpt><wpt lat="35.1919954" lon="-101.8286328"><name>Amarillo, TX - East Interstate 40</name><desc>Amarillo, TX - East Interstate 40</desc></wpt><wpt lat="34.1513105" lon="-99.2860857"><name>Vernon, TX</name><desc>Vernon, TX</desc></wpt><wpt lat="32.9601193" lon="-96.8300029"><name>Addison, TX</name><desc>Addison, TX</desc></wpt></gpx>