<?xml version='1.0' encoding='utf-8'?>
<gpx version="1.1" creator="Road Replay" xmlns="http://www.topografix.com/GPX/1/1"><metadata><name>Sep 2023 — Addison → San Antonio</name></metadata><wpt lat="32.9601193" lon="-96.8300029"><name>Addison, TX</name><desc>69.0 kWh</desc></wpt><wpt lat="30.6370152" lon="-97.6775634"><name>Georgetown, TX</name><desc>57.0 kWh</desc></wpt><wpt lat="29.6046366" lon="-98.4504734"><name>San Antonio, TX - North Loop 1604 East</name><desc>42.0 kWh</desc></wpt><wpt lat="30.6370152" lon="-97.6775634"><name>Georgetown, TX</name><desc>57.0 kWh</desc></wpt><wpt lat="32.9601193" lon="-96.8300029"><name>Addison, TX</name><desc>24.0 kWh</desc></wpt></gpx>