<?xml version='1.0' encoding='utf-8'?>
<gpx version="1.1" creator="My Mile Diary" xmlns="http://www.topografix.com/GPX/1/1"><metadata><name>Jun 2023 — Addison → Houston</name></metadata><wpt lat="32.9601193" lon="-96.8300029"><name>Addison, TX</name><desc>Addison, TX</desc></wpt><wpt lat="30.9498688" lon="-95.9127773"><name>Madisonville, TX</name><desc>Madisonville, TX</desc></wpt><wpt lat="29.7382821" lon="-95.4353438"><name>Houston, TX - West Alabama Street</name><desc>Houston, TX - West Alabama Street</desc></wpt><wpt lat="31.2578221" lon="-95.9785301"><name>Centerville, TX</name><desc>Centerville, TX</desc></wpt><wpt lat="32.9601193" lon="-96.8300029"><name>Addison, TX</name><desc>Addison, TX</desc></wpt></gpx>