<?xml version='1.0' encoding='utf-8'?>
<gpx version="1.1" creator="Tesla Travel Map" xmlns="http://www.topografix.com/GPX/1/1"><metadata><name>Jul 2026 — Puyallup</name></metadata><trk><name>Jul 2026 — Puyallup</name><trkseg><trkpt lat="47.1849009" lon="-122.29214" /><trkpt lat="47.184527" lon="-122.292132" /><trkpt lat="47.184503" lon="-122.291475" /><trkpt lat="47.184513" lon="-122.291042" /><trkpt lat="47.184494" lon="-122.290356" /><trkpt lat="47.184471" lon="-122.290183" /><trkpt lat="47.184387" lon="-122.290779" /><trkpt lat="47.184389" lon="-122.291927" /><trkpt lat="47.184415" lon="-122.292583" /><trkpt lat="47.184438" lon="-122.292789" /><trkpt lat="47.184475" lon="-122.293614" /><trkpt lat="47.184257" lon="-122.293613" /><trkpt lat="47.183554" lon="-122.293609" /><trkpt lat="47.183219" lon="-122.293604" /><trkpt lat="47.18267" lon="-122.2936" /><trkpt lat="47.181764" lon="-122.293577" /><trkpt lat="47.180857" lon="-122.293554" /><trkpt lat="47.180747" lon="-122.293552" /><trkpt lat="47.179216" lon="-122.29355" /><trkpt lat="47.179398" lon="-122.292738" /><trkpt lat="47.179506" lon="-122.292474" /><trkpt lat="47.179995" lon="-122.291264" /><trkpt lat="47.180129" lon="-122.290595" /><trkpt lat="47.180387" lon="-122.288014" /><trkpt lat="47.180551" lon="-122.287289" /><trkpt lat="47.180677" lon="-122.286806" /><trkpt lat="47.180878" lon="-122.286181" /><trkpt lat="47.18133" lon="-122.285216" /><trkpt lat="47.181824" lon="-122.284481" /><trkpt lat="47.182289" lon="-122.283972" /><trkpt lat="47.182887" lon="-122.283492" /><trkpt lat="47.183317" lon="-122.283255" /><trkpt lat="47.184185" lon="-122.283" /><trkpt lat="47.185117" lon="-122.282935" /><trkpt lat="47.186287" lon="-122.282866" /><trkpt lat="47.187284" lon="-122.282802" /><trkpt lat="47.18866" lon="-122.282721" /><trkpt lat="47.189942" lon="-122.282627" /><trkpt lat="47.19144" lon="-122.282492" /><trkpt lat="47.194193" lon="-122.28239" /><trkpt lat="47.195866" lon="-122.282241" /><trkpt lat="47.196441" lon="-122.282119" /><trkpt lat="47.196869" lon="-122.281979" /><trkpt lat="47.197251" lon="-122.281804" /><trkpt lat="47.198132" lon="-122.281262" /><trkpt lat="47.199827" lon="-122.279915" /><trkpt lat="47.200495" lon="-122.279343" /><trkpt lat="47.200897" lon="-122.278816" /><trkpt lat="47.20116" lon="-122.278335" /><trkpt lat="47.201448" lon="-122.277622" /><trkpt lat="47.201576" lon="-122.277141" /><trkpt lat="47.201704" lon="-122.27612" /><trkpt lat="47.201681" lon="-122.275375" /><trkpt lat="47.201386" lon="-122.272679" /><trkpt lat="47.201268" lon="-122.271761" /><trkpt lat="47.201115" lon="-122.270279" /><trkpt lat="47.200525" lon="-122.266107" /><trkpt lat="47.200445" lon="-122.264894" /><trkpt lat="47.200472" lon="-122.263783" /><trkpt lat="47.200573" lon="-122.262925" /><trkpt lat="47.20107" lon="-122.260805" /><trkpt lat="47.20118" lon="-122.260418" /><trkpt lat="47.201987" lon="-122.257663" /><trkpt lat="47.202493" lon="-122.255903" /><trkpt lat="47.202977" lon="-122.254173" /><trkpt lat="47.203384" lon="-122.252755" /><trkpt lat="47.203865" lon="-122.251253" /><trkpt lat="47.204161" lon="-122.250593" /><trkpt lat="47.204815" lon="-122.249428" /><trkpt lat="47.205682" lon="-122.248398" /><trkpt lat="47.206421" lon="-122.247741" /><trkpt lat="47.206822" lon="-122.24749" /><trkpt lat="47.208302" lon="-122.246891" /><trkpt lat="47.208886" lon="-122.246812" /><trkpt lat="47.212976" lon="-122.246823" /><trkpt lat="47.221409" lon="-122.246856" /><trkpt lat="47.223" lon="-122.246901" /><trkpt lat="47.224706" lon="-122.247159" /><trkpt lat="47.225171" lon="-122.247264" /><trkpt lat="47.227417" lon="-122.247995" /><trkpt lat="47.228255" lon="-122.248345" /><trkpt lat="47.23593" lon="-122.251763" /><trkpt lat="47.240297" lon="-122.253695" /><trkpt lat="47.24287" lon="-122.254829" /><trkpt lat="47.243775" lon="-122.255191" /><trkpt lat="47.250169" lon="-122.257181" /><trkpt lat="47.252498" lon="-122.257901" /><trkpt lat="47.258124" lon="-122.259658" /><trkpt lat="47.260659" lon="-122.260487" /><trkpt lat="47.261626" lon="-122.260802" /><trkpt lat="47.264156" lon="-122.261607" /><trkpt lat="47.264908" lon="-122.261744" /><trkpt lat="47.265788" lon="-122.261724" /><trkpt lat="47.266466" lon="-122.261614" /><trkpt lat="47.268495" lon="-122.260886" /><trkpt lat="47.270232" lon="-122.26017" /><trkpt lat="47.273617" lon="-122.25878" /><trkpt lat="47.274193" lon="-122.258616" /><trkpt lat="47.27491" lon="-122.258483" /><trkpt lat="47.27632" lon="-122.2584" /><trkpt lat="47.278938" lon="-122.258338" /><trkpt lat="47.279991" lon="-122.258306" /><trkpt lat="47.282973" lon="-122.258251" /><trkpt lat="47.284738" lon="-122.258189" /><trkpt lat="47.286254" lon="-122.258063" /><trkpt lat="47.289085" lon="-122.258" /><trkpt lat="47.291596" lon="-122.257923" /><trkpt lat="47.293345" lon="-122.257617" /><trkpt lat="47.294169" lon="-122.257381" /><trkpt lat="47.295535" lon="-122.256843" /><trkpt lat="47.295758" lon="-122.256737" /><trkpt lat="47.295879" lon="-122.25668" /><trkpt lat="47.297855" lon="-122.25513" /><trkpt lat="47.299249" lon="-122.253768" /><trkpt lat="47.299658" lon="-122.253163" /><trkpt lat="47.2999" lon="-122.252712" /><trkpt lat="47.300098" lon="-122.252314" /><trkpt lat="47.301032" lon="-122.25026" /><trkpt lat="47.301849" lon="-122.248418" /><trkpt lat="47.302071" lon="-122.247748" /><trkpt lat="47.302316" lon="-122.246687" /><trkpt lat="47.302433" lon="-122.245913" /><trkpt lat="47.30281" lon="-122.242057" /><trkpt lat="47.303025" lon="-122.239768" /><trkpt lat="47.303156" lon="-122.236408" /><trkpt lat="47.30314" lon="-122.23618" /><trkpt lat="47.303021" lon="-122.235885" /><trkpt lat="47.30275" lon="-122.235698" /><trkpt lat="47.302612" lon="-122.235591" /><trkpt lat="47.302514" lon="-122.235462" /><trkpt lat="47.30244" lon="-122.235227" /><trkpt lat="47.302428" lon="-122.234998" /><trkpt lat="47.302477" lon="-122.234757" /><trkpt lat="47.302715" lon="-122.23439" /><trkpt lat="47.302884" lon="-122.234121" /><trkpt lat="47.303057" lon="-122.2337" /><trkpt lat="47.303093" lon="-122.233554" /><trkpt lat="47.303152" lon="-122.233007" /><trkpt lat="47.303177" lon="-122.232464" /><trkpt lat="47.303465" lon="-122.232524" /><trkpt lat="47.303653" lon="-122.232578" /><trkpt lat="47.304108" lon="-122.232748" /><trkpt lat="47.304783" lon="-122.23307" /><trkpt lat="47.305042" lon="-122.233147" /><trkpt lat="47.305168" lon="-122.23317" /><trkpt lat="47.305244" lon="-122.233184" /><trkpt lat="47.305557" lon="-122.233222" /><trkpt lat="47.305802" lon="-122.233232" /><trkpt lat="47.306283" lon="-122.233191" /><trkpt lat="47.306439" lon="-122.233165" /><trkpt lat="47.306918" lon="-122.233048" /><trkpt lat="47.307112" lon="-122.233054" /><trkpt lat="47.307375" lon="-122.233023" /><trkpt lat="47.30753" lon="-122.233017" /><trkpt lat="47.307502" lon="-122.232462" /><trkpt lat="47.307486" lon="-122.232338" /><trkpt lat="47.307425" lon="-122.231862" /><trkpt lat="47.307403" lon="-122.231595" /><trkpt lat="47.307401" lon="-122.230816" /><trkpt lat="47.3074" lon="-122.230181" /><trkpt lat="47.307375" lon="-122.233023" /><trkpt lat="47.305155" lon="-122.233334" /><trkpt lat="47.303279" lon="-122.2386" /><trkpt lat="47.302332" lon="-122.25291" /><trkpt lat="47.303943" lon="-122.264128" /><trkpt lat="47.304232" lon="-122.270481" /><trkpt lat="47.301074" lon="-122.279422" /><trkpt lat="47.290385" lon="-122.300262" /><trkpt lat="47.289801" lon="-122.303596" /><trkpt lat="47.283182" lon="-122.309268" /><trkpt lat="47.271411" lon="-122.31616" /><trkpt lat="47.259865" lon="-122.328277" /><trkpt lat="47.246314" lon="-122.334254" /><trkpt lat="47.241532" lon="-122.340308" /><trkpt lat="47.240698" lon="-122.375254" /><trkpt lat="47.241763" lon="-122.392203" /><trkpt lat="47.239913" lon="-122.402641" /><trkpt lat="47.23858" lon="-122.416769" /><trkpt lat="47.233985" lon="-122.429143" /><trkpt lat="47.231135" lon="-122.442546" /><trkpt lat="47.230945" lon="-122.453443" /><trkpt lat="47.232229" lon="-122.461451" /><trkpt lat="47.235022" lon="-122.465348" /><trkpt lat="47.23515" lon="-122.47133" /><trkpt lat="47.235001" lon="-122.496424" /><trkpt lat="47.242696" lon="-122.504316" /><trkpt lat="47.255446" lon="-122.513861" /><trkpt lat="47.258538" lon="-122.524546" /><trkpt lat="47.260968" lon="-122.541092" /><trkpt lat="47.279931" lon="-122.560521" /><trkpt lat="47.294163" lon="-122.566456" /><trkpt lat="47.319329" lon="-122.588732" /><trkpt lat="47.335427" lon="-122.603293" /><trkpt lat="47.36326" lon="-122.616491" /><trkpt lat="47.378233" lon="-122.615794" /><trkpt lat="47.389648" lon="-122.616393" /><trkpt lat="47.398782" lon="-122.622282" /><trkpt lat="47.405155" lon="-122.624968" /><trkpt lat="47.412671" lon="-122.624064" /><trkpt lat="47.420142" lon="-122.622818" /><trkpt lat="47.42926" lon="-122.623266" /><trkpt lat="47.452729" lon="-122.621408" /><trkpt lat="47.463959" lon="-122.623809" /><trkpt lat="47.475588" lon="-122.62465" /><trkpt lat="47.4836" lon="-122.629612" /><trkpt lat="47.494105" lon="-122.638595" /><trkpt lat="47.502069" lon="-122.646204" /><trkpt lat="47.509885" lon="-122.65097" /><trkpt lat="47.517862" lon="-122.658203" /><trkpt lat="47.523844" lon="-122.660715" /><trkpt lat="47.528077" lon="-122.663948" /><trkpt lat="47.52935" lon="-122.66821" /><trkpt lat="47.528486" lon="-122.673937" /><trkpt lat="47.528289" lon="-122.679651" /><trkpt lat="47.526855" lon="-122.686556" /><trkpt lat="47.524956" lon="-122.692531" /><trkpt lat="47.525016" lon="-122.697462" /><trkpt lat="47.526658" lon="-122.699856" /><trkpt lat="47.530173" lon="-122.695297" /><trkpt lat="47.534944" lon="-122.683794" /><trkpt lat="47.539287" lon="-122.675841" /><trkpt lat="47.543221" lon="-122.675519" /><trkpt lat="47.548138" lon="-122.671623" /><trkpt lat="47.556471" lon="-122.671268" /><trkpt lat="47.563201" lon="-122.676806" /><trkpt lat="47.569072" lon="-122.683968" /><trkpt lat="47.577109" lon="-122.688097" /><trkpt lat="47.580196" lon="-122.690717" /><trkpt lat="47.582576" lon="-122.697105" /><trkpt lat="47.587297" lon="-122.698708" /><trkpt lat="47.595821" lon="-122.698568" /><trkpt lat="47.600102" lon="-122.703687" /><trkpt lat="47.605786" lon="-122.711602" /><trkpt lat="47.611033" lon="-122.712473" /><trkpt lat="47.633037" lon="-122.709685" /><trkpt lat="47.638477" lon="-122.705616" /><trkpt lat="47.648033" lon="-122.706119" /><trkpt lat="47.65616" lon="-122.705014" /><trkpt lat="47.658618" lon="-122.703058" /><trkpt lat="47.66155" lon="-122.692857" /><trkpt lat="47.664599" lon="-122.687948" /><trkpt lat="47.67144" lon="-122.68904" /><trkpt lat="47.678468" lon="-122.690849" /><trkpt lat="47.686401" lon="-122.688275" /><trkpt lat="47.698614" lon="-122.685385" /><trkpt lat="47.712311" lon="-122.681292" /><trkpt lat="47.74735" lon="-122.670681" /><trkpt lat="47.751932" lon="-122.66563" /><trkpt lat="47.755217" lon="-122.65901" /><trkpt lat="47.76378" lon="-122.652302" /><trkpt lat="47.771739" lon="-122.65082" /><trkpt lat="47.779543" lon="-122.651098" /><trkpt lat="47.788486" lon="-122.651421" /><trkpt lat="47.794847" lon="-122.651609" /><trkpt lat="47.802258" lon="-122.64935" /><trkpt lat="47.812896" lon="-122.645922" /><trkpt lat="47.818586" lon="-122.642962" /><trkpt lat="47.822885" lon="-122.638598" /><trkpt lat="47.827964" lon="-122.631229" /><trkpt lat="47.833802" lon="-122.622764" /><trkpt lat="47.838458" lon="-122.618483" /><trkpt lat="47.845145" lon="-122.615017" /><trkpt lat="47.84816" lon="-122.613776" /><trkpt lat="47.850693" lon="-122.611077" /><trkpt lat="47.857437" lon="-122.620168" /><trkpt lat="47.867581" lon="-122.638489" /><trkpt lat="47.867897" lon="-122.640446" /><trkpt lat="47.868973" lon="-122.652784" /><trkpt lat="47.871642" lon="-122.661579" /><trkpt lat="47.870122" lon="-122.675467" /><trkpt lat="47.869648" lon="-122.684383" /><trkpt lat="47.873552" lon="-122.694324" /><trkpt lat="47.877408" lon="-122.711319" /><trkpt lat="47.889133" lon="-122.728052" /><trkpt lat="47.890098" lon="-122.732232" /><trkpt lat="47.890405" lon="-122.735515" /><trkpt lat="47.894462" lon="-122.75791" /><trkpt lat="47.91387" lon="-122.788833" /><trkpt lat="47.918486" lon="-122.797364" /><trkpt lat="47.924073" lon="-122.817521" /><trkpt lat="47.9344" lon="-122.839809" /><trkpt lat="47.941062" lon="-122.854832" /><trkpt lat="47.944081" lon="-122.879426" /><trkpt lat="47.945628" lon="-122.883404" /><trkpt lat="47.948682" lon="-122.884494" /><trkpt lat="47.954175" lon="-122.88138" /><trkpt lat="47.958683" lon="-122.882729" /><trkpt lat="47.96411" lon="-122.880899" /><trkpt lat="47.973574" lon="-122.883099" /><trkpt lat="47.981257" lon="-122.885516" /><trkpt lat="47.985232" lon="-122.884733" /><trkpt lat="47.987468" lon="-122.886318" /><trkpt lat="47.989367" lon="-122.889823" /><trkpt lat="47.992035" lon="-122.88997" /><trkpt lat="47.99839" lon="-122.883035" /><trkpt lat="48.001255" lon="-122.876953" /><trkpt lat="48.005289" lon="-122.866078" /><trkpt lat="48.013538" lon="-122.862568" /><trkpt lat="48.019526" lon="-122.863011" /><trkpt lat="48.033471" lon="-122.869391" /><trkpt lat="48.040835" lon="-122.879089" /><trkpt lat="48.047592" lon="-122.91153" /><trkpt lat="48.050251" lon="-122.933159" /><trkpt lat="48.050292" lon="-122.96252" /><trkpt lat="48.046601" lon="-122.978473" /><trkpt lat="48.034247" lon="-122.988078" /><trkpt lat="48.024624" lon="-122.995348" /><trkpt lat="48.020476" lon="-123.005043" /><trkpt lat="48.024305" lon="-123.011695" /><trkpt lat="48.037427" lon="-123.030477" /><trkpt lat="48.044582" lon="-123.031908" /><trkpt lat="48.054222" lon="-123.047232" /><trkpt lat="48.065775" lon="-123.062744" /><trkpt lat="48.07142" lon="-123.081761" /><trkpt lat="48.073683" lon="-123.101587" /><trkpt lat="48.078305" lon="-123.102342" /><trkpt lat="48.081457" lon="-123.102464" /><trkpt lat="48.083221" lon="-123.113148" /><trkpt lat="48.085163" lon="-123.11111" /><trkpt lat="48.0849312" lon="-123.1096706" /><trkpt lat="48.08583" lon="-123.113146" /><trkpt lat="48.082484" lon="-123.11315" /><trkpt lat="48.08098" lon="-123.118582" /><trkpt lat="48.07962" lon="-123.119878" /><trkpt lat="48.079144" lon="-123.123673" /><trkpt lat="48.079053" lon="-123.124394" /><trkpt lat="48.077813" lon="-123.133146" /><trkpt lat="48.077691" lon="-123.134955" /><trkpt lat="48.076832" lon="-123.134917" /><trkpt lat="48.074777" lon="-123.135143" /><trkpt lat="48.076169" lon="-123.150157" /><trkpt lat="48.07818" lon="-123.163793" /><trkpt lat="48.079409" lon="-123.171678" /><trkpt lat="48.082229" lon="-123.189244" /><trkpt lat="48.08518" lon="-123.206864" /><trkpt lat="48.086937" lon="-123.219214" /><trkpt lat="48.089189" lon="-123.234633" /><trkpt lat="48.09083" lon="-123.249387" /><trkpt lat="48.093035" lon="-123.268565" /><trkpt lat="48.094565" lon="-123.282215" /><trkpt lat="48.096277" lon="-123.298343" /><trkpt lat="48.096475" lon="-123.315566" /><trkpt lat="48.099875" lon="-123.335153" /><trkpt lat="48.10415" lon="-123.343088" /><trkpt lat="48.10639" lon="-123.346377" /><trkpt lat="48.106583" lon="-123.347781" /><trkpt lat="48.106256" lon="-123.349263" /><trkpt lat="48.103535" lon="-123.352648" /><trkpt lat="48.103016" lon="-123.353991" /><trkpt lat="48.102986" lon="-123.355566" /><trkpt lat="48.103467" lon="-123.357015" /><trkpt lat="48.104388" lon="-123.357878" /><trkpt lat="48.105436" lon="-123.358" /><trkpt lat="48.108413" lon="-123.357603" /><trkpt lat="48.109302" lon="-123.360676" /><trkpt lat="48.106299" lon="-123.36773" /><trkpt lat="48.104848" lon="-123.377304" /><trkpt lat="48.104523" lon="-123.384324" /><trkpt lat="48.105537" lon="-123.39305" /><trkpt lat="48.106461" lon="-123.399885" /><trkpt lat="48.107416" lon="-123.402664" /><trkpt lat="48.108561" lon="-123.405083" /><trkpt lat="48.11018" lon="-123.409007" /><trkpt lat="48.111513" lon="-123.412281" /><trkpt lat="48.112681" lon="-123.415132" /><trkpt lat="48.113807" lon="-123.417855" /><trkpt lat="48.113055" lon="-123.418933" /><trkpt lat="48.111215" lon="-123.420597" /><trkpt lat="48.108708" lon="-123.422877" /><trkpt lat="48.10673" lon="-123.424679" /><trkpt lat="48.104701" lon="-123.426957" /><trkpt lat="48.106023" lon="-123.43534" /><trkpt lat="48.107073" lon="-123.441994" /><trkpt lat="48.107539" lon="-123.445047" /><trkpt lat="48.107759" lon="-123.452758" /><trkpt lat="48.106604" lon="-123.464452" /><trkpt lat="48.106087" lon="-123.469651" /><trkpt lat="48.105459" lon="-123.476479" /><trkpt lat="48.104304" lon="-123.487868" /><trkpt lat="48.102179" lon="-123.509653" /><trkpt lat="48.100738" lon="-123.524107" /><trkpt lat="48.099153" lon="-123.534529" /><trkpt lat="48.097487" lon="-123.539914" /><trkpt lat="48.088822" lon="-123.55901" /><trkpt lat="48.084927" lon="-123.558535" /><trkpt lat="48.081232" lon="-123.559773" /><trkpt lat="48.075272" lon="-123.566916" /><trkpt lat="48.070896" lon="-123.572794" /><trkpt lat="48.070194" lon="-123.574839" /><trkpt lat="48.06916" lon="-123.575771" /><trkpt lat="48.067267" lon="-123.575603" /><trkpt lat="48.066409" lon="-123.576074" /><trkpt lat="48.065692" lon="-123.579349" /><trkpt lat="48.065677" lon="-123.581684" /><trkpt lat="48.065974" lon="-123.585452" /><trkpt lat="48.065638" lon="-123.588894" /><trkpt lat="48.064604" lon="-123.592294" /><trkpt lat="48.063916" lon="-123.595202" /><trkpt lat="48.063757" lon="-123.598393" /><trkpt lat="48.06432" lon="-123.602177" /><trkpt lat="48.069218" lon="-123.625923" /><trkpt lat="48.073333" lon="-123.66885" /><trkpt lat="48.076209" lon="-123.687481" /><trkpt lat="48.077409" lon="-123.692783" /><trkpt lat="48.078356" lon="-123.699971" /><trkpt lat="48.08005" lon="-123.703144" /><trkpt lat="48.083962" lon="-123.706793" /><trkpt lat="48.087826" lon="-123.725933" /><trkpt lat="48.082743" lon="-123.733471" /><trkpt lat="48.080564" lon="-123.740169" /><trkpt lat="48.079465" lon="-123.747803" /><trkpt lat="48.078963" lon="-123.752601" /><trkpt lat="48.077222" lon="-123.759049" /><trkpt lat="48.076845" lon="-123.765604" /><trkpt lat="48.075521" lon="-123.770299" /><trkpt lat="48.071935" lon="-123.773938" /><trkpt lat="48.067968" lon="-123.775865" /><trkpt lat="48.064592" lon="-123.776875" /><trkpt lat="48.062205" lon="-123.777578" /><trkpt lat="48.059346" lon="-123.782363" /><trkpt lat="48.057874" lon="-123.786451" /><trkpt lat="48.055299" lon="-123.791733" /><trkpt lat="48.054312" lon="-123.796044" /><trkpt lat="48.051127" lon="-123.798545" /><trkpt lat="48.049097" lon="-123.805655" /><trkpt lat="48.049431" lon="-123.812122" /><trkpt lat="48.050667" lon="-123.817979" /><trkpt lat="48.051465" lon="-123.823327" /><trkpt lat="48.052141" lon="-123.829985" /><trkpt lat="48.051931" lon="-123.833894" /><trkpt lat="48.05128" lon="-123.838662" /><trkpt lat="48.051276" lon="-123.841558" /><trkpt lat="48.04936" lon="-123.843479" /><trkpt lat="48.049155" lon="-123.848103" /><trkpt lat="48.049112" lon="-123.853883" /><trkpt lat="48.049582" lon="-123.859384" /><trkpt lat="48.051131" lon="-123.865615" /><trkpt lat="48.052347" lon="-123.870455" /><trkpt lat="48.053717" lon="-123.875167" /><trkpt lat="48.055306" lon="-123.878851" /><trkpt lat="48.056702" lon="-123.88217" /><trkpt lat="48.058505" lon="-123.884114" /><trkpt lat="48.058625" lon="-123.889905" /><trkpt lat="48.059817" lon="-123.894281" /><trkpt lat="48.061043" lon="-123.898473" /><trkpt lat="48.0613" lon="-123.902462" /><trkpt lat="48.063035" lon="-123.908284" /><trkpt lat="48.06736" lon="-123.915465" /><trkpt lat="48.071604" lon="-123.932164" /><trkpt lat="48.073428" lon="-123.951531" /><trkpt lat="48.077217" lon="-123.958408" /><trkpt lat="48.073603" lon="-123.972765" /><trkpt lat="48.071102" lon="-124.020075" /><trkpt lat="48.068191" lon="-124.086153" /><trkpt lat="48.062139" lon="-124.119489" /><trkpt lat="48.061434" lon="-124.161753" /><trkpt lat="48.06374" lon="-124.208489" /><trkpt lat="48.066056" lon="-124.235621" /><trkpt lat="48.070369" lon="-124.272339" /><trkpt lat="48.069601" lon="-124.284409" /><trkpt lat="48.066964" lon="-124.303925" /><trkpt lat="48.061836" lon="-124.309372" /><trkpt lat="48.055193" lon="-124.325714" /><trkpt lat="48.055077" lon="-124.342868" /><trkpt lat="48.055873" lon="-124.352181" /><trkpt lat="48.052725" lon="-124.35836" /><trkpt lat="48.043402" lon="-124.37656" /><trkpt lat="48.03191" lon="-124.387087" /><trkpt lat="48.01997" lon="-124.390396" /><trkpt lat="48.014828" lon="-124.391488" /><trkpt lat="48.009302" lon="-124.389302" /><trkpt lat="47.989095" lon="-124.392419" /><trkpt lat="47.982345" lon="-124.400603" /><trkpt lat="47.971308" lon="-124.40357" /><trkpt lat="47.965262" lon="-124.402208" /><trkpt lat="47.957877" lon="-124.38933" /><trkpt lat="47.955325" lon="-124.386041" /><trkpt lat="47.952235" lon="-124.385393" /><trkpt lat="47.950215" lon="-124.38606" /><trkpt lat="47.948149" lon="-124.385451" /><trkpt lat="47.942132" lon="-124.385536" /><trkpt lat="47.939534" lon="-124.386919" /><trkpt lat="47.932948" lon="-124.406761" /><trkpt lat="47.927398" lon="-124.409096" /><trkpt lat="47.90757" lon="-124.392376" /><trkpt lat="47.903565" lon="-124.387887" /><trkpt lat="47.895049" lon="-124.377802" /><trkpt lat="47.894441" lon="-124.357014" /><trkpt lat="47.890128" lon="-124.356979" /><trkpt lat="47.877108" lon="-124.347804" /><trkpt lat="47.871344" lon="-124.338116" /><trkpt lat="47.868631" lon="-124.337614" /><trkpt lat="47.860888" lon="-124.332271" /><trkpt lat="47.858295" lon="-124.325086" /><trkpt lat="47.855676" lon="-124.32299" /><trkpt lat="47.85495" lon="-124.31984" /><trkpt lat="47.854058" lon="-124.311585" /><trkpt lat="47.851607" lon="-124.302807" /><trkpt lat="47.848485" lon="-124.285076" /><trkpt lat="47.838321" lon="-124.276698" /><trkpt lat="47.832835" lon="-124.270185" /><trkpt lat="47.829582" lon="-124.265071" /><trkpt lat="47.821489" lon="-124.26443" /><trkpt lat="47.809835" lon="-124.258099" /><trkpt lat="47.808967" lon="-124.25486" /><trkpt lat="47.810532" lon="-124.252959" /><trkpt lat="47.81112" lon="-124.250858" /><trkpt lat="47.809884" lon="-124.250114" /><trkpt lat="47.807378" lon="-124.250298" /><trkpt lat="47.801682" lon="-124.251749" /><trkpt lat="47.792786" lon="-124.25173" /><trkpt lat="47.78768" lon="-124.249419" /><trkpt lat="47.781992" lon="-124.253215" /><trkpt lat="47.78063" lon="-124.264473" /><trkpt lat="47.782511" lon="-124.272908" /><trkpt lat="47.780361" lon="-124.278457" /><trkpt lat="47.77327" lon="-124.284665" /><trkpt lat="47.769739" lon="-124.296373" /><trkpt lat="47.76266" lon="-124.312207" /><trkpt lat="47.753418" lon="-124.321686" /><trkpt lat="47.749391" lon="-124.324441" /><trkpt lat="47.747814" lon="-124.331026" /><trkpt lat="47.7452" lon="-124.337919" /><trkpt lat="47.735979" lon="-124.355598" /><trkpt lat="47.735767" lon="-124.363114" /><trkpt lat="47.733665" lon="-124.366829" /><trkpt lat="47.732585" lon="-124.375552" /><trkpt lat="47.728561" lon="-124.381521" /><trkpt lat="47.727471" lon="-124.385984" /><trkpt lat="47.723305" lon="-124.391212" /><trkpt lat="47.721619" lon="-124.399443" /><trkpt lat="47.715168" lon="-124.413588" /><trkpt lat="47.710668" lon="-124.410797" /><trkpt lat="47.708857" lon="-124.413564" /><trkpt lat="47.691371" lon="-124.410233" /><trkpt lat="47.687747" lon="-124.408129" /><trkpt lat="47.685484" lon="-124.405639" /><trkpt lat="47.677427" lon="-124.401222" /><trkpt lat="47.670659" lon="-124.396257" /><trkpt lat="47.657733" lon="-124.387482" /><trkpt lat="47.641308" lon="-124.384823" /><trkpt lat="47.637273" lon="-124.382861" /><trkpt lat="47.631781" lon="-124.37992" /><trkpt lat="47.621" lon="-124.378306" /><trkpt lat="47.608936" lon="-124.37251" /><trkpt lat="47.600587" lon="-124.369511" /><trkpt lat="47.564196" lon="-124.35925" /><trkpt lat="47.55345" lon="-124.356033" /><trkpt lat="47.54488" lon="-124.33886" /><trkpt lat="47.536596" lon="-124.333141" /><trkpt lat="47.527933" lon="-124.33753" /><trkpt lat="47.518186" lon="-124.331277" /><trkpt lat="47.518834" lon="-124.315869" /><trkpt lat="47.536839" lon="-124.287016" /><trkpt lat="47.541689" lon="-124.269821" /><trkpt lat="47.541663" lon="-124.264218" /><trkpt lat="47.536022" lon="-124.233783" /><trkpt lat="47.530836" lon="-124.201807" /><trkpt lat="47.52614" lon="-124.19712" /><trkpt lat="47.523266" lon="-124.186928" /><trkpt lat="47.512923" lon="-124.174761" /><trkpt lat="47.502778" lon="-124.14606" /><trkpt lat="47.496845" lon="-124.123182" /><trkpt lat="47.494203" lon="-124.108685" /><trkpt lat="47.483222" lon="-124.077824" /><trkpt lat="47.475217" lon="-124.049228" /><trkpt lat="47.473758" lon="-124.022215" /><trkpt lat="47.475674" lon="-124.005821" /><trkpt lat="47.480236" lon="-123.978203" /><trkpt lat="47.480265" lon="-123.970044" /><trkpt lat="47.480187" lon="-123.940296" /><trkpt lat="47.479558" lon="-123.931994" /><trkpt lat="47.470421" lon="-123.924755" /><trkpt lat="47.464215" lon="-123.917685" /><trkpt lat="47.458166" lon="-123.906382" /><trkpt lat="47.459183" lon="-123.896638" /><trkpt lat="47.456943" lon="-123.887336" /><trkpt lat="47.454869" lon="-123.879114" /><trkpt lat="47.441635" lon="-123.877682" /><trkpt lat="47.421333" lon="-123.876286" /><trkpt lat="47.41475" lon="-123.880495" /><trkpt lat="47.405294" lon="-123.88686" /><trkpt lat="47.395445" lon="-123.891078" /><trkpt lat="47.379596" lon="-123.897353" /><trkpt lat="47.375634" lon="-123.899711" /><trkpt lat="47.355348" lon="-123.910918" /><trkpt lat="47.348624" lon="-123.909444" /><trkpt lat="47.342671" lon="-123.907218" /><trkpt lat="47.33002" lon="-123.906709" /><trkpt lat="47.300368" lon="-123.908347" /><trkpt lat="47.285698" lon="-123.91123" /><trkpt lat="47.262383" lon="-123.920862" /><trkpt lat="47.248692" lon="-123.929277" /><trkpt lat="47.242959" lon="-123.932099" /><trkpt lat="47.234069" lon="-123.954024" /><trkpt lat="47.226605" lon="-123.96555" /><trkpt lat="47.220069" lon="-123.969329" /><trkpt lat="47.199886" lon="-123.955134" /><trkpt lat="47.191506" lon="-123.935803" /><trkpt lat="47.178873" lon="-123.898431" /><trkpt lat="47.169744" lon="-123.884911" /><trkpt lat="47.163609" lon="-123.87943" /><trkpt lat="47.156412" lon="-123.882707" /><trkpt lat="47.142314" lon="-123.890302" /><trkpt lat="47.133898" lon="-123.897733" /><trkpt lat="47.123495" lon="-123.894059" /><trkpt lat="47.114062" lon="-123.896121" /><trkpt lat="47.105948" lon="-123.904701" /><trkpt lat="47.099589" lon="-123.906077" /><trkpt lat="47.084767" lon="-123.907208" /><trkpt lat="47.074984" lon="-123.920557" /><trkpt lat="47.069133" lon="-123.929688" /><trkpt lat="47.060258" lon="-123.92885" /><trkpt lat="47.05674" lon="-123.926911" /><trkpt lat="47.046811" lon="-123.924791" /><trkpt lat="47.036545" lon="-123.921559" /><trkpt lat="47.031147" lon="-123.922127" /><trkpt lat="47.021869" lon="-123.916805" /><trkpt lat="47.010679" lon="-123.911266" /><trkpt lat="47.005288" lon="-123.906592" /><trkpt lat="46.998695" lon="-123.903494" /><trkpt lat="46.994883" lon="-123.895784" /><trkpt lat="46.992771" lon="-123.889097" /><trkpt lat="46.990936" lon="-123.885727" /><trkpt lat="46.985457" lon="-123.885714" /><trkpt lat="46.981868" lon="-123.885676" /><trkpt lat="46.978715" lon="-123.886297" /><trkpt lat="46.976552" lon="-123.883011" /><trkpt lat="46.975401" lon="-123.878212" /><trkpt lat="46.975238" lon="-123.866823" /><trkpt lat="46.97518" lon="-123.856186" /><trkpt lat="46.975111" lon="-123.84739" /><trkpt lat="46.975104" lon="-123.840832" /><trkpt lat="46.975096" lon="-123.833367" /><trkpt lat="46.974196" lon="-123.830642" /><trkpt lat="46.972921" lon="-123.825488" /><trkpt lat="46.976337" lon="-123.818777" /><trkpt lat="46.975363" lon="-123.815713" /><trkpt lat="46.974673" lon="-123.814672" /><trkpt lat="46.975818" lon="-123.812459" /><trkpt lat="46.976195" lon="-123.809127" /><trkpt lat="46.97704" lon="-123.80803" /><trkpt lat="46.977298" lon="-123.804964" /><trkpt lat="46.977346" lon="-123.802661" /><trkpt lat="46.977691" lon="-123.796558" /><trkpt lat="46.981398" lon="-123.779595" /><trkpt lat="46.981577" lon="-123.774636" /><trkpt lat="46.979604" lon="-123.764033" /><trkpt lat="46.978561" lon="-123.754975" /><trkpt lat="46.976558" lon="-123.750257" /><trkpt lat="46.972258" lon="-123.742003" /><trkpt lat="46.971063" lon="-123.738215" /><trkpt lat="46.970823" lon="-123.73016" /><trkpt lat="46.971642" lon="-123.719048" /><trkpt lat="46.972543" lon="-123.706942" /><trkpt lat="46.973134" lon="-123.699005" /><trkpt lat="46.973778" lon="-123.690411" /><trkpt lat="46.97482" lon="-123.676178" /><trkpt lat="46.975911" lon="-123.661084" /><trkpt lat="46.976505" lon="-123.650359" /><trkpt lat="46.976534" lon="-123.628813" /><trkpt lat="46.975937" lon="-123.623535" /><trkpt lat="46.973373" lon="-123.613802" /><trkpt lat="46.973179" lon="-123.609306" /><trkpt lat="46.975638" lon="-123.600169" /><trkpt lat="46.977837" lon="-123.594938" /><trkpt lat="46.97922" lon="-123.586688" /><trkpt lat="46.981685" lon="-123.572916" /><trkpt lat="46.982926" lon="-123.561223" /><trkpt lat="46.985422" lon="-123.547438" /><trkpt lat="46.988626" lon="-123.534767" /><trkpt lat="46.992391" lon="-123.517973" /><trkpt lat="46.9948" lon="-123.509701" /><trkpt lat="46.998368" lon="-123.498995" /><trkpt lat="46.999926" lon="-123.491066" /><trkpt lat="46.999879" lon="-123.486881" /><trkpt lat="46.999139" lon="-123.479703" /><trkpt lat="46.99891" lon="-123.470983" /><trkpt lat="46.998685" lon="-123.459097" /><trkpt lat="46.998173" lon="-123.453239" /><trkpt lat="46.99659" lon="-123.445685" /><trkpt lat="46.995706" lon="-123.440992" /><trkpt lat="46.995451" lon="-123.437082" /><trkpt lat="46.995381" lon="-123.428746" /><trkpt lat="46.995847" lon="-123.42404" /><trkpt lat="46.997535" lon="-123.417719" /><trkpt lat="46.999485" lon="-123.411021" /><trkpt lat="47.00085" lon="-123.402414" /><trkpt lat="47.002992" lon="-123.394855" /><trkpt lat="47.006644" lon="-123.382673" /><trkpt lat="47.012094" lon="-123.3667" /><trkpt lat="47.018635" lon="-123.350854" /><trkpt lat="47.02711" lon="-123.342612" /><trkpt lat="47.037878" lon="-123.33202" /><trkpt lat="47.041125" lon="-123.321402" /><trkpt lat="47.047858" lon="-123.308906" /><trkpt lat="47.053737" lon="-123.288657" /><trkpt lat="47.054402" lon="-123.282412" /><trkpt lat="47.054208" lon="-123.277095" /><trkpt lat="47.051461" lon="-123.272126" /><trkpt lat="47.045462" lon="-123.263841" /><trkpt lat="47.044377" lon="-123.259566" /><trkpt lat="47.044875" lon="-123.25309" /><trkpt lat="47.047561" lon="-123.240768" /><trkpt lat="47.050074" lon="-123.235047" /><trkpt lat="47.050507" lon="-123.232521" /><trkpt lat="47.050022" lon="-123.224253" /><trkpt lat="47.050525" lon="-123.218472" /><trkpt lat="47.053647" lon="-123.208968" /><trkpt lat="47.057762" lon="-123.195603" /><trkpt lat="47.058433" lon="-123.189971" /><trkpt lat="47.058849" lon="-123.177723" /><trkpt lat="47.057866" lon="-123.170903" /><trkpt lat="47.055837" lon="-123.157169" /><trkpt lat="47.054918" lon="-123.154071" /><trkpt lat="47.048799" lon="-123.146071" /><trkpt lat="47.044828" lon="-123.139322" /><trkpt lat="47.039664" lon="-123.127474" /><trkpt lat="47.03547" lon="-123.121102" /><trkpt lat="47.033267" lon="-123.117346" /><trkpt lat="47.032655" lon="-123.112774" /><trkpt lat="47.032399" lon="-123.104241" /><trkpt lat="47.033242" lon="-123.099396" /><trkpt lat="47.038271" lon="-123.085176" /><trkpt lat="47.040137" lon="-123.07746" /><trkpt lat="47.040982" lon="-123.069815" /><trkpt lat="47.040591" lon="-123.060131" /><trkpt lat="47.041306" lon="-123.056753" /><trkpt lat="47.044222" lon="-123.053248" /><trkpt lat="47.04678" lon="-123.050126" /><trkpt lat="47.049067" lon="-123.042546" /><trkpt lat="47.052983" lon="-123.03164" /><trkpt lat="47.056054" lon="-123.026365" /><trkpt lat="47.058002" lon="-123.022483" /><trkpt lat="47.058341" lon="-123.01908" /><trkpt lat="47.057625" lon="-123.01586" /><trkpt lat="47.056008" lon="-123.01096" /><trkpt lat="47.055067" lon="-123.006179" /><trkpt lat="47.050271" lon="-122.999517" /><trkpt lat="47.047146" lon="-122.994802" /><trkpt lat="47.043077" lon="-122.987511" /><trkpt lat="47.042153" lon="-122.9844" /><trkpt lat="47.042568" lon="-122.972455" /><trkpt lat="47.042378" lon="-122.96859" /><trkpt lat="47.040037" lon="-122.96045" /><trkpt lat="47.035857" lon="-122.947899" /><trkpt lat="47.031291" lon="-122.938684" /><trkpt lat="47.026726" lon="-122.929581" /><trkpt lat="47.025711" lon="-122.925903" /><trkpt lat="47.025636" lon="-122.915335" /><trkpt lat="47.025075" lon="-122.912782" /><trkpt lat="47.023475" lon="-122.910638" /><trkpt lat="47.021418" lon="-122.909083" /><trkpt lat="47.021039" lon="-122.907142" /><trkpt lat="47.021462" lon="-122.905898" /><trkpt lat="47.023025" lon="-122.904206" /><trkpt lat="47.024136" lon="-122.901461" /><trkpt lat="47.025189" lon="-122.898695" /><trkpt lat="47.031054" lon="-122.892925" /><trkpt lat="47.034394" lon="-122.889426" /><trkpt lat="47.035422" lon="-122.885577" /><trkpt lat="47.035995" lon="-122.87773" /><trkpt lat="47.039706" lon="-122.87035" /><trkpt lat="47.04052" lon="-122.866153" /><trkpt lat="47.040907" lon="-122.852792" /><trkpt lat="47.045194" lon="-122.840819" /><trkpt lat="47.046878" lon="-122.822614" /><trkpt lat="47.050145" lon="-122.816652" /><trkpt lat="47.056366" lon="-122.80705" /><trkpt lat="47.063281" lon="-122.765937" /><trkpt lat="47.067335" lon="-122.734646" /><trkpt lat="47.067879" lon="-122.716069" /><trkpt lat="47.068864" lon="-122.711231" /><trkpt lat="47.077121" lon="-122.68976" /><trkpt lat="47.082466" lon="-122.671007" /><trkpt lat="47.084595" lon="-122.658169" /><trkpt lat="47.088433" lon="-122.642229" /><trkpt lat="47.091112" lon="-122.630462" /><trkpt lat="47.094493" lon="-122.617969" /><trkpt lat="47.099598" lon="-122.608121" /><trkpt lat="47.10257" lon="-122.597903" /><trkpt lat="47.103369" lon="-122.590817" /><trkpt lat="47.104653" lon="-122.586381" /><trkpt lat="47.105959" lon="-122.583089" /><trkpt lat="47.109775" lon="-122.572898" /><trkpt lat="47.117005" lon="-122.559518" /><trkpt lat="47.124819" lon="-122.546341" /><trkpt lat="47.134623" lon="-122.529691" /><trkpt lat="47.139585" lon="-122.519682" /><trkpt lat="47.148024" lon="-122.502587" /><trkpt lat="47.160067" lon="-122.482659" /><trkpt lat="47.166684" lon="-122.47602" /><trkpt lat="47.177268" lon="-122.465761" /><trkpt lat="47.179038" lon="-122.464689" /><trkpt lat="47.1791" lon="-122.463198" /><trkpt lat="47.177522" lon="-122.463172" /><trkpt lat="47.174828" lon="-122.463137" /><trkpt lat="47.176914" lon="-122.463171" /><trkpt lat="47.178321" lon="-122.463185" /><trkpt lat="47.179358" lon="-122.4632" /><trkpt lat="47.18035" lon="-122.463208" /><trkpt lat="47.182382" lon="-122.463231" /><trkpt lat="47.185867" lon="-122.463103" /><trkpt lat="47.187303" lon="-122.462677" /><trkpt lat="47.189228" lon="-122.461597" /><trkpt lat="47.190089" lon="-122.46015" /><trkpt lat="47.190632" lon="-122.459796" /><trkpt lat="47.191865" lon="-122.459762" /><trkpt lat="47.191535" lon="-122.460753" /><trkpt lat="47.191679" lon="-122.461399" /><trkpt lat="47.192741" lon="-122.461933" /><trkpt lat="47.196418" lon="-122.462127" /><trkpt lat="47.202849" lon="-122.461173" /><trkpt lat="47.205096" lon="-122.461296" /><trkpt lat="47.211748" lon="-122.462166" /><trkpt lat="47.215755" lon="-122.462711" /><trkpt lat="47.222147" lon="-122.463" /><trkpt lat="47.226663" lon="-122.462672" /><trkpt lat="47.228657" lon="-122.461013" /><trkpt lat="47.230183" lon="-122.460629" /><trkpt lat="47.231754" lon="-122.461441" /><trkpt lat="47.234277" lon="-122.464349" /><trkpt lat="47.234984" lon="-122.466089" /><trkpt lat="47.235196" lon="-122.467733" /><trkpt lat="47.234997" lon="-122.481743" /><trkpt lat="47.234859" lon="-122.495311" /><trkpt lat="47.235567" lon="-122.498121" /><trkpt lat="47.237976" lon="-122.50054" /><trkpt lat="47.24459" lon="-122.506077" /><trkpt lat="47.249817" lon="-122.510704" /><trkpt lat="47.25579" lon="-122.514054" /><trkpt lat="47.257496" lon="-122.516166" /><trkpt lat="47.258133" lon="-122.519218" /><trkpt lat="47.25877" lon="-122.535422" /><trkpt lat="47.259305" lon="-122.538482" /><trkpt lat="47.274893" lon="-122.558512" /><trkpt lat="47.277209" lon="-122.560325" /><trkpt lat="47.284206" lon="-122.560409" /><trkpt lat="47.288379" lon="-122.561399" /><trkpt lat="47.296232" lon="-122.568285" /><trkpt lat="47.306237" lon="-122.577163" /><trkpt lat="47.318395" lon="-122.587913" /><trkpt lat="47.324319" lon="-122.593172" /><trkpt lat="47.334207" lon="-122.602299" /><trkpt lat="47.338231" lon="-122.605156" /><trkpt lat="47.358468" lon="-122.614347" /><trkpt lat="47.366358" lon="-122.617917" /><trkpt lat="47.370989" lon="-122.618889" /><trkpt lat="47.378819" lon="-122.615669" /><trkpt lat="47.384635" lon="-122.615459" /><trkpt lat="47.389113" lon="-122.616212" /><trkpt lat="47.394226" lon="-122.618756" /><trkpt lat="47.398013" lon="-122.621687" /><trkpt lat="47.401414" lon="-122.623953" /><trkpt lat="47.40409" lon="-122.624846" /><trkpt lat="47.40597" lon="-122.624983" /><trkpt lat="47.410511" lon="-122.624588" /><trkpt lat="47.41375" lon="-122.623729" /><trkpt lat="47.417409" lon="-122.622777" /><trkpt lat="47.419703" lon="-122.622764" /><trkpt lat="47.42377" lon="-122.623492" /><trkpt lat="47.427766" lon="-122.623369" /><trkpt lat="47.435855" lon="-122.622748" /><trkpt lat="47.450601" lon="-122.621546" /><trkpt lat="47.453431" lon="-122.621462" /><trkpt lat="47.461049" lon="-122.623509" /><trkpt lat="47.468904" lon="-122.624156" /><trkpt lat="47.473092" lon="-122.624271" /><trkpt lat="47.475588" lon="-122.62465" /><trkpt lat="47.478471" lon="-122.625806" /><trkpt lat="47.48221" lon="-122.628517" /><trkpt lat="47.487521" lon="-122.632734" /><trkpt lat="47.491494" lon="-122.636024" /><trkpt lat="47.496857" lon="-122.641322" /><trkpt lat="47.501011" lon="-122.645401" /><trkpt lat="47.502326" lon="-122.646374" /><trkpt lat="47.505287" lon="-122.648147" /><trkpt lat="47.509574" lon="-122.650753" /><trkpt lat="47.512204" lon="-122.652971" /><trkpt lat="47.517186" lon="-122.657709" /><trkpt lat="47.519749" lon="-122.659315" /><trkpt lat="47.522889" lon="-122.660411" /><trkpt lat="47.524856" lon="-122.661053" /><trkpt lat="47.526731" lon="-122.662259" /><trkpt lat="47.528434" lon="-122.664595" /><trkpt lat="47.528975" lon="-122.666043" /><trkpt lat="47.52935" lon="-122.66821" /><trkpt lat="47.529292" lon="-122.670499" /><trkpt lat="47.528845" lon="-122.67259" /><trkpt lat="47.528124" lon="-122.675941" /><trkpt lat="47.528229" lon="-122.678409" /><trkpt lat="47.528247" lon="-122.680363" /><trkpt lat="47.52746" lon="-122.684105" /><trkpt lat="47.526704" lon="-122.687049" /><trkpt lat="47.525311" lon="-122.690885" /><trkpt lat="47.524956" lon="-122.692531" /><trkpt lat="47.524752" lon="-122.695006" /><trkpt lat="47.525009" lon="-122.697415" /><trkpt lat="47.525523" lon="-122.699224" /><trkpt lat="47.526256" lon="-122.699824" /><trkpt lat="47.527234" lon="-122.699746" /><trkpt lat="47.527993" lon="-122.699154" /><trkpt lat="47.531102" lon="-122.693629" /><trkpt lat="47.53248" lon="-122.688608" /><trkpt lat="47.534944" lon="-122.683794" /><trkpt lat="47.537528" lon="-122.677872" /><trkpt lat="47.538957" lon="-122.675983" /><trkpt lat="47.540792" lon="-122.675837" /><trkpt lat="47.542705" lon="-122.675811" /><trkpt lat="47.544593" lon="-122.674412" /><trkpt lat="47.547076" lon="-122.672906" /><trkpt lat="47.548547" lon="-122.671213" /><trkpt lat="47.550116" lon="-122.670613" /><trkpt lat="47.556471" lon="-122.671268" /><trkpt lat="47.558938" lon="-122.672519" /><trkpt lat="47.562566" lon="-122.67589" /><trkpt lat="47.566512" lon="-122.68159" /><trkpt lat="47.568425" lon="-122.683613" /><trkpt lat="47.570569" lon="-122.684733" /><trkpt lat="47.574209" lon="-122.686591" /><trkpt lat="47.578442" lon="-122.688792" /><trkpt lat="47.579412" lon="-122.689581" /><trkpt lat="47.580325" lon="-122.690973" /><trkpt lat="47.581596" lon="-122.694767" /><trkpt lat="47.582386" lon="-122.696792" /><trkpt lat="47.583892" lon="-122.698397" /><trkpt lat="47.585653" lon="-122.698799" /><trkpt lat="47.591558" lon="-122.698483" /><trkpt lat="47.595188" lon="-122.69839" /><trkpt lat="47.596308" lon="-122.698786" /><trkpt lat="47.598316" lon="-122.700683" /><trkpt lat="47.600457" lon="-122.704301" /><trkpt lat="47.603587" lon="-122.709431" /><trkpt lat="47.605535" lon="-122.71146" /><trkpt lat="47.606956" lon="-122.711994" /><trkpt lat="47.610135" lon="-122.712429" /><trkpt lat="47.61241" lon="-122.712393" /><trkpt lat="47.619279" lon="-122.711499" /><trkpt lat="47.633768" lon="-122.709501" /><trkpt lat="47.63536" lon="-122.708463" /><trkpt lat="47.638615" lon="-122.705513" /><trkpt lat="47.640334" lon="-122.70472" /><trkpt lat="47.647635" lon="-122.706022" /><trkpt lat="47.649891" lon="-122.706249" /><trkpt lat="47.655211" lon="-122.705209" /><trkpt lat="47.656995" lon="-122.704677" /><trkpt lat="47.658094" lon="-122.703752" /><trkpt lat="47.659041" lon="-122.702279" /><trkpt lat="47.660115" lon="-122.698496" /><trkpt lat="47.661657" lon="-122.692424" /><trkpt lat="47.66242" lon="-122.690008" /><trkpt lat="47.663407" lon="-122.68863" /><trkpt lat="47.664397" lon="-122.687418" /><trkpt lat="47.664288" lon="-122.684523" /><trkpt lat="47.662902" lon="-122.680112" /><trkpt lat="47.659517" lon="-122.676324" /><trkpt lat="47.656651" lon="-122.67235" /><trkpt lat="47.656264" lon="-122.671049" /><trkpt lat="47.657184" lon="-122.671461" /><trkpt lat="47.660199" lon="-122.676528" /><trkpt lat="47.663522" lon="-122.681804" /><trkpt lat="47.664643" lon="-122.685301" /><trkpt lat="47.664816" lon="-122.686548" /><trkpt lat="47.664908" lon="-122.68697" /><trkpt lat="47.666713" lon="-122.687319" /><trkpt lat="47.673716" lon="-122.689863" /><trkpt lat="47.676871" lon="-122.690814" /><trkpt lat="47.678951" lon="-122.690786" /><trkpt lat="47.681719" lon="-122.689933" /><trkpt lat="47.688294" lon="-122.68778" /><trkpt lat="47.693949" lon="-122.686722" /><trkpt lat="47.700705" lon="-122.684754" /><trkpt lat="47.70768" lon="-122.682639" /><trkpt lat="47.718287" lon="-122.679491" /><trkpt lat="47.746351" lon="-122.671046" /><trkpt lat="47.748498" lon="-122.669993" /><trkpt lat="47.751039" lon="-122.667234" /><trkpt lat="47.752925" lon="-122.663062" /><trkpt lat="47.754548" lon="-122.659879" /><trkpt lat="47.757191" lon="-122.657222" /><trkpt lat="47.762846" lon="-122.652993" /><trkpt lat="47.766504" lon="-122.650799" /><trkpt lat="47.770396" lon="-122.650773" /><trkpt lat="47.776782" lon="-122.650983" /><trkpt lat="47.779511" lon="-122.651096" /><trkpt lat="47.782341" lon="-122.651197" /><trkpt lat="47.788026" lon="-122.651404" /><trkpt lat="47.791769" lon="-122.651535" /><trkpt lat="47.794847" lon="-122.651609" /><trkpt lat="47.799456" lon="-122.650243" /><trkpt lat="47.802258" lon="-122.64935" /><trkpt lat="47.807969" lon="-122.647496" /><trkpt lat="47.813113" lon="-122.645857" /><trkpt lat="47.817193" lon="-122.643944" /><trkpt lat="47.819353" lon="-122.642345" /><trkpt lat="47.821165" lon="-122.640633" /><trkpt lat="47.823068" lon="-122.638356" /><trkpt lat="47.825518" lon="-122.634817" /><trkpt lat="47.828782" lon="-122.63005" /><trkpt lat="47.832528" lon="-122.624578" /><trkpt lat="47.834074" lon="-122.622446" /><trkpt lat="47.836319" lon="-122.620388" /><trkpt lat="47.83931" lon="-122.617731" /><trkpt lat="47.843795" lon="-122.615578" /><trkpt lat="47.846005" lon="-122.614663" /><trkpt lat="47.847605" lon="-122.614005" /><trkpt lat="47.849351" lon="-122.613253" /><trkpt lat="47.850147" lon="-122.612319" /><trkpt lat="47.851495" lon="-122.609797" /><trkpt lat="47.854852" lon="-122.615573" /><trkpt lat="47.865135" lon="-122.63385" /><trkpt lat="47.867351" lon="-122.637848" /><trkpt lat="47.867757" lon="-122.639042" /><trkpt lat="47.867825" lon="-122.639599" /><trkpt lat="47.868249" lon="-122.649511" /><trkpt lat="47.868878" lon="-122.65249" /><trkpt lat="47.870939" lon="-122.657537" /><trkpt lat="47.871635" lon="-122.661261" /><trkpt lat="47.871545" lon="-122.66457" /><trkpt lat="47.870122" lon="-122.675467" /><trkpt lat="47.869355" lon="-122.681952" /><trkpt lat="47.86971" lon="-122.684589" /><trkpt lat="47.872422" lon="-122.69108" /><trkpt lat="47.873633" lon="-122.694705" /><trkpt lat="47.876042" lon="-122.708672" /><trkpt lat="47.878866" lon="-122.713219" /><trkpt lat="47.888424" lon="-122.725863" /><trkpt lat="47.889248" lon="-122.72866" /><trkpt lat="47.889886" lon="-122.731633" /><trkpt lat="47.8902" lon="-122.732262" /><trkpt lat="47.890199" lon="-122.73318" /><trkpt lat="47.891044" lon="-122.739145" /><trkpt lat="47.894019" lon="-122.75641" /><trkpt lat="47.894801" lon="-122.758678" /><trkpt lat="47.906319" lon="-122.776917" /><trkpt lat="47.915934" lon="-122.792103" /><trkpt lat="47.917852" lon="-122.795364" /><trkpt lat="47.920569" lon="-122.805017" /><trkpt lat="47.922949" lon="-122.813693" /><trkpt lat="47.925419" lon="-122.820721" /><trkpt lat="47.931829" lon="-122.834351" /><trkpt lat="47.93899" lon="-122.849576" /><trkpt lat="47.940908" lon="-122.854123" /><trkpt lat="47.941824" lon="-122.860903" /><trkpt lat="47.943623" lon="-122.875649" /><trkpt lat="47.94451" lon="-122.881409" /><trkpt lat="47.945523" lon="-122.88328" /><trkpt lat="47.947198" lon="-122.884471" /><trkpt lat="47.948448" lon="-122.884546" /><trkpt lat="47.951334" lon="-122.882868" /><trkpt lat="47.953956" lon="-122.881409" /><trkpt lat="47.955504" lon="-122.881751" /><trkpt lat="47.958683" lon="-122.882729" /><trkpt lat="47.961811" lon="-122.882208" /><trkpt lat="47.96411" lon="-122.880899" /><trkpt lat="47.968971" lon="-122.882047" /><trkpt lat="47.973664" lon="-122.883103" /><trkpt lat="47.976173" lon="-122.883173" /><trkpt lat="47.9817" lon="-122.885637" /><trkpt lat="47.983301" lon="-122.885382" /><trkpt lat="47.985543" lon="-122.884751" /><trkpt lat="47.986694" lon="-122.885328" /><trkpt lat="47.98781" lon="-122.887068" /><trkpt lat="47.988828" lon="-122.889256" /><trkpt lat="47.989923" lon="-122.890182" /><trkpt lat="47.99111" lon="-122.890372" /><trkpt lat="47.992565" lon="-122.889524" /><trkpt lat="47.997198" lon="-122.88439" /><trkpt lat="47.999413" lon="-122.881809" /><trkpt lat="48.000248" lon="-122.88019" /><trkpt lat="48.003451" lon="-122.869742" /><trkpt lat="48.004804" lon="-122.866687" /><trkpt lat="48.006548" lon="-122.865059" /><trkpt lat="48.012095" lon="-122.863068" /><trkpt lat="48.015987" lon="-122.862171" /><trkpt lat="48.018275" lon="-122.862659" /><trkpt lat="48.029411" lon="-122.866557" /><trkpt lat="48.032692" lon="-122.868506" /><trkpt lat="48.038769" lon="-122.875745" /><trkpt lat="48.040698" lon="-122.878703" /><trkpt lat="48.041576" lon="-122.881578" /><trkpt lat="48.047111" lon="-122.909092" /><trkpt lat="48.05011" lon="-122.924112" /><trkpt lat="48.050251" lon="-122.933159" /><trkpt lat="48.050253" lon="-122.944569" /><trkpt lat="48.050292" lon="-122.96252" /><trkpt lat="48.048732" lon="-122.972531" /><trkpt lat="48.046436" lon="-122.978722" /><trkpt lat="48.041652" lon="-122.982542" /><trkpt lat="48.032805" lon="-122.98922" /><trkpt lat="48.027508" lon="-122.994068" /><trkpt lat="48.024064" lon="-122.9958" /><trkpt lat="48.020815" lon="-123.002438" /><trkpt lat="48.020707" lon="-123.006395" /><trkpt lat="48.023208" lon="-123.010653" /><trkpt lat="48.025775" lon="-123.013382" /><trkpt lat="48.036135" lon="-123.029556" /><trkpt lat="48.038616" lon="-123.030809" /><trkpt lat="48.043425" lon="-123.031047" /><trkpt lat="48.046701" lon="-123.034946" /><trkpt lat="48.052638" lon="-123.043734" /><trkpt lat="48.056029" lon="-123.050098" /><trkpt lat="48.060918" lon="-123.05412" /><trkpt lat="48.067175" lon="-123.066284" /><trkpt lat="48.07072" lon="-123.078278" /><trkpt lat="48.072884" lon="-123.09475" /><trkpt lat="48.073623" lon="-123.101178" /><trkpt lat="48.075156" lon="-123.102356" /><trkpt lat="48.077841" lon="-123.102356" /><trkpt lat="48.079632" lon="-123.102342" /><trkpt lat="48.081456" lon="-123.102429" /><trkpt lat="48.081464" lon="-123.107828" /><trkpt lat="48.082857" lon="-123.113149" /><trkpt lat="48.084785" lon="-123.113147" /><trkpt lat="48.085163" lon="-123.11111" /><trkpt lat="48.083402" lon="-123.113148" /><trkpt lat="48.08146" lon="-123.103238" /><trkpt lat="48.078305" lon="-123.102342" /><trkpt lat="48.072631" lon="-123.101753" /><trkpt lat="48.072039" lon="-123.085795" /><trkpt lat="48.066068" lon="-123.063325" /><trkpt lat="48.054643" lon="-123.048202" /><trkpt lat="48.044582" lon="-123.031908" /><trkpt lat="48.037161" lon="-123.030317" /><trkpt lat="48.024137" lon="-123.011538" /><trkpt lat="48.020492" lon="-123.004115" /><trkpt lat="48.026187" lon="-122.994626" /><trkpt lat="48.039815" lon="-122.983921" /><trkpt lat="48.047441" lon="-122.976504" /><trkpt lat="48.050256" lon="-122.949079" /><trkpt lat="48.050172" lon="-122.92467" /><trkpt lat="48.041891" lon="-122.88296" /><trkpt lat="48.038945" lon="-122.875969" /><trkpt lat="48.030379" lon="-122.866993" /><trkpt lat="48.016342" lon="-122.862207" /><trkpt lat="48.006701" lon="-122.864978" /><trkpt lat="48.003769" lon="-122.868736" /><trkpt lat="47.999413" lon="-122.881809" /><trkpt lat="47.992565" lon="-122.889524" /><trkpt lat="47.989923" lon="-122.890182" /><trkpt lat="47.98781" lon="-122.887068" /><trkpt lat="47.985543" lon="-122.884751" /><trkpt lat="47.981511" lon="-122.885595" /><trkpt lat="47.973574" lon="-122.883099" /><trkpt lat="47.963848" lon="-122.880945" /><trkpt lat="47.956961" lon="-122.882934" /><trkpt lat="47.952165" lon="-122.883796" /><trkpt lat="47.947757" lon="-122.884591" /><trkpt lat="47.944916" lon="-122.882352" /><trkpt lat="47.942739" lon="-122.868369" /><trkpt lat="47.940224" lon="-122.852204" /><trkpt lat="47.92735" lon="-122.824838" /><trkpt lat="47.921912" lon="-122.809911" /><trkpt lat="47.916727" lon="-122.793345" /><trkpt lat="47.896816" lon="-122.761841" /><trkpt lat="47.891257" lon="-122.740366" /><trkpt lat="47.889248" lon="-122.72866" /><trkpt lat="47.877408" lon="-122.711319" /><trkpt lat="47.873552" lon="-122.694324" /><trkpt lat="47.869538" lon="-122.683949" /><trkpt lat="47.870222" lon="-122.674657" /><trkpt lat="47.871605" lon="-122.660788" /><trkpt lat="47.868733" lon="-122.652055" /><trkpt lat="47.867773" lon="-122.639777" /><trkpt lat="47.867393" lon="-122.638164" /><trkpt lat="47.85717" lon="-122.619692" /><trkpt lat="47.851132" lon="-122.610417" /><trkpt lat="47.84855" lon="-122.613615" /><trkpt lat="47.845145" lon="-122.615017" /><trkpt lat="47.838458" lon="-122.618483" /><trkpt lat="47.83363" lon="-122.622986" /><trkpt lat="47.827663" lon="-122.631664" /><trkpt lat="47.822448" lon="-122.639137" /><trkpt lat="47.81815" lon="-122.64328" /><trkpt lat="47.809408" lon="-122.647035" /><trkpt lat="47.801792" lon="-122.649493" /><trkpt lat="47.793471" lon="-122.65159" /><trkpt lat="47.78433" lon="-122.651267" /><trkpt lat="47.777681" lon="-122.65103" /><trkpt lat="47.767865" lon="-122.650769" /><trkpt lat="47.757464" lon="-122.657318" /><trkpt lat="47.751941" lon="-122.666037" /><trkpt lat="47.746817" lon="-122.671134" /><trkpt lat="47.701523" lon="-122.684795" /><trkpt lat="47.687788" lon="-122.688245" /><trkpt lat="47.678464" lon="-122.691183" /><trkpt lat="47.66748" lon="-122.687889" /><trkpt lat="47.664233" lon="-122.688467" /><trkpt lat="47.661679" lon="-122.693108" /><trkpt lat="47.659455" lon="-122.701825" /><trkpt lat="47.657749" lon="-122.704572" /><trkpt lat="47.653722" lon="-122.705905" /><trkpt lat="47.640775" lon="-122.705065" /><trkpt lat="47.635718" lon="-122.708598" /><trkpt lat="47.628752" lon="-122.710651" /><trkpt lat="47.609979" lon="-122.712834" /><trkpt lat="47.604128" lon="-122.710602" /><trkpt lat="47.598219" lon="-122.700897" /><trkpt lat="47.594717" lon="-122.698598" /><trkpt lat="47.585513" lon="-122.699062" /><trkpt lat="47.581884" lon="-122.696194" /><trkpt lat="47.579862" lon="-122.690527" /><trkpt lat="47.570188" lon="-122.684742" /><trkpt lat="47.562331" lon="-122.675837" /><trkpt lat="47.556869" lon="-122.67158" /><trkpt lat="47.548843" lon="-122.671188" /><trkpt lat="47.545185" lon="-122.674221" /><trkpt lat="47.540175" lon="-122.675858" /><trkpt lat="47.535336" lon="-122.68348" /><trkpt lat="47.531975" lon="-122.69176" /><trkpt lat="47.527809" lon="-122.69977" /><trkpt lat="47.526344" lon="-122.70013" /><trkpt lat="47.525023" lon="-122.698561" /><trkpt lat="47.524902" lon="-122.692214" /><trkpt lat="47.526833" lon="-122.686125" /><trkpt lat="47.52777" lon="-122.676696" /><trkpt lat="47.529239" lon="-122.670179" /><trkpt lat="47.529034" lon="-122.666642" /><trkpt lat="47.525589" lon="-122.66166" /><trkpt lat="47.514324" lon="-122.655456" /><trkpt lat="47.501117" lon="-122.645898" /><trkpt lat="47.485792" lon="-122.631838" /><trkpt lat="47.476049" lon="-122.625184" /><trkpt lat="47.464295" lon="-122.624246" /><trkpt lat="47.45616" lon="-122.622572" /><trkpt lat="47.441374" lon="-122.622807" /><trkpt lat="47.427801" lon="-122.623805" /><trkpt lat="47.419455" lon="-122.623155" /><trkpt lat="47.410194" lon="-122.624951" /><trkpt lat="47.398665" lon="-122.622567" /><trkpt lat="47.389113" lon="-122.616535" /><trkpt lat="47.373774" lon="-122.618111" /><trkpt lat="47.356239" lon="-122.613691" /><trkpt lat="47.325577" lon="-122.594652" /><trkpt lat="47.305376" lon="-122.576729" /><trkpt lat="47.288419" lon="-122.561776" /><trkpt lat="47.276718" lon="-122.560639" /><trkpt lat="47.258755" lon="-122.537486" /><trkpt lat="47.257891" lon="-122.518593" /><trkpt lat="47.255677" lon="-122.514306" /><trkpt lat="47.243394" lon="-122.505255" /><trkpt lat="47.235316" lon="-122.498082" /><trkpt lat="47.234807" lon="-122.480937" /><trkpt lat="47.234394" lon="-122.465884" /><trkpt lat="47.231023" lon="-122.461557" /><trkpt lat="47.229994" lon="-122.458901" /><trkpt lat="47.229909" lon="-122.448495" /><trkpt lat="47.232559" lon="-122.436493" /><trkpt lat="47.234106" lon="-122.427776" /><trkpt lat="47.238758" lon="-122.413173" /><trkpt lat="47.239517" lon="-122.40324" /><trkpt lat="47.241469" lon="-122.393799" /><trkpt lat="47.240431" lon="-122.374005" /><trkpt lat="47.241159" lon="-122.341418" /><trkpt lat="47.246338" lon="-122.333944" /><trkpt lat="47.259705" lon="-122.327869" /><trkpt lat="47.279026" lon="-122.310539" /><trkpt lat="47.28704" lon="-122.306569" /><trkpt lat="47.291308" lon="-122.297418" /><trkpt lat="47.303295" lon="-122.274768" /><trkpt lat="47.303974" lon="-122.267941" /><trkpt lat="47.303498" lon="-122.259677" /><trkpt lat="47.302091" lon="-122.252134" /><trkpt lat="47.301025" lon="-122.250847" /><trkpt lat="47.301491" lon="-122.252531" /><trkpt lat="47.309361" lon="-122.247777" /><trkpt lat="47.322157" lon="-122.24382" /><trkpt lat="47.32196" lon="-122.235531" /><trkpt lat="47.320834" lon="-122.226894" /><trkpt lat="47.32086" lon="-122.223579" /><trkpt lat="47.321651" lon="-122.22143" /><trkpt lat="47.324183" lon="-122.221501" /><trkpt lat="47.326985" lon="-122.221526" /><trkpt lat="47.330153" lon="-122.221554" /></trkseg></trk><wpt lat="47.1849009" lon="-122.29214"><name>Puyallup, WA</name><desc>87.5 kWh</desc></wpt><wpt lat="47.3075369" lon="-122.2301808"><name>Auburn, WA</name><desc>32.82 kWh</desc></wpt><wpt lat="48.0849312" lon="-123.1096706"><name>Sequim, WA</name><desc>73.87 kWh</desc></wpt><wpt lat="48.0849312" lon="-123.1096706"><name>Sequim, WA</name><desc>29.0227 kWh</desc></wpt><wpt lat="47.950222" lon="-124.386165"><name>Forks, WA</name><desc>26.8805 kWh</desc></wpt><wpt lat="46.975371" lon="-123.815722"><name>Aberdeen, WA</name><desc>47.99 kWh</desc></wpt><wpt lat="47.1748283" lon="-122.4631366"><name>Tacoma, WA - South Hosmer Street</name><desc>12.9011 kWh</desc></wpt><wpt lat="47.6594091" lon="-122.6766317"><name>Silverdale, WA</name><desc>14.1026 kWh</desc></wpt><wpt lat="48.0849312" lon="-123.1096706"><name>Sequim, WA</name><desc>39.37 kWh</desc></wpt><wpt lat="47.3301528" lon="-122.2215547"><name>Auburn, WA - Auburn Way North</name><desc>63.4881 kWh</desc></wpt></gpx>