<?xml version='1.0' encoding='utf-8'?>
<gpx version="1.1" creator="My Mile Diary" xmlns="http://www.topografix.com/GPX/1/1"><metadata><name>Aug 2023 — Addison → Austin</name></metadata><wpt lat="32.9601193" lon="-96.8300029"><name>Addison, TX</name><desc>Addison, TX</desc></wpt><wpt lat="31.5491899" lon="-97.1474628"><name>Waco, TX</name><desc>Waco, TX</desc></wpt><wpt lat="30.2069947" lon="-97.7739001"><name>Austin, TX - South Congress Avenue (Pay to Park, Floor B1)</name><desc>Austin, TX - South Congress Avenue (Pay to Park, Floor B1)</desc></wpt><wpt lat="30.6370152" lon="-97.6775634"><name>Georgetown, TX</name><desc>Georgetown, TX</desc></wpt><wpt lat="32.9601193" lon="-96.8300029"><name>Addison, TX</name><desc>Addison, TX</desc></wpt></gpx>