<?xml version='1.0' encoding='utf-8'?>
<gpx version="1.1" creator="tesla-charging-history-map" xmlns="http://www.topografix.com/GPX/1/1"><metadata><name>Aug 2023 — Waco → Red Oak</name></metadata><wpt lat="31.5491899" lon="-97.1474628"><name>Waco, TX</name><desc>65.0 kWh</desc></wpt><wpt lat="30.2069947" lon="-97.7739001"><name>Austin, TX - South Congress Avenue (Pay to Park, Floor B1)</name><desc>64.0 kWh</desc></wpt><wpt lat="30.6370152" lon="-97.6775634"><name>Georgetown, TX</name><desc>71.0 kWh</desc></wpt><wpt lat="32.5143898" lon="-96.8066615"><name>Red Oak, TX</name><desc>29.0 kWh</desc></wpt></gpx>