<?xml version='1.0' encoding='utf-8'?>
<gpx version="1.1" creator="Road Replay" xmlns="http://www.topografix.com/GPX/1/1"><metadata><name>Sep 2025 — Addison → Colorado (Round Trip) · Rama + Akash (Akash's car)</name></metadata><wpt lat="33.0978049" lon="-96.8056078"><name>Frisco, TX - Preston Road</name><desc>11.5041 kWh</desc></wpt><wpt lat="33.8166258" lon="-98.194682"><name>Henrietta, TX</name><desc>40.0949 kWh</desc></wpt><wpt lat="34.2937246" lon="-99.7423674"><name>Quanah, TX</name><desc>61.1775 kWh</desc></wpt><wpt lat="35.2806227" lon="-101.8312825"><name>Amarillo, TX - River Road</name><desc>45.7428 kWh</desc></wpt><wpt lat="36.4507836" lon="-103.184797"><name>Clayton, NM</name><desc>19.2645 kWh</desc></wpt><wpt lat="37.169397" lon="-104.500541"><name>Trinidad, CO</name><desc>65.6674 kWh</desc></wpt><wpt lat="38.5138823" lon="-106.0737176"><name>Poncha Springs, CO</name><desc>32.1507 kWh</desc></wpt><wpt lat="39.5466381" lon="-107.3246941"><name>Glenwood Springs, CO</name><desc>16.556 kWh</desc></wpt><wpt lat="39.1911128" lon="-106.82356"><name>Aspen, CO</name><desc>46.9062 kWh</desc></wpt><wpt lat="39.5466381" lon="-107.3246941"><name>Glenwood Springs, CO</name><desc>43.0599 kWh</desc></wpt><wpt lat="39.1911128" lon="-106.82356"><name>Aspen, CO</name><desc>39.7802 kWh</desc></wpt><wpt lat="37.169397" lon="-104.500541"><name>Trinidad, CO</name><desc>72.4668 kWh</desc></wpt><wpt lat="35.2806227" lon="-101.8312825"><name>Amarillo, TX - River Road</name><desc>38.2012 kWh</desc></wpt><wpt lat="34.2937246" lon="-99.7423674"><name>Quanah, TX</name><desc>29.0258 kWh</desc></wpt><wpt lat="33.8166258" lon="-98.194682"><name>Henrietta, TX</name><desc>60.7789 kWh</desc></wpt><wpt lat="32.8745" lon="-96.955"><name>MAA Las Colinas</name><desc>16.325 kWh</desc></wpt></gpx>