<?xml version='1.0' encoding='utf-8'?>
<gpx version="1.1" creator="My Mile Diary" xmlns="http://www.topografix.com/GPX/1/1"><metadata><name>Mar 2025 — Bellevue → Las Vegas (via WA, OR, ID, NV, UT)</name></metadata><wpt lat="47.6167921" lon="-122.1115836"><name>Bellevue, WA - Northeast 8th Street</name><desc>Bellevue, WA - Northeast 8th Street</desc></wpt><wpt lat="46.601557" lon="-120.510842"><name>Yakima, WA</name><desc>Yakima, WA</desc></wpt><wpt lat="45.672075" lon="-118.7885967"><name>Pendleton, OR</name><desc>Pendleton, OR</desc></wpt><wpt lat="44.7748748" lon="-117.834384"><name>Baker City, OR</name><desc>Baker City, OR</desc></wpt><wpt lat="43.6207082" lon="-116.2434129"><name>Boise, ID - North Orchard Street</name><desc>Boise, ID - North Orchard Street</desc></wpt><wpt lat="42.5558542" lon="-114.4700684"><name>Twin Falls, ID</name><desc>Twin Falls, ID</desc></wpt><wpt lat="41.1107264" lon="-114.963144"><name>Wells, NV</name><desc>Wells, NV</desc></wpt><wpt lat="39.2480588" lon="-114.891718"><name>Ely, NV</name><desc>Ely, NV</desc></wpt><wpt lat="36.2005191" lon="-115.1214745"><name>North Las Vegas, NV</name><desc>North Las Vegas, NV</desc></wpt><wpt lat="36.1479102" lon="-115.1533529"><name>Las Vegas, NV - Paradise Road</name><desc>Las Vegas, NV - Paradise Road</desc></wpt><wpt lat="37.1098772" lon="-113.5832063"><name>St. George, UT</name><desc>St. George, UT</desc></wpt><wpt lat="39.2480588" lon="-114.891718"><name>Ely, NV</name><desc>Ely, NV</desc></wpt><wpt lat="41.1107264" lon="-114.963144"><name>Wells, NV</name><desc>Wells, NV</desc></wpt><wpt lat="42.5558542" lon="-114.4700684"><name>Twin Falls, ID</name><desc>Twin Falls, ID</desc></wpt><wpt lat="43.6207082" lon="-116.2434129"><name>Boise, ID - North Orchard Street</name><desc>Boise, ID - North Orchard Street</desc></wpt><wpt lat="44.7748748" lon="-117.834384"><name>Baker City, OR</name><desc>Baker City, OR</desc></wpt><wpt lat="46.2804298" lon="-119.275205"><name>Richland, WA</name><desc>Richland, WA</desc></wpt><wpt lat="46.9745887" lon="-120.5412264"><name>Ellensburg, WA - Canyon Road</name><desc>Ellensburg, WA - Canyon Road</desc></wpt><wpt lat="47.1952417" lon="-120.940063"><name>Cle Elum, WA</name><desc>Cle Elum, WA</desc></wpt><wpt lat="47.5957449" lon="-120.6622886"><name>Leavenworth, WA - US-2</name><desc>Leavenworth, WA - US-2</desc></wpt><wpt lat="47.6167921" lon="-122.1115836"><name>Bellevue, WA - Northeast 8th Street</name><desc>Bellevue, WA - Northeast 8th Street</desc></wpt></gpx>