<?xml version='1.0' encoding='utf-8'?>
<gpx version="1.1" creator="Road Replay" xmlns="http://www.topografix.com/GPX/1/1"><metadata><name>Nov 2024 — Henrietta → Yakima (via TX, NM, AZ, UT, ID, OR, WA)</name></metadata><wpt lat="33.8166258" lon="-98.194682"><name>Henrietta, TX</name><desc>30.016 kWh</desc></wpt><wpt lat="34.5196569" lon="-100.2067656"><name>Childress, TX</name><desc>52.292 kWh</desc></wpt><wpt lat="35.1919954" lon="-101.8286328"><name>Amarillo, TX - East Interstate 40</name><desc>41.462 kWh</desc></wpt><wpt lat="35.1719425" lon="-103.72504"><name>Tucumcari, NM</name><desc>53.498 kWh</desc></wpt><wpt lat="35.1800918" lon="-106.5687024"><name>Albuquerque, NM - Louisiana Boulevard Northeast</name><desc>58.621 kWh</desc></wpt><wpt lat="35.1697175" lon="-107.8908919"><name>Milan, NM</name><desc>39.18 kWh</desc></wpt><wpt lat="34.9037105" lon="-110.1593261"><name>Holbrook, AZ</name><desc>56.229 kWh</desc></wpt><wpt lat="35.1949783" lon="-111.6289385"><name>Flagstaff, AZ - US-89</name><desc>29.86 kWh</desc></wpt><wpt lat="36.9148305" lon="-111.457294"><name>Page, AZ</name><desc>33.478 kWh</desc></wpt><wpt lat="38.2765305" lon="-112.640278"><name>Beaver, UT - 525 W</name><desc>66.043 kWh</desc></wpt><wpt lat="40.7596198" lon="-111.886797"><name>Salt Lake City, UT</name><desc>1.069 kWh</desc></wpt><wpt lat="40.7534546" lon="-111.8997545"><name>Salt Lake City, UT - S 300 W</name><desc>51.898 kWh</desc></wpt><wpt lat="42.5357428" lon="-113.792794"><name>Burley, ID</name><desc>57.529 kWh</desc></wpt><wpt lat="43.6207082" lon="-116.2434129"><name>Boise, ID - North Orchard Street</name><desc>58.234 kWh</desc></wpt><wpt lat="44.7748748" lon="-117.834384"><name>Baker City, OR</name><desc>28.915 kWh</desc></wpt><wpt lat="45.672075" lon="-118.7885967"><name>Pendleton, OR</name><desc>54.795 kWh</desc></wpt><wpt lat="46.6030113" lon="-120.5027063"><name>Yakima, WA - East Yakima Avenue</name><desc>49.557 kWh</desc></wpt></gpx>