<?xml version='1.0' encoding='utf-8'?>
<gpx version="1.1" creator="Tesla Travel Map" xmlns="http://www.topografix.com/GPX/1/1"><metadata><name>Aug 2025 — Renton</name></metadata><trk><name>Aug 2025 — Renton</name><trkseg><trkpt lat="47.4438439" lon="-122.2212097" /><trkpt lat="47.443837" lon="-122.219465" /><trkpt lat="47.443688" lon="-122.218403" /><trkpt lat="47.443237" lon="-122.218421" /><trkpt lat="47.442916" lon="-122.21847" /><trkpt lat="47.442511" lon="-122.218604" /><trkpt lat="47.442022" lon="-122.218932" /><trkpt lat="47.441242" lon="-122.219765" /><trkpt lat="47.441088" lon="-122.219146" /><trkpt lat="47.441173" lon="-122.217018" /><trkpt lat="47.441552" lon="-122.215925" /><trkpt lat="47.44373" lon="-122.216472" /><trkpt lat="47.444373" lon="-122.216434" /><trkpt lat="47.446165" lon="-122.216125" /><trkpt lat="47.447715" lon="-122.215728" /><trkpt lat="47.448964" lon="-122.215435" /><trkpt lat="47.45026" lon="-122.215261" /><trkpt lat="47.452111" lon="-122.215279" /><trkpt lat="47.453156" lon="-122.21546" /><trkpt lat="47.454937" lon="-122.215909" /><trkpt lat="47.457331" lon="-122.216564" /><trkpt lat="47.460384" lon="-122.217416" /><trkpt lat="47.461936" lon="-122.217692" /><trkpt lat="47.463637" lon="-122.217748" /><trkpt lat="47.464147" lon="-122.217717" /><trkpt lat="47.465163" lon="-122.217699" /><trkpt lat="47.465714" lon="-122.217623" /><trkpt lat="47.466124" lon="-122.217382" /><trkpt lat="47.467191" lon="-122.216182" /><trkpt lat="47.467461" lon="-122.215658" /><trkpt lat="47.467616" lon="-122.215047" /><trkpt lat="47.467921" lon="-122.212374" /><trkpt lat="47.46811" lon="-122.210839" /><trkpt lat="47.468349" lon="-122.209595" /><trkpt lat="47.468714" lon="-122.20826" /><trkpt lat="47.468943" lon="-122.20763" /><trkpt lat="47.469226" lon="-122.207015" /><trkpt lat="47.469446" lon="-122.206597" /><trkpt lat="47.469959" lon="-122.20588" /><trkpt lat="47.470897" lon="-122.204819" /><trkpt lat="47.471926" lon="-122.204161" /><trkpt lat="47.47245" lon="-122.203914" /><trkpt lat="47.473701" lon="-122.203686" /><trkpt lat="47.476612" lon="-122.203471" /><trkpt lat="47.478004" lon="-122.203051" /><trkpt lat="47.479004" lon="-122.202202" /><trkpt lat="47.479489" lon="-122.201603" /><trkpt lat="47.48045" lon="-122.200138" /><trkpt lat="47.480855" lon="-122.199531" /><trkpt lat="47.481613" lon="-122.198663" /><trkpt lat="47.483157" lon="-122.197219" /><trkpt lat="47.485456" lon="-122.195056" /><trkpt lat="47.486411" lon="-122.194174" /><trkpt lat="47.486896" lon="-122.193818" /><trkpt lat="47.487716" lon="-122.19341" /><trkpt lat="47.489161" lon="-122.192944" /><trkpt lat="47.489921" lon="-122.19247" /><trkpt lat="47.4906" lon="-122.191963" /><trkpt lat="47.49131" lon="-122.191645" /><trkpt lat="47.492058" lon="-122.191517" /><trkpt lat="47.493033" lon="-122.191666" /><trkpt lat="47.493752" lon="-122.192002" /><trkpt lat="47.496848" lon="-122.194038" /><trkpt lat="47.49846" lon="-122.194914" /><trkpt lat="47.502394" lon="-122.196517" /><trkpt lat="47.503547" lon="-122.196934" /><trkpt lat="47.505257" lon="-122.197417" /><trkpt lat="47.507131" lon="-122.19774" /><trkpt lat="47.510306" lon="-122.197997" /><trkpt lat="47.512774" lon="-122.198147" /><trkpt lat="47.515749" lon="-122.198283" /><trkpt lat="47.518274" lon="-122.198405" /><trkpt lat="47.519541" lon="-122.19833" /><trkpt lat="47.521387" lon="-122.198165" /><trkpt lat="47.523843" lon="-122.19793" /><trkpt lat="47.525235" lon="-122.19779" /><trkpt lat="47.527876" lon="-122.197504" /><trkpt lat="47.529599" lon="-122.197322" /><trkpt lat="47.531094" lon="-122.197061" /><trkpt lat="47.5324" lon="-122.196722" /><trkpt lat="47.533493" lon="-122.196336" /><trkpt lat="47.534583" lon="-122.195888" /><trkpt lat="47.535738" lon="-122.195321" /><trkpt lat="47.536966" lon="-122.194644" /><trkpt lat="47.538305" lon="-122.194429" /><trkpt lat="47.539912" lon="-122.194786" /><trkpt lat="47.541565" lon="-122.195196" /><trkpt lat="47.546561" lon="-122.195442" /><trkpt lat="47.5493" lon="-122.195145" /><trkpt lat="47.550449" lon="-122.194808" /><trkpt lat="47.551661" lon="-122.194037" /><trkpt lat="47.55306" lon="-122.192856" /><trkpt lat="47.55645" lon="-122.189728" /><trkpt lat="47.559471" lon="-122.18795" /><trkpt lat="47.561548" lon="-122.187111" /><trkpt lat="47.563651" lon="-122.186554" /><trkpt lat="47.564699" lon="-122.185824" /><trkpt lat="47.565457" lon="-122.184777" /><trkpt lat="47.566268" lon="-122.182563" /><trkpt lat="47.566992" lon="-122.180752" /><trkpt lat="47.567771" lon="-122.17967" /><trkpt lat="47.568374" lon="-122.179092" /><trkpt lat="47.570337" lon="-122.177929" /><trkpt lat="47.574902" lon="-122.175201" /><trkpt lat="47.57677" lon="-122.174167" /><trkpt lat="47.578545" lon="-122.173375" /><trkpt lat="47.579187" lon="-122.172769" /><trkpt lat="47.579604" lon="-122.17199" /><trkpt lat="47.579882" lon="-122.170996" /><trkpt lat="47.579985" lon="-122.170271" /><trkpt lat="47.580032" lon="-122.168414" /><trkpt lat="47.579832" lon="-122.163211" /><trkpt lat="47.57972" lon="-122.160635" /><trkpt lat="47.579446" lon="-122.154958" /><trkpt lat="47.579067" lon="-122.146912" /><trkpt lat="47.578924" lon="-122.14353" /><trkpt lat="47.578877" lon="-122.142379" /><trkpt lat="47.578682" lon="-122.13846" /><trkpt lat="47.578499" lon="-122.135271" /><trkpt lat="47.57837" lon="-122.134241" /><trkpt lat="47.577818" lon="-122.131818" /><trkpt lat="47.573101" lon="-122.118461" /><trkpt lat="47.568374" lon="-122.105372" /><trkpt lat="47.565221" lon="-122.099652" /><trkpt lat="47.562482" lon="-122.094658" /><trkpt lat="47.558304" lon="-122.087004" /><trkpt lat="47.551858" lon="-122.070279" /><trkpt lat="47.549625" lon="-122.064376" /><trkpt lat="47.547626" lon="-122.059218" /><trkpt lat="47.546437" lon="-122.056153" /><trkpt lat="47.545842" lon="-122.054374" /><trkpt lat="47.545436" lon="-122.052302" /><trkpt lat="47.544948" lon="-122.047131" /><trkpt lat="47.544486" lon="-122.044966" /><trkpt lat="47.543732" lon="-122.04299" /><trkpt lat="47.541941" lon="-122.039588" /><trkpt lat="47.541367" lon="-122.038642" /><trkpt lat="47.540422" lon="-122.037703" /><trkpt lat="47.540124" lon="-122.037325" /><trkpt lat="47.539748" lon="-122.036698" /><trkpt lat="47.539411" lon="-122.036409" /><trkpt lat="47.539012" lon="-122.036317" /><trkpt lat="47.538609" lon="-122.036332" /><trkpt lat="47.53837" lon="-122.036336" /><trkpt lat="47.537892" lon="-122.036352" /><trkpt lat="47.537506" lon="-122.036372" /><trkpt lat="47.537016" lon="-122.036391" /><trkpt lat="47.536268" lon="-122.03641" /><trkpt lat="47.535849" lon="-122.036418" /><trkpt lat="47.535398" lon="-122.036426" /><trkpt lat="47.534769" lon="-122.036436" /><trkpt lat="47.534596" lon="-122.036439" /><trkpt lat="47.534001" lon="-122.036448" /><trkpt lat="47.533765" lon="-122.036607" /><trkpt lat="47.533776" lon="-122.037294" /><trkpt lat="47.533821" lon="-122.040316" /><trkpt lat="47.533834" lon="-122.041247" /><trkpt lat="47.534088" lon="-122.042969" /><trkpt lat="47.534264" lon="-122.043416" /><trkpt lat="47.534698" lon="-122.0436" /><trkpt lat="47.534234" lon="-122.043302" /><trkpt lat="47.533854" lon="-122.04407" /><trkpt lat="47.533739" lon="-122.044488" /><trkpt lat="47.532035" lon="-122.042822" /><trkpt lat="47.530702" lon="-122.041522" /><trkpt lat="47.53002" lon="-122.041019" /><trkpt lat="47.529481" lon="-122.040451" /><trkpt lat="47.529142" lon="-122.040066" /><trkpt lat="47.528989" lon="-122.039936" /><trkpt lat="47.528436" lon="-122.039518" /><trkpt lat="47.527987" lon="-122.039192" /><trkpt lat="47.527845" lon="-122.039017" /><trkpt lat="47.52768" lon="-122.038675" /><trkpt lat="47.527545" lon="-122.038089" /><trkpt lat="47.527526" lon="-122.0373" /><trkpt lat="47.527372" lon="-122.03688" /><trkpt lat="47.526815" lon="-122.036626" /><trkpt lat="47.525665" lon="-122.036488" /><trkpt lat="47.524108" lon="-122.035868" /><trkpt lat="47.52337" lon="-122.035392" /><trkpt lat="47.5229" lon="-122.035007" /><trkpt lat="47.522191" lon="-122.034306" /><trkpt lat="47.520787" lon="-122.03255" /><trkpt lat="47.519318" lon="-122.030708" /><trkpt lat="47.518761" lon="-122.030012" /><trkpt lat="47.516612" lon="-122.027396" /><trkpt lat="47.51545" lon="-122.025852" /><trkpt lat="47.513049" lon="-122.023679" /><trkpt lat="47.511535" lon="-122.023333" /><trkpt lat="47.509796" lon="-122.023191" /><trkpt lat="47.507736" lon="-122.023002" /><trkpt lat="47.506376" lon="-122.02288" /><trkpt lat="47.503949" lon="-122.022667" /><trkpt lat="47.501833" lon="-122.022461" /><trkpt lat="47.500361" lon="-122.022324" /><trkpt lat="47.496334" lon="-122.022003" /><trkpt lat="47.495502" lon="-122.022082" /><trkpt lat="47.494973" lon="-122.022191" /><trkpt lat="47.494165" lon="-122.022475" /><trkpt lat="47.493306" lon="-122.02288" /><trkpt lat="47.490971" lon="-122.024012" /><trkpt lat="47.489164" lon="-122.02492" /><trkpt lat="47.487829" lon="-122.025589" /><trkpt lat="47.484238" lon="-122.027376" /><trkpt lat="47.481404" lon="-122.028598" /><trkpt lat="47.4797" lon="-122.029251" /><trkpt lat="47.478984" lon="-122.029318" /><trkpt lat="47.478347" lon="-122.029067" /><trkpt lat="47.476901" lon="-122.027613" /><trkpt lat="47.473965" lon="-122.024633" /><trkpt lat="47.472668" lon="-122.023341" /><trkpt lat="47.47009" lon="-122.020635" /><trkpt lat="47.46692" lon="-122.017352" /><trkpt lat="47.462969" lon="-122.013317" /><trkpt lat="47.461888" lon="-122.011275" /><trkpt lat="47.461095" lon="-122.008925" /><trkpt lat="47.459714" lon="-122.006572" /><trkpt lat="47.456855" lon="-122.001392" /><trkpt lat="47.45443" lon="-121.998666" /><trkpt lat="47.453818" lon="-121.99653" /><trkpt lat="47.453624" lon="-121.996028" /><trkpt lat="47.453402" lon="-121.995561" /><trkpt lat="47.452922" lon="-121.994896" /><trkpt lat="47.452661" lon="-121.994602" /><trkpt lat="47.451912" lon="-121.994036" /><trkpt lat="47.451575" lon="-121.993652" /><trkpt lat="47.45116" lon="-121.992916" /><trkpt lat="47.450879" lon="-121.992536" /><trkpt lat="47.449203" lon="-121.991044" /><trkpt lat="47.448796" lon="-121.990576" /><trkpt lat="47.447864" lon="-121.989078" /><trkpt lat="47.447543" lon="-121.988786" /><trkpt lat="47.447058" lon="-121.988622" /><trkpt lat="47.444221" lon="-121.988216" /><trkpt lat="47.443906" lon="-121.988147" /><trkpt lat="47.443635" lon="-121.987973" /><trkpt lat="47.442681" lon="-121.986537" /><trkpt lat="47.442343" lon="-121.985852" /><trkpt lat="47.441548" lon="-121.983919" /><trkpt lat="47.440355" lon="-121.982163" /><trkpt lat="47.437819" lon="-121.978547" /><trkpt lat="47.436914" lon="-121.977851" /><trkpt lat="47.436388" lon="-121.978302" /><trkpt lat="47.435521" lon="-121.978503" /><trkpt lat="47.434816" lon="-121.979152" /><trkpt lat="47.433598" lon="-121.981725" /><trkpt lat="47.431671" lon="-121.985105" /><trkpt lat="47.429514" lon="-121.988115" /><trkpt lat="47.42566" lon="-121.992353" /><trkpt lat="47.423339" lon="-121.995862" /><trkpt lat="47.422157" lon="-121.998475" /><trkpt lat="47.417126" lon="-122.012455" /><trkpt lat="47.414396" lon="-122.01955" /><trkpt lat="47.40957" lon="-122.033283" /><trkpt lat="47.408408" lon="-122.038836" /><trkpt lat="47.407458" lon="-122.040717" /><trkpt lat="47.406558" lon="-122.041796" /><trkpt lat="47.405078" lon="-122.042829" /><trkpt lat="47.402975" lon="-122.044175" /><trkpt lat="47.400442" lon="-122.045011" /><trkpt lat="47.397649" lon="-122.045483" /><trkpt lat="47.395722" lon="-122.04647" /><trkpt lat="47.394447" lon="-122.047681" /><trkpt lat="47.393773" lon="-122.048574" /><trkpt lat="47.392343" lon="-122.050856" /><trkpt lat="47.387081" lon="-122.059492" /><trkpt lat="47.382253" lon="-122.069811" /><trkpt lat="47.377655" lon="-122.081069" /><trkpt lat="47.373965" lon="-122.089691" /><trkpt lat="47.36997" lon="-122.097813" /><trkpt lat="47.367879" lon="-122.10238" /><trkpt lat="47.359678" lon="-122.119273" /><trkpt lat="47.356864" lon="-122.122807" /><trkpt lat="47.355923" lon="-122.124326" /><trkpt lat="47.353939" lon="-122.128051" /><trkpt lat="47.34783" lon="-122.139261" /><trkpt lat="47.344697" lon="-122.14473" /><trkpt lat="47.342142" lon="-122.146748" /><trkpt lat="47.337737" lon="-122.14837" /><trkpt lat="47.335351" lon="-122.150299" /><trkpt lat="47.333555" lon="-122.153288" /><trkpt lat="47.33193" lon="-122.156498" /><trkpt lat="47.330382" lon="-122.15831" /><trkpt lat="47.32713" lon="-122.160141" /><trkpt lat="47.322384" lon="-122.162564" /><trkpt lat="47.316354" lon="-122.167806" /><trkpt lat="47.309889" lon="-122.171444" /><trkpt lat="47.305455" lon="-122.174558" /><trkpt lat="47.303543" lon="-122.176476" /><trkpt lat="47.30072" lon="-122.179913" /><trkpt lat="47.29951" lon="-122.181484" /><trkpt lat="47.298705" lon="-122.183496" /><trkpt lat="47.298456" lon="-122.184957" /><trkpt lat="47.298487" lon="-122.187093" /><trkpt lat="47.298715" lon="-122.188373" /><trkpt lat="47.301334" lon="-122.198557" /><trkpt lat="47.302694" lon="-122.203196" /><trkpt lat="47.303089" lon="-122.205081" /><trkpt lat="47.303347" lon="-122.206749" /><trkpt lat="47.303615" lon="-122.210137" /><trkpt lat="47.303577" lon="-122.213651" /><trkpt lat="47.303424" lon="-122.221714" /><trkpt lat="47.303096" lon="-122.225348" /><trkpt lat="47.302986" lon="-122.226966" /><trkpt lat="47.303022" lon="-122.228086" /><trkpt lat="47.303262" lon="-122.229664" /><trkpt lat="47.303555" lon="-122.231562" /><trkpt lat="47.303622" lon="-122.233211" /><trkpt lat="47.303825" lon="-122.235546" /><trkpt lat="47.304651" lon="-122.234713" /><trkpt lat="47.304866" lon="-122.23402" /><trkpt lat="47.305138" lon="-122.233165" /><trkpt lat="47.305557" lon="-122.233222" /><trkpt lat="47.306283" lon="-122.233191" /><trkpt lat="47.306918" lon="-122.233048" /><trkpt lat="47.307432" lon="-122.233021" /><trkpt lat="47.307493" lon="-122.232395" /><trkpt lat="47.307403" lon="-122.231595" /><trkpt lat="47.3074" lon="-122.230181" /><trkpt lat="47.307415" lon="-122.231777" /><trkpt lat="47.307502" lon="-122.232462" /><trkpt lat="47.307375" lon="-122.233023" /><trkpt lat="47.306695" lon="-122.233238" /><trkpt lat="47.305748" lon="-122.233398" /><trkpt lat="47.305141" lon="-122.233519" /><trkpt lat="47.304831" lon="-122.234817" /><trkpt lat="47.303772" lon="-122.236598" /><trkpt lat="47.303253" lon="-122.238842" /><trkpt lat="47.302755" lon="-122.246704" /><trkpt lat="47.302802" lon="-122.249528" /><trkpt lat="47.303291" lon="-122.25049" /><trkpt lat="47.304396" lon="-122.250694" /><trkpt lat="47.308469" lon="-122.248265" /><trkpt lat="47.309826" lon="-122.247497" /><trkpt lat="47.315755" lon="-122.244929" /><trkpt lat="47.322275" lon="-122.244766" /><trkpt lat="47.327573" lon="-122.244724" /><trkpt lat="47.340112" lon="-122.244637" /><trkpt lat="47.349786" lon="-122.244638" /><trkpt lat="47.35473" lon="-122.244592" /><trkpt lat="47.361028" lon="-122.244545" /><trkpt lat="47.369262" lon="-122.244364" /><trkpt lat="47.373239" lon="-122.244016" /><trkpt lat="47.377104" lon="-122.244226" /><trkpt lat="47.380523" lon="-122.244452" /><trkpt lat="47.383873" lon="-122.24448" /><trkpt lat="47.386184" lon="-122.244073" /><trkpt lat="47.387672" lon="-122.243212" /><trkpt lat="47.389335" lon="-122.241536" /><trkpt lat="47.392447" lon="-122.236948" /><trkpt lat="47.398008" lon="-122.228668" /><trkpt lat="47.400248" lon="-122.225327" /><trkpt lat="47.402039" lon="-122.222877" /><trkpt lat="47.403991" lon="-122.221234" /><trkpt lat="47.406136" lon="-122.22035" /><trkpt lat="47.409573" lon="-122.220326" /><trkpt lat="47.415626" lon="-122.220727" /><trkpt lat="47.424318" lon="-122.221271" /><trkpt lat="47.426233" lon="-122.221192" /><trkpt lat="47.432086" lon="-122.219767" /><trkpt lat="47.436505" lon="-122.218619" /><trkpt lat="47.442706" lon="-122.217033" /><trkpt lat="47.447554" lon="-122.215769" /><trkpt lat="47.448708" lon="-122.215494" /><trkpt lat="47.450704" lon="-122.215237" /><trkpt lat="47.452898" lon="-122.215383" /><trkpt lat="47.454937" lon="-122.215909" /><trkpt lat="47.45812" lon="-122.216773" /><trkpt lat="47.461552" lon="-122.217643" /><trkpt lat="47.463797" lon="-122.217712" /><trkpt lat="47.464991" lon="-122.217706" /><trkpt lat="47.465714" lon="-122.217623" /><trkpt lat="47.466406" lon="-122.217082" /><trkpt lat="47.467461" lon="-122.215658" /><trkpt lat="47.467749" lon="-122.213731" /><trkpt lat="47.46811" lon="-122.210839" /><trkpt lat="47.46844" lon="-122.209216" /><trkpt lat="47.46881" lon="-122.20798" /><trkpt lat="47.469226" lon="-122.207015" /><trkpt lat="47.469613" lon="-122.206314" /><trkpt lat="47.470897" lon="-122.204819" /><trkpt lat="47.472193" lon="-122.204012" /><trkpt lat="47.473421" lon="-122.203718" /><trkpt lat="47.477041" lon="-122.203411" /><trkpt lat="47.478962" lon="-122.20225" /><trkpt lat="47.479857" lon="-122.201053" /><trkpt lat="47.480662" lon="-122.199808" /><trkpt lat="47.481256" lon="-122.199046" /><trkpt lat="47.483827" lon="-122.196591" /><trkpt lat="47.486261" lon="-122.194303" /><trkpt lat="47.487003" lon="-122.193754" /><trkpt lat="47.488967" lon="-122.193028" /><trkpt lat="47.490121" lon="-122.192311" /><trkpt lat="47.491007" lon="-122.191757" /><trkpt lat="47.492058" lon="-122.191517" /><trkpt lat="47.493224" lon="-122.191738" /><trkpt lat="47.496054" lon="-122.193535" /><trkpt lat="47.499179" lon="-122.195257" /><trkpt lat="47.502964" lon="-122.196726" /><trkpt lat="47.505257" lon="-122.197417" /><trkpt lat="47.508573" lon="-122.197899" /><trkpt lat="47.512774" lon="-122.198147" /><trkpt lat="47.517836" lon="-122.198399" /><trkpt lat="47.519189" lon="-122.198367" /><trkpt lat="47.521387" lon="-122.198165" /><trkpt lat="47.524638" lon="-122.197851" /><trkpt lat="47.527876" lon="-122.197504" /><trkpt lat="47.530345" lon="-122.19721" /><trkpt lat="47.5324" lon="-122.196722" /><trkpt lat="47.533988" lon="-122.196131" /><trkpt lat="47.535736" lon="-122.195322" /><trkpt lat="47.537176" lon="-122.194561" /><trkpt lat="47.539459" lon="-122.194635" /><trkpt lat="47.541978" lon="-122.195268" /><trkpt lat="47.547275" lon="-122.195403" /><trkpt lat="47.550166" lon="-122.194931" /><trkpt lat="47.55196" lon="-122.193798" /><trkpt lat="47.554633" lon="-122.191408" /><trkpt lat="47.559869" lon="-122.187801" /><trkpt lat="47.563187" lon="-122.186708" /><trkpt lat="47.564699" lon="-122.185824" /><trkpt lat="47.565811" lon="-122.184046" /><trkpt lat="47.566992" lon="-122.180752" /><trkpt lat="47.567916" lon="-122.179499" /><trkpt lat="47.56895" lon="-122.178726" /><trkpt lat="47.575022" lon="-122.175289" /><trkpt lat="47.578154" lon="-122.174127" /><trkpt lat="47.579771" lon="-122.17419" /><trkpt lat="47.581759" lon="-122.174861" /><trkpt lat="47.583008" lon="-122.175701" /><trkpt lat="47.584739" lon="-122.177302" /><trkpt lat="47.587657" lon="-122.179458" /><trkpt lat="47.592503" lon="-122.180516" /><trkpt lat="47.596916" lon="-122.179808" /><trkpt lat="47.598955" lon="-122.180047" /><trkpt lat="47.601649" lon="-122.182264" /><trkpt lat="47.60342" lon="-122.184068" /><trkpt lat="47.607413" lon="-122.187368" /><trkpt lat="47.609908" lon="-122.18835" /><trkpt lat="47.613195" lon="-122.1885" /><trkpt lat="47.614606" lon="-122.1885" /><trkpt lat="47.616854" lon="-122.188519" /><trkpt lat="47.618748" lon="-122.188538" /><trkpt lat="47.619869" lon="-122.188533" /><trkpt lat="47.622186" lon="-122.188536" /><trkpt lat="47.627933" lon="-122.188525" /><trkpt lat="47.631075" lon="-122.188042" /><trkpt lat="47.633783" lon="-122.187245" /><trkpt lat="47.637063" lon="-122.186447" /><trkpt lat="47.643694" lon="-122.186601" /><trkpt lat="47.650681" lon="-122.186816" /><trkpt lat="47.657495" lon="-122.186859" /><trkpt lat="47.664547" lon="-122.186861" /><trkpt lat="47.669225" lon="-122.186904" /><trkpt lat="47.669979" lon="-122.186841" /><trkpt lat="47.673874" lon="-122.185382" /><trkpt lat="47.675941" lon="-122.184307" /><trkpt lat="47.678036" lon="-122.183472" /><trkpt lat="47.678587" lon="-122.18343" /><trkpt lat="47.679153" lon="-122.183587" /><trkpt lat="47.679369" lon="-122.183796" /><trkpt lat="47.679274" lon="-122.184325" /><trkpt lat="47.679389" lon="-122.185139" /><trkpt lat="47.679311" lon="-122.185452" /><trkpt lat="47.679251" lon="-122.186467" /><trkpt lat="47.679298" lon="-122.18782" /><trkpt lat="47.679338" lon="-122.189795" /><trkpt lat="47.679472" lon="-122.194746" /><trkpt lat="47.679337" lon="-122.197036" /><trkpt lat="47.678932" lon="-122.198545" /><trkpt lat="47.678582" lon="-122.199673" /><trkpt lat="47.678281" lon="-122.200657" /><trkpt lat="47.677496" lon="-122.203259" /><trkpt lat="47.677324" lon="-122.203863" /><trkpt lat="47.677124" lon="-122.20478" /><trkpt lat="47.676957" lon="-122.205545" /><trkpt lat="47.676839" lon="-122.206082" /><trkpt lat="47.676563" lon="-122.207118" /><trkpt lat="47.676663" lon="-122.206673" /><trkpt lat="47.676772" lon="-122.206215" /><trkpt lat="47.676788" lon="-122.206153" /><trkpt lat="47.67687" lon="-122.205943" /><trkpt lat="47.676936" lon="-122.205637" /><trkpt lat="47.677093" lon="-122.204908" /><trkpt lat="47.677124" lon="-122.20478" /><trkpt lat="47.677244" lon="-122.204236" /><trkpt lat="47.677312" lon="-122.203922" /><trkpt lat="47.677372" lon="-122.203638" /><trkpt lat="47.67744" lon="-122.203322" /><trkpt lat="47.677763" lon="-122.202012" /><trkpt lat="47.677953" lon="-122.201418" /><trkpt lat="47.678169" lon="-122.200705" /><trkpt lat="47.67828" lon="-122.200334" /><trkpt lat="47.678615" lon="-122.199246" /><trkpt lat="47.67879" lon="-122.198691" /><trkpt lat="47.678996" lon="-122.198008" /><trkpt lat="47.679129" lon="-122.197439" /><trkpt lat="47.679225" lon="-122.197032" /><trkpt lat="47.679367" lon="-122.195766" /><trkpt lat="47.679404" lon="-122.194346" /><trkpt lat="47.679448" lon="-122.191892" /><trkpt lat="47.679378" lon="-122.1904" /><trkpt lat="47.679293" lon="-122.188613" /><trkpt lat="47.679262" lon="-122.188028" /><trkpt lat="47.679146" lon="-122.187426" /><trkpt lat="47.679126" lon="-122.186912" /><trkpt lat="47.679103" lon="-122.186208" /><trkpt lat="47.679109" lon="-122.185751" /><trkpt lat="47.679007" lon="-122.185451" /><trkpt lat="47.678541" lon="-122.185561" /><trkpt lat="47.677813" lon="-122.185511" /><trkpt lat="47.677701" lon="-122.185497" /><trkpt lat="47.677375" lon="-122.185452" /><trkpt lat="47.676812" lon="-122.185301" /><trkpt lat="47.676054" lon="-122.185248" /><trkpt lat="47.675323" lon="-122.185356" /><trkpt lat="47.674468" lon="-122.185666" /><trkpt lat="47.672525" lon="-122.186574" /><trkpt lat="47.671323" lon="-122.186995" /><trkpt lat="47.670832" lon="-122.187097" /><trkpt lat="47.669048" lon="-122.187218" /><trkpt lat="47.6666" lon="-122.187234" /><trkpt lat="47.664368" lon="-122.187279" /><trkpt lat="47.656805" lon="-122.187208" /><trkpt lat="47.653706" lon="-122.187192" /><trkpt lat="47.650836" lon="-122.187147" /><trkpt lat="47.649019" lon="-122.187146" /><trkpt lat="47.645904" lon="-122.187104" /><trkpt lat="47.643193" lon="-122.186883" /><trkpt lat="47.641099" lon="-122.186735" /><trkpt lat="47.638572" lon="-122.186741" /><trkpt lat="47.636742" lon="-122.18677" /><trkpt lat="47.636065" lon="-122.187125" /><trkpt lat="47.634973" lon="-122.187513" /><trkpt lat="47.634097" lon="-122.187852" /><trkpt lat="47.633375" lon="-122.188284" /><trkpt lat="47.632899" lon="-122.1885" /><trkpt lat="47.63204" lon="-122.188513" /><trkpt lat="47.631769" lon="-122.188591" /><trkpt lat="47.631499" lon="-122.188995" /><trkpt lat="47.631496" lon="-122.189623" /><trkpt lat="47.63182" lon="-122.190093" /><trkpt lat="47.632066" lon="-122.190141" /><trkpt lat="47.63244" lon="-122.189812" /><trkpt lat="47.632534" lon="-122.189371" /><trkpt lat="47.632403" lon="-122.188719" /><trkpt lat="47.632322" lon="-122.18838" /><trkpt lat="47.632126" lon="-122.187543" /><trkpt lat="47.631894" lon="-122.185969" /><trkpt lat="47.63189" lon="-122.183897" /><trkpt lat="47.631954" lon="-122.182379" /><trkpt lat="47.631923" lon="-122.181364" /><trkpt lat="47.631865" lon="-122.180657" /><trkpt lat="47.631627" lon="-122.179146" /><trkpt lat="47.631012" lon="-122.176726" /><trkpt lat="47.630513" lon="-122.174951" /><trkpt lat="47.630021" lon="-122.173122" /><trkpt lat="47.629868" lon="-122.172484" /><trkpt lat="47.629679" lon="-122.171001" /><trkpt lat="47.629679" lon="-122.170138" /><trkpt lat="47.629942" lon="-122.166571" /><trkpt lat="47.630068" lon="-122.1647" /><trkpt lat="47.630038" lon="-122.163583" /><trkpt lat="47.629434" lon="-122.157456" /><trkpt lat="47.629411" lon="-122.155094" /><trkpt lat="47.629633" lon="-122.153315" /><trkpt lat="47.630215" lon="-122.150871" /><trkpt lat="47.630787" lon="-122.149385" /><trkpt lat="47.631225" lon="-122.148241" /><trkpt lat="47.631758" lon="-122.147301" /><trkpt lat="47.633331" lon="-122.144228" /><trkpt lat="47.633438" lon="-122.14368" /><trkpt lat="47.633443" lon="-122.143361" /><trkpt lat="47.633388" lon="-122.143164" /><trkpt lat="47.632736" lon="-122.143116" /><trkpt lat="47.631601" lon="-122.143118" /><trkpt lat="47.631451" lon="-122.143118" /><trkpt lat="47.631352" lon="-122.143119" /><trkpt lat="47.630719" lon="-122.143139" /><trkpt lat="47.63037" lon="-122.143133" /><trkpt lat="47.629989" lon="-122.143135" /><trkpt lat="47.629201" lon="-122.143154" /><trkpt lat="47.628581" lon="-122.143159" /><trkpt lat="47.62811" lon="-122.143161" /><trkpt lat="47.627908" lon="-122.143167" /><trkpt lat="47.627832" lon="-122.142924" /><trkpt lat="47.627872" lon="-122.142044" /><trkpt lat="47.627873" lon="-122.141306" /><trkpt lat="47.627876" lon="-122.140696" /><trkpt lat="47.62788" lon="-122.139524" /><trkpt lat="47.627889" lon="-122.138077" /><trkpt lat="47.627894" lon="-122.137575" /><trkpt lat="47.627895" lon="-122.137385" /><trkpt lat="47.627865" lon="-122.136919" /><trkpt lat="47.62784" lon="-122.135892" /><trkpt lat="47.62789" lon="-122.135093" /><trkpt lat="47.627893" lon="-122.134266" /><trkpt lat="47.627891" lon="-122.133198" /><trkpt lat="47.627861" lon="-122.132775" /><trkpt lat="47.627809" lon="-122.132231" /><trkpt lat="47.627534" lon="-122.13119" /><trkpt lat="47.627007" lon="-122.129598" /><trkpt lat="47.626302" lon="-122.127398" /><trkpt lat="47.625995" lon="-122.12645" /><trkpt lat="47.625653" lon="-122.125428" /><trkpt lat="47.625075" lon="-122.12362" /><trkpt lat="47.624867" lon="-122.122987" /><trkpt lat="47.624521" lon="-122.121937" /><trkpt lat="47.624449" lon="-122.1217" /><trkpt lat="47.623926" lon="-122.120037" /><trkpt lat="47.623761" lon="-122.119548" /><trkpt lat="47.623436" lon="-122.118526" /><trkpt lat="47.623213" lon="-122.117826" /><trkpt lat="47.623115" lon="-122.11753" /><trkpt lat="47.622929" lon="-122.116953" /><trkpt lat="47.622838" lon="-122.116678" /><trkpt lat="47.622766" lon="-122.116441" /><trkpt lat="47.622574" lon="-122.115852" /><trkpt lat="47.62206" lon="-122.114252" /><trkpt lat="47.621536" lon="-122.112649" /><trkpt lat="47.621362" lon="-122.112173" /><trkpt lat="47.62092" lon="-122.111427" /><trkpt lat="47.620318" lon="-122.11083" /><trkpt lat="47.619414" lon="-122.110149" /><trkpt lat="47.618955" lon="-122.109741" /><trkpt lat="47.618433" lon="-122.109184" /><trkpt lat="47.618119" lon="-122.108766" /><trkpt lat="47.61801" lon="-122.108634" /><trkpt lat="47.617236" lon="-122.107662" /><trkpt lat="47.616814" lon="-122.10725" /><trkpt lat="47.616776" lon="-122.107905" /><trkpt lat="47.616779" lon="-122.108749" /><trkpt lat="47.61678" lon="-122.10925" /><trkpt lat="47.616786" lon="-122.110321" /><trkpt lat="47.616789" lon="-122.110886" /><trkpt lat="47.61679" lon="-122.111277" /><trkpt lat="47.616792" lon="-122.111586" /></trkseg></trk><wpt lat="47.4438439" lon="-122.2212097"><name>Renton, WA - Southwest 41st Street</name><desc>56.3398 kWh</desc></wpt><wpt lat="47.5348778" lon="-122.043297"><name>Issaquah, WA</name><desc>24.0634 kWh</desc></wpt><wpt lat="47.3075369" lon="-122.2301808"><name>Auburn, WA</name><desc>31.6879 kWh</desc></wpt><wpt lat="47.6765382" lon="-122.2070775"><name>Kirkland, WA</name><desc>32.4481 kWh</desc></wpt><wpt lat="47.6167921" lon="-122.1115836"><name>Bellevue, WA - Northeast 8th Street</name><desc>48.2732 kWh</desc></wpt></gpx>