<?xml version='1.0' encoding='utf-8'?>
<gpx version="1.1" creator="Road Replay" xmlns="http://www.topografix.com/GPX/1/1"><metadata><name>Jun 2025 — Bellevue → Olympic Peninsula</name></metadata><wpt lat="47.6167921" lon="-122.1115836"><name>Bellevue, WA - Northeast 8th Street</name><desc>65.769 kWh</desc></wpt><wpt lat="48.0656302" lon="-122.286878"><name>Tulalip Bay, WA</name><desc>63.6109 kWh</desc></wpt><wpt lat="48.0849312" lon="-123.1096706"><name>Sequim, WA</name><desc>22.6748 kWh</desc></wpt><wpt lat="47.950222" lon="-124.386165"><name>Forks, WA</name><desc>46.8888 kWh</desc></wpt><wpt lat="47.1748283" lon="-122.4631366"><name>Tacoma, WA - South Hosmer Street</name><desc>11.3322 kWh</desc></wpt><wpt lat="45.6135685" lon="-122.6837959"><name>Portland, OR - North Pavilion Avenue</name><desc>31.8258 kWh</desc></wpt><wpt lat="46.6599653" lon="-122.963432"><name>Chehalis, WA</name><desc>38.2076 kWh</desc></wpt></gpx>