<?xml version='1.0' encoding='utf-8'?>
<gpx version="1.1" creator="Tesla Travel Map" xmlns="http://www.topografix.com/GPX/1/1"><metadata><name>Jun 2023 — Madisonville</name></metadata><trk><name>Jun 2023 — Madisonville</name><trkseg><trkpt lat="30.9498688" lon="-95.9127773" /><trkpt lat="30.950886" lon="-95.909629" /><trkpt lat="30.95426" lon="-95.901319" /><trkpt lat="30.956551" lon="-95.896519" /><trkpt lat="30.961746" lon="-95.892064" /><trkpt lat="30.964042" lon="-95.886838" /><trkpt lat="30.964604" lon="-95.885437" /><trkpt lat="30.965057" lon="-95.884268" /><trkpt lat="30.964157" lon="-95.882994" /><trkpt lat="30.961747" lon="-95.879711" /><trkpt lat="30.957983" lon="-95.874889" /><trkpt lat="30.929837" lon="-95.825822" /><trkpt lat="30.918792" lon="-95.806372" /><trkpt lat="30.908174" lon="-95.788743" /><trkpt lat="30.876444" lon="-95.762846" /><trkpt lat="30.864841" lon="-95.753424" /><trkpt lat="30.85813" lon="-95.747569" /><trkpt lat="30.850753" lon="-95.737605" /><trkpt lat="30.831496" lon="-95.713215" /><trkpt lat="30.795253" lon="-95.678732" /><trkpt lat="30.780162" lon="-95.65595" /><trkpt lat="30.774597" lon="-95.647448" /><trkpt lat="30.763557" lon="-95.630789" /><trkpt lat="30.751103" lon="-95.611621" /><trkpt lat="30.736826" lon="-95.589861" /><trkpt lat="30.729599" lon="-95.579917" /><trkpt lat="30.721934" lon="-95.572502" /><trkpt lat="30.705336" lon="-95.561286" /><trkpt lat="30.694417" lon="-95.553186" /><trkpt lat="30.691092" lon="-95.548398" /><trkpt lat="30.682262" lon="-95.530324" /><trkpt lat="30.67773" lon="-95.522342" /><trkpt lat="30.674468" lon="-95.518869" /><trkpt lat="30.660734" lon="-95.511352" /><trkpt lat="30.640183" lon="-95.508996" /><trkpt lat="30.601267" lon="-95.505519" /><trkpt lat="30.566322" lon="-95.502353" /><trkpt lat="30.545177" lon="-95.497298" /><trkpt lat="30.520663" lon="-95.491322" /><trkpt lat="30.509144" lon="-95.491501" /><trkpt lat="30.48802" lon="-95.494048" /><trkpt lat="30.473243" lon="-95.496347" /><trkpt lat="30.465038" lon="-95.496242" /><trkpt lat="30.454044" lon="-95.495889" /><trkpt lat="30.438539" lon="-95.495478" /><trkpt lat="30.432659" lon="-95.495155" /><trkpt lat="30.423628" lon="-95.492771" /><trkpt lat="30.413501" lon="-95.489729" /><trkpt lat="30.391132" lon="-95.486687" /><trkpt lat="30.378237" lon="-95.486305" /><trkpt lat="30.363968" lon="-95.485136" /><trkpt lat="30.352376" lon="-95.484177" /><trkpt lat="30.345875" lon="-95.483035" /><trkpt lat="30.331752" lon="-95.477595" /><trkpt lat="30.327899" lon="-95.476103" /><trkpt lat="30.31793" lon="-95.472697" /><trkpt lat="30.307628" lon="-95.469222" /><trkpt lat="30.296131" lon="-95.465475" /><trkpt lat="30.290327" lon="-95.463475" /><trkpt lat="30.28478" lon="-95.460575" /><trkpt lat="30.281585" lon="-95.458488" /><trkpt lat="30.277917" lon="-95.457149" /><trkpt lat="30.273748" lon="-95.456884" /><trkpt lat="30.264907" lon="-95.456956" /><trkpt lat="30.255366" lon="-95.456981" /><trkpt lat="30.24948" lon="-95.457041" /><trkpt lat="30.241169" lon="-95.458453" /><trkpt lat="30.237625" lon="-95.458744" /><trkpt lat="30.225038" lon="-95.457931" /><trkpt lat="30.204578" lon="-95.45607" /><trkpt lat="30.196117" lon="-95.4545" /><trkpt lat="30.186977" lon="-95.452834" /><trkpt lat="30.162085" lon="-95.450404" /><trkpt lat="30.157137" lon="-95.449565" /><trkpt lat="30.148714" lon="-95.447832" /><trkpt lat="30.138074" lon="-95.44564" /><trkpt lat="30.128872" lon="-95.443784" /><trkpt lat="30.119278" lon="-95.441637" /><trkpt lat="30.114366" lon="-95.438203" /><trkpt lat="30.110563" lon="-95.436767" /><trkpt lat="30.107098" lon="-95.435981" /><trkpt lat="30.103956" lon="-95.43182" /><trkpt lat="30.097857" lon="-95.418427" /><trkpt lat="30.095112" lon="-95.415109" /><trkpt lat="30.089326" lon="-95.413385" /><trkpt lat="30.079868" lon="-95.410815" /><trkpt lat="30.072419" lon="-95.411934" /><trkpt lat="30.070041" lon="-95.411358" /><trkpt lat="30.063005" lon="-95.406335" /><trkpt lat="30.052026" lon="-95.403771" /><trkpt lat="30.042695" lon="-95.407692" /><trkpt lat="30.034967" lon="-95.406607" /><trkpt lat="30.026926" lon="-95.404629" /><trkpt lat="30.022815" lon="-95.404691" /><trkpt lat="30.008169" lon="-95.403105" /><trkpt lat="30.00421" lon="-95.399371" /><trkpt lat="29.993194" lon="-95.396382" /><trkpt lat="29.976592" lon="-95.392219" /><trkpt lat="29.973283" lon="-95.389956" /><trkpt lat="29.970703" lon="-95.383065" /><trkpt lat="29.967909" lon="-95.380447" /><trkpt lat="29.959648" lon="-95.380041" /><trkpt lat="29.957361" lon="-95.38036" /><trkpt lat="29.956074" lon="-95.381124" /><trkpt lat="29.954187" lon="-95.382989" /><trkpt lat="29.952717" lon="-95.383963" /><trkpt lat="29.949031" lon="-95.383979" /><trkpt lat="29.941133" lon="-95.382006" /><trkpt lat="29.935914" lon="-95.380701" /><trkpt lat="29.926578" lon="-95.378422" /><trkpt lat="29.91842" lon="-95.376245" /><trkpt lat="29.915673" lon="-95.376216" /><trkpt lat="29.911593" lon="-95.375313" /><trkpt lat="29.899248" lon="-95.372204" /><trkpt lat="29.890284" lon="-95.369983" /><trkpt lat="29.872514" lon="-95.365549" /><trkpt lat="29.863691" lon="-95.363324" /><trkpt lat="29.851757" lon="-95.360334" /><trkpt lat="29.843327" lon="-95.358227" /><trkpt lat="29.830823" lon="-95.355078" /><trkpt lat="29.827031" lon="-95.355158" /><trkpt lat="29.821307" lon="-95.356048" /><trkpt lat="29.818977" lon="-95.355116" /><trkpt lat="29.814472" lon="-95.351889" /><trkpt lat="29.812122" lon="-95.350073" /><trkpt lat="29.810127" lon="-95.343129" /><trkpt lat="29.809477" lon="-95.341303" /><trkpt lat="29.808451" lon="-95.339516" /><trkpt lat="29.807629" lon="-95.338756" /><trkpt lat="29.806589" lon="-95.338554" /><trkpt lat="29.804358" lon="-95.339524" /><trkpt lat="29.802108" lon="-95.340081" /><trkpt lat="29.794364" lon="-95.339977" /><trkpt lat="29.789107" lon="-95.339967" /><trkpt lat="29.7818" lon="-95.340048" /><trkpt lat="29.77468" lon="-95.34033" /><trkpt lat="29.769872" lon="-95.341078" /><trkpt lat="29.768072" lon="-95.344017" /><trkpt lat="29.766188" lon="-95.34798" /><trkpt lat="29.763696" lon="-95.349683" /><trkpt lat="29.759821" lon="-95.350645" /><trkpt lat="29.750562" lon="-95.357796" /><trkpt lat="29.744072" lon="-95.363346" /><trkpt lat="29.737296" lon="-95.36871" /><trkpt lat="29.734578" lon="-95.370924" /><trkpt lat="29.733739" lon="-95.371958" /><trkpt lat="29.733007" lon="-95.374579" /><trkpt lat="29.732573" lon="-95.38106" /><trkpt lat="29.732184" lon="-95.388661" /><trkpt lat="29.731436" lon="-95.39868" /><trkpt lat="29.731092" lon="-95.406088" /><trkpt lat="29.730899" lon="-95.413717" /><trkpt lat="29.73068" lon="-95.422852" /><trkpt lat="29.729953" lon="-95.428859" /><trkpt lat="29.729635" lon="-95.432479" /><trkpt lat="29.730618" lon="-95.433345" /><trkpt lat="29.732394" lon="-95.433419" /><trkpt lat="29.734886" lon="-95.433427" /><trkpt lat="29.738303" lon="-95.433474" /><trkpt lat="29.738282" lon="-95.435344" /><trkpt lat="29.73819" lon="-95.433583" /><trkpt lat="29.735646" lon="-95.433533" /><trkpt lat="29.733857" lon="-95.433595" /><trkpt lat="29.73239" lon="-95.433548" /><trkpt lat="29.730773" lon="-95.433547" /><trkpt lat="29.728442" lon="-95.433618" /><trkpt lat="29.728347" lon="-95.433898" /><trkpt lat="29.728771" lon="-95.434061" /><trkpt lat="29.72923" lon="-95.430607" /><trkpt lat="29.730116" lon="-95.425953" /><trkpt lat="29.730449" lon="-95.418199" /><trkpt lat="29.730693" lon="-95.412535" /><trkpt lat="29.730734" lon="-95.407043" /><trkpt lat="29.731209" lon="-95.397108" /><trkpt lat="29.732062" lon="-95.385328" /><trkpt lat="29.732841" lon="-95.374901" /><trkpt lat="29.733362" lon="-95.371673" /><trkpt lat="29.734791" lon="-95.369664" /><trkpt lat="29.737118" lon="-95.367876" /><trkpt lat="29.742066" lon="-95.364133" /><trkpt lat="29.745165" lon="-95.362077" /><trkpt lat="29.74898" lon="-95.358868" /><trkpt lat="29.760579" lon="-95.350156" /><trkpt lat="29.764871" lon="-95.348817" /><trkpt lat="29.767732" lon="-95.343934" /><trkpt lat="29.769492" lon="-95.340911" /><trkpt lat="29.774283" lon="-95.340004" /><trkpt lat="29.779768" lon="-95.33973" /><trkpt lat="29.787878" lon="-95.339626" /><trkpt lat="29.793276" lon="-95.339566" /><trkpt lat="29.798026" lon="-95.339566" /><trkpt lat="29.8024" lon="-95.339424" /><trkpt lat="29.803413" lon="-95.339087" /><trkpt lat="29.805091" lon="-95.338121" /><trkpt lat="29.806204" lon="-95.337199" /><trkpt lat="29.807338" lon="-95.336238" /><trkpt lat="29.808094" lon="-95.336394" /><trkpt lat="29.808914" lon="-95.336967" /><trkpt lat="29.809174" lon="-95.337581" /><trkpt lat="29.809934" lon="-95.341718" /><trkpt lat="29.812767" lon="-95.349745" /><trkpt lat="29.815461" lon="-95.352047" /><trkpt lat="29.819397" lon="-95.355154" /><trkpt lat="29.822317" lon="-95.355819" /><trkpt lat="29.830105" lon="-95.354538" /><trkpt lat="29.841267" lon="-95.357321" /><trkpt lat="29.855191" lon="-95.36079" /><trkpt lat="29.870003" lon="-95.364477" /><trkpt lat="29.87576" lon="-95.365922" /><trkpt lat="29.885575" lon="-95.368345" /><trkpt lat="29.903553" lon="-95.372885" /><trkpt lat="29.915047" lon="-95.375731" /><trkpt lat="29.918618" lon="-95.376117" /><trkpt lat="29.929985" lon="-95.378929" /><trkpt lat="29.941382" lon="-95.381863" /><trkpt lat="29.950131" lon="-95.384067" /><trkpt lat="29.951627" lon="-95.384054" /><trkpt lat="29.953709" lon="-95.383159" /><trkpt lat="29.955866" lon="-95.381072" /><trkpt lat="29.958011" lon="-95.379959" /><trkpt lat="29.965059" lon="-95.379961" /><trkpt lat="29.970097" lon="-95.381826" /><trkpt lat="29.973051" lon="-95.389236" /><trkpt lat="29.977121" lon="-95.392146" /><trkpt lat="29.998196" lon="-95.397377" /><trkpt lat="30.006633" lon="-95.401465" /><trkpt lat="30.021563" lon="-95.404634" /><trkpt lat="30.026968" lon="-95.404417" /><trkpt lat="30.033124" lon="-95.405962" /><trkpt lat="30.042141" lon="-95.407669" /><trkpt lat="30.051745" lon="-95.40361" /><trkpt lat="30.065658" lon="-95.407956" /><trkpt lat="30.072525" lon="-95.411691" /><trkpt lat="30.082963" lon="-95.411504" /><trkpt lat="30.091394" lon="-95.413775" /><trkpt lat="30.097531" lon="-95.417356" /><trkpt lat="30.105414" lon="-95.434144" /><trkpt lat="30.110673" lon="-95.436353" /><trkpt lat="30.117124" lon="-95.440043" /><trkpt lat="30.123192" lon="-95.442329" /><trkpt lat="30.145399" lon="-95.446807" /><trkpt lat="30.157772" lon="-95.449364" /><trkpt lat="30.176865" lon="-95.451549" /><trkpt lat="30.189959" lon="-95.452977" /><trkpt lat="30.202877" lon="-95.455571" /><trkpt lat="30.225898" lon="-95.457723" /><trkpt lat="30.235888" lon="-95.458532" /><trkpt lat="30.242836" lon="-95.457856" /><trkpt lat="30.252379" lon="-95.456729" /><trkpt lat="30.265888" lon="-95.456667" /><trkpt lat="30.27584" lon="-95.456553" /><trkpt lat="30.281269" lon="-95.457993" /><trkpt lat="30.287228" lon="-95.461877" /><trkpt lat="30.296201" lon="-95.465108" /><trkpt lat="30.306873" lon="-95.468669" /><trkpt lat="30.317769" lon="-95.472287" /><trkpt lat="30.325609" lon="-95.474978" /><trkpt lat="30.336953" lon="-95.479371" /><trkpt lat="30.349883" lon="-95.483684" /><trkpt lat="30.360809" lon="-95.484464" /><trkpt lat="30.370143" lon="-95.485048" /><trkpt lat="30.38431" lon="-95.48572" /><trkpt lat="30.400189" lon="-95.486236" /><trkpt lat="30.415296" lon="-95.489995" /><trkpt lat="30.427977" lon="-95.493857" /><trkpt lat="30.435791" lon="-95.495224" /><trkpt lat="30.442056" lon="-95.495375" /><trkpt lat="30.45747" lon="-95.495712" /><trkpt lat="30.471135" lon="-95.496298" /><trkpt lat="30.485481" lon="-95.494253" /><trkpt lat="30.510835" lon="-95.491191" /><trkpt lat="30.519682" lon="-95.490943" /><trkpt lat="30.532059" lon="-95.493842" /><trkpt lat="30.553785" lon="-95.499186" /><trkpt lat="30.568489" lon="-95.502364" /><trkpt lat="30.63144" lon="-95.507988" /><trkpt lat="30.64469" lon="-95.509171" /><trkpt lat="30.662512" lon="-95.511981" /><trkpt lat="30.675766" lon="-95.519679" /><trkpt lat="30.680499" lon="-95.52642" /><trkpt lat="30.690826" lon="-95.547371" /><trkpt lat="30.696001" lon="-95.554187" /><trkpt lat="30.714575" lon="-95.567228" /><trkpt lat="30.725669" lon="-95.575081" /><trkpt lat="30.731644" lon="-95.581991" /><trkpt lat="30.740696" lon="-95.595357" /><trkpt lat="30.767377" lon="-95.635888" /><trkpt lat="30.778397" lon="-95.652847" /><trkpt lat="30.792946" lon="-95.675024" /><trkpt lat="30.835551" lon="-95.716874" /><trkpt lat="30.854679" lon="-95.742596" /><trkpt lat="30.860767" lon="-95.749895" /><trkpt lat="30.877569" lon="-95.763451" /><trkpt lat="30.898499" lon="-95.780394" /><trkpt lat="30.910023" lon="-95.790737" /><trkpt lat="30.920768" lon="-95.809375" /><trkpt lat="30.938169" lon="-95.839729" /><trkpt lat="30.950096" lon="-95.860485" /><trkpt lat="30.958825" lon="-95.875664" /><trkpt lat="30.962025" lon="-95.879244" /><trkpt lat="30.975788" lon="-95.892637" /><trkpt lat="30.994421" lon="-95.908109" /><trkpt lat="31.016029" lon="-95.924088" /><trkpt lat="31.031306" lon="-95.935354" /><trkpt lat="31.041982" lon="-95.943192" /><trkpt lat="31.051526" lon="-95.946892" /><trkpt lat="31.066064" lon="-95.951872" /><trkpt lat="31.082206" lon="-95.957387" /><trkpt lat="31.093736" lon="-95.961344" /><trkpt lat="31.108622" lon="-95.967299" /><trkpt lat="31.123205" lon="-95.975772" /><trkpt lat="31.13171" lon="-95.978189" /><trkpt lat="31.14981" lon="-95.982996" /><trkpt lat="31.167585" lon="-95.987006" /><trkpt lat="31.208476" lon="-95.996327" /><trkpt lat="31.236939" lon="-95.99298" /><trkpt lat="31.256419" lon="-95.987668" /><trkpt lat="31.25811" lon="-95.985817" /><trkpt lat="31.257823" lon="-95.97871" /></trkseg></trk><wpt lat="30.9498688" lon="-95.9127773"><name>Madisonville, TX</name><desc>55.0 kWh</desc></wpt><wpt lat="29.7382821" lon="-95.4353438"><name>Houston, TX - West Alabama Street</name><desc>62.0 kWh</desc></wpt><wpt lat="31.2578221" lon="-95.9785301"><name>Centerville, TX</name><desc>43.0 kWh</desc></wpt></gpx>