<?xml version='1.0' encoding='utf-8'?>
<gpx version="1.1" creator="My Mile Diary" xmlns="http://www.topografix.com/GPX/1/1"><metadata><name>Jul 2025 — Addison → Colorado (Round Trip) · Rama + Akash (Akash's car)</name></metadata><wpt lat="32.9601193" lon="-96.8300029"><name>Addison, TX</name><desc>Addison, TX</desc></wpt><wpt lat="34.2937246" lon="-99.7423674"><name>Quanah, TX</name><desc>Quanah, TX</desc></wpt><wpt lat="35.2806227" lon="-101.8312825"><name>Amarillo, TX - River Road</name><desc>Amarillo, TX - River Road</desc></wpt><wpt lat="36.4507836" lon="-103.184797"><name>Clayton, NM</name><desc>Clayton, NM</desc></wpt><wpt lat="37.169397" lon="-104.500541"><name>Trinidad, CO</name><desc>Trinidad, CO</desc></wpt><wpt lat="38.263995" lon="-104.6141867"><name>Pueblo, CO</name><desc>Pueblo, CO</desc></wpt><wpt lat="38.8339578" lon="-104.825348"><name>Colorado Springs, CO</name><desc>Colorado Springs, CO</desc></wpt><wpt lat="39.5744" lon="-106.0965"><name>Frisco, CO - Summit Boulevard</name><desc>Frisco, CO - Summit Boulevard</desc></wpt><wpt lat="38.263995" lon="-104.6141867"><name>Pueblo, CO</name><desc>Pueblo, CO</desc></wpt><wpt lat="37.169397" lon="-104.500541"><name>Trinidad, CO</name><desc>Trinidad, CO</desc></wpt><wpt lat="36.4507836" lon="-103.184797"><name>Clayton, NM</name><desc>Clayton, NM</desc></wpt><wpt lat="35.1919954" lon="-101.8286328"><name>Amarillo, TX - East Interstate 40</name><desc>Amarillo, TX - East Interstate 40</desc></wpt><wpt lat="33.8166258" lon="-98.194682"><name>Henrietta, TX</name><desc>Henrietta, TX</desc></wpt><wpt lat="32.9601193" lon="-96.8300029"><name>Addison, TX</name><desc>Addison, TX</desc></wpt></gpx>