<?xml version='1.0' encoding='utf-8'?>
<gpx version="1.1" creator="My Mile Diary" xmlns="http://www.topografix.com/GPX/1/1"><metadata><name>Nov 2024 — Addison → Bellevue (via TX, NM, AZ, UT, ID, OR, WA)</name></metadata><wpt lat="32.9601193" lon="-96.8300029"><name>Addison, TX</name><desc>Addison, TX</desc></wpt><wpt lat="33.8166258" lon="-98.194682"><name>Henrietta, TX</name><desc>Henrietta, TX</desc></wpt><wpt lat="34.5196569" lon="-100.2067656"><name>Childress, TX</name><desc>Childress, TX</desc></wpt><wpt lat="35.1919954" lon="-101.8286328"><name>Amarillo, TX - East Interstate 40</name><desc>Amarillo, TX - East Interstate 40</desc></wpt><wpt lat="35.1719425" lon="-103.72504"><name>Tucumcari, NM</name><desc>Tucumcari, NM</desc></wpt><wpt lat="35.1800918" lon="-106.5687024"><name>Albuquerque, NM - Louisiana Boulevard Northeast</name><desc>Albuquerque, NM - Louisiana Boulevard Northeast</desc></wpt><wpt lat="35.1697175" lon="-107.8908919"><name>Milan, NM</name><desc>Milan, NM</desc></wpt><wpt lat="34.9037105" lon="-110.1593261"><name>Holbrook, AZ</name><desc>Holbrook, AZ</desc></wpt><wpt lat="35.1949783" lon="-111.6289385"><name>Flagstaff, AZ - US-89</name><desc>Flagstaff, AZ - US-89</desc></wpt><wpt lat="36.9148305" lon="-111.457294"><name>Page, AZ</name><desc>Page, AZ</desc></wpt><wpt lat="38.2765305" lon="-112.640278"><name>Beaver, UT - 525 W</name><desc>Beaver, UT - 525 W</desc></wpt><wpt lat="40.7596198" lon="-111.886797"><name>Salt Lake City, UT</name><desc>Salt Lake City, UT</desc></wpt><wpt lat="40.7534546" lon="-111.8997545"><name>Salt Lake City, UT - S 300 W</name><desc>Salt Lake City, UT - S 300 W</desc></wpt><wpt lat="42.5357428" lon="-113.792794"><name>Burley, ID</name><desc>Burley, ID</desc></wpt><wpt lat="43.6207082" lon="-116.2434129"><name>Boise, ID - North Orchard Street</name><desc>Boise, ID - North Orchard Street</desc></wpt><wpt lat="44.7748748" lon="-117.834384"><name>Baker City, OR</name><desc>Baker City, OR</desc></wpt><wpt lat="45.672075" lon="-118.7885967"><name>Pendleton, OR</name><desc>Pendleton, OR</desc></wpt><wpt lat="46.6030113" lon="-120.5027063"><name>Yakima, WA - East Yakima Avenue</name><desc>Yakima, WA - East Yakima Avenue</desc></wpt><wpt lat="47.6167921" lon="-122.1115836"><name>Bellevue, WA - Northeast 8th Street</name><desc>Bellevue, WA - Northeast 8th Street</desc></wpt></gpx>