<?xml version='1.0' encoding='utf-8'?>
<gpx version="1.1" creator="Tesla Travel Map" xmlns="http://www.topografix.com/GPX/1/1"><metadata><name>Apr 2026 — Kirkland</name></metadata><trk><name>Apr 2026 — Kirkland</name><trkseg><trkpt lat="47.6765382" lon="-122.2070775" /><trkpt lat="47.67687" lon="-122.205943" /><trkpt lat="47.677244" lon="-122.204236" /><trkpt lat="47.677763" lon="-122.202012" /><trkpt lat="47.678615" lon="-122.199246" /><trkpt lat="47.679225" lon="-122.197032" /><trkpt lat="47.679378" lon="-122.1904" /><trkpt lat="47.679131" lon="-122.187145" /><trkpt lat="47.678541" lon="-122.185561" /><trkpt lat="47.676812" lon="-122.185301" /><trkpt lat="47.672525" lon="-122.186574" /><trkpt lat="47.6666" lon="-122.187234" /><trkpt lat="47.650836" lon="-122.187147" /><trkpt lat="47.641099" lon="-122.186735" /><trkpt lat="47.634797" lon="-122.187285" /><trkpt lat="47.630032" lon="-122.188569" /><trkpt lat="47.621549" lon="-122.188899" /><trkpt lat="47.616917" lon="-122.188982" /><trkpt lat="47.613477" lon="-122.188902" /><trkpt lat="47.609376" lon="-122.188466" /><trkpt lat="47.601509" lon="-122.18281" /><trkpt lat="47.597772" lon="-122.181649" /><trkpt lat="47.587451" lon="-122.179828" /><trkpt lat="47.581989" lon="-122.175903" /><trkpt lat="47.580682" lon="-122.174813" /><trkpt lat="47.579678" lon="-122.173015" /><trkpt lat="47.579944" lon="-122.170731" /><trkpt lat="47.579796" lon="-122.162214" /><trkpt lat="47.579107" lon="-122.147763" /><trkpt lat="47.578821" lon="-122.141009" /><trkpt lat="47.578276" lon="-122.133692" /><trkpt lat="47.568118" lon="-122.104843" /><trkpt lat="47.558304" lon="-122.087004" /><trkpt lat="47.548462" lon="-122.06138" /><trkpt lat="47.545691" lon="-122.053736" /><trkpt lat="47.544486" lon="-122.044966" /><trkpt lat="47.540599" lon="-122.036664" /><trkpt lat="47.533818" lon="-122.029913" /><trkpt lat="47.531658" lon="-122.025334" /><trkpt lat="47.531674" lon="-122.022337" /><trkpt lat="47.532088" lon="-122.020648" /><trkpt lat="47.532712" lon="-122.01924" /><trkpt lat="47.536239" lon="-122.011784" /><trkpt lat="47.536282" lon="-122.007002" /><trkpt lat="47.532378" lon="-121.996743" /><trkpt lat="47.530796" lon="-121.98223" /><trkpt lat="47.532345" lon="-121.977262" /><trkpt lat="47.535301" lon="-121.973094" /><trkpt lat="47.535526" lon="-121.967781" /><trkpt lat="47.532864" lon="-121.95806" /><trkpt lat="47.530118" lon="-121.942277" /><trkpt lat="47.525064" lon="-121.938121" /><trkpt lat="47.521887" lon="-121.934773" /><trkpt lat="47.517912" lon="-121.924035" /><trkpt lat="47.510888" lon="-121.910331" /><trkpt lat="47.506935" lon="-121.904674" /><trkpt lat="47.505926" lon="-121.898232" /><trkpt lat="47.509903" lon="-121.874207" /><trkpt lat="47.511175" lon="-121.865206" /><trkpt lat="47.511213" lon="-121.855513" /><trkpt lat="47.514416" lon="-121.843403" /><trkpt lat="47.514402" lon="-121.838294" /><trkpt lat="47.512504" lon="-121.833574" /><trkpt lat="47.500576" lon="-121.819982" /><trkpt lat="47.494541" lon="-121.812026" /><trkpt lat="47.489965" lon="-121.799181" /><trkpt lat="47.479813" lon="-121.788207" /><trkpt lat="47.474442" lon="-121.782075" /><trkpt lat="47.473321" lon="-121.778259" /><trkpt lat="47.473235" lon="-121.755379" /><trkpt lat="47.470411" lon="-121.73202" /><trkpt lat="47.464323" lon="-121.71476" /><trkpt lat="47.461555" lon="-121.70573" /><trkpt lat="47.454237" lon="-121.70216" /><trkpt lat="47.446431" lon="-121.696109" /><trkpt lat="47.443319" lon="-121.687423" /><trkpt lat="47.443677" lon="-121.677711" /><trkpt lat="47.443115" lon="-121.664801" /><trkpt lat="47.441119" lon="-121.656395" /><trkpt lat="47.434193" lon="-121.641993" /><trkpt lat="47.43093" lon="-121.636525" /><trkpt lat="47.428416" lon="-121.620861" /><trkpt lat="47.425937" lon="-121.605203" /><trkpt lat="47.42302" lon="-121.594928" /><trkpt lat="47.417193" lon="-121.586856" /><trkpt lat="47.412736" lon="-121.583396" /><trkpt lat="47.407247" lon="-121.573517" /><trkpt lat="47.403506" lon="-121.56102" /><trkpt lat="47.398177" lon="-121.550162" /><trkpt lat="47.39706" lon="-121.541348" /><trkpt lat="47.395035" lon="-121.523486" /><trkpt lat="47.395952" lon="-121.512306" /><trkpt lat="47.396883" lon="-121.488729" /><trkpt lat="47.395514" lon="-121.479283" /><trkpt lat="47.392841" lon="-121.470794" /><trkpt lat="47.396122" lon="-121.455663" /><trkpt lat="47.401862" lon="-121.443363" /><trkpt lat="47.414101" lon="-121.437226" /><trkpt lat="47.423063" lon="-121.43179" /><trkpt lat="47.425447" lon="-121.430005" /><trkpt lat="47.428434" lon="-121.421133" /><trkpt lat="47.4238" lon="-121.410576" /><trkpt lat="47.417078" lon="-121.411031" /><trkpt lat="47.410169" lon="-121.409289" /><trkpt lat="47.40535" lon="-121.404258" /><trkpt lat="47.401012" lon="-121.402966" /><trkpt lat="47.39666" lon="-121.397658" /><trkpt lat="47.392266" lon="-121.387353" /><trkpt lat="47.38981" lon="-121.38265" /><trkpt lat="47.383915" lon="-121.378288" /><trkpt lat="47.373388" lon="-121.376933" /><trkpt lat="47.370482" lon="-121.375183" /><trkpt lat="47.367014" lon="-121.372872" /><trkpt lat="47.361329" lon="-121.372763" /><trkpt lat="47.358135" lon="-121.368849" /><trkpt lat="47.355076" lon="-121.366099" /><trkpt lat="47.349542" lon="-121.363817" /><trkpt lat="47.344158" lon="-121.364481" /><trkpt lat="47.341539" lon="-121.362485" /><trkpt lat="47.340315" lon="-121.356326" /><trkpt lat="47.339214" lon="-121.351409" /><trkpt lat="47.332414" lon="-121.345432" /><trkpt lat="47.329921" lon="-121.342354" /><trkpt lat="47.326307" lon="-121.33088" /><trkpt lat="47.323917" lon="-121.32695" /><trkpt lat="47.314644" lon="-121.316154" /><trkpt lat="47.30965" lon="-121.312592" /><trkpt lat="47.302712" lon="-121.302837" /><trkpt lat="47.300646" lon="-121.297567" /><trkpt lat="47.297228" lon="-121.28835" /><trkpt lat="47.291774" lon="-121.284233" /><trkpt lat="47.287733" lon="-121.282683" /><trkpt lat="47.283172" lon="-121.281231" /><trkpt lat="47.279748" lon="-121.280733" /><trkpt lat="47.271481" lon="-121.270557" /><trkpt lat="47.268973" lon="-121.260399" /><trkpt lat="47.267437" lon="-121.253031" /><trkpt lat="47.268655" lon="-121.246736" /><trkpt lat="47.268942" lon="-121.2383" /><trkpt lat="47.269969" lon="-121.232934" /><trkpt lat="47.265315" lon="-121.221993" /><trkpt lat="47.263466" lon="-121.215397" /><trkpt lat="47.259571" lon="-121.210296" /><trkpt lat="47.256845" lon="-121.203133" /><trkpt lat="47.254849" lon="-121.195577" /><trkpt lat="47.241116" lon="-121.179403" /><trkpt lat="47.231515" lon="-121.16819" /><trkpt lat="47.220254" lon="-121.14844" /><trkpt lat="47.217747" lon="-121.132233" /><trkpt lat="47.216068" lon="-121.124116" /><trkpt lat="47.202599" lon="-121.07618" /><trkpt lat="47.194685" lon="-121.052127" /><trkpt lat="47.186207" lon="-121.043617" /><trkpt lat="47.182109" lon="-121.038061" /><trkpt lat="47.183852" lon="-121.010138" /><trkpt lat="47.193426" lon="-120.966497" /><trkpt lat="47.193843" lon="-120.96132" /><trkpt lat="47.195772" lon="-120.956878" /><trkpt lat="47.195567" lon="-120.955171" /><trkpt lat="47.194836" lon="-120.954112" /><trkpt lat="47.196169" lon="-120.952124" /><trkpt lat="47.195333" lon="-120.941985" /><trkpt lat="47.193565" lon="-120.94081" /><trkpt lat="47.192583" lon="-120.935965" /><trkpt lat="47.192127" lon="-120.935752" /><trkpt lat="47.190164" lon="-120.935605" /><trkpt lat="47.185549" lon="-120.910095" /><trkpt lat="47.183601" lon="-120.904903" /><trkpt lat="47.183812" lon="-120.902389" /><trkpt lat="47.187567" lon="-120.89942" /><trkpt lat="47.186258" lon="-120.896467" /><trkpt lat="47.182415" lon="-120.882835" /><trkpt lat="47.175333" lon="-120.858009" /><trkpt lat="47.175001" lon="-120.851941" /><trkpt lat="47.176377" lon="-120.846407" /><trkpt lat="47.182062" lon="-120.833374" /><trkpt lat="47.192392" lon="-120.809676" /><trkpt lat="47.19328" lon="-120.805853" /><trkpt lat="47.19571" lon="-120.783732" /><trkpt lat="47.196239" lon="-120.774451" /><trkpt lat="47.192203" lon="-120.763299" /><trkpt lat="47.191874" lon="-120.759898" /><trkpt lat="47.195628" lon="-120.752886" /><trkpt lat="47.197987" lon="-120.746398" /><trkpt lat="47.200807" lon="-120.730743" /><trkpt lat="47.199613" lon="-120.723347" /><trkpt lat="47.199525" lon="-120.717906" /><trkpt lat="47.204891" lon="-120.705688" /><trkpt lat="47.20824" lon="-120.699515" /><trkpt lat="47.210644" lon="-120.6982" /><trkpt lat="47.212755" lon="-120.699147" /><trkpt lat="47.216555" lon="-120.700288" /><trkpt lat="47.220366" lon="-120.698684" /><trkpt lat="47.226367" lon="-120.695363" /><trkpt lat="47.230621" lon="-120.696098" /><trkpt lat="47.237003" lon="-120.694777" /><trkpt lat="47.238897" lon="-120.695264" /><trkpt lat="47.242168" lon="-120.697439" /><trkpt lat="47.243488" lon="-120.697613" /><trkpt lat="47.248634" lon="-120.693651" /><trkpt lat="47.251043" lon="-120.69234" /><trkpt lat="47.254855" lon="-120.694821" /><trkpt lat="47.256939" lon="-120.695655" /><trkpt lat="47.260917" lon="-120.695827" /><trkpt lat="47.265389" lon="-120.69746" /><trkpt lat="47.271672" lon="-120.698066" /><trkpt lat="47.276228" lon="-120.698347" /><trkpt lat="47.280607" lon="-120.697736" /><trkpt lat="47.28667" lon="-120.697229" /><trkpt lat="47.290266" lon="-120.699069" /><trkpt lat="47.292804" lon="-120.700402" /><trkpt lat="47.295466" lon="-120.700067" /><trkpt lat="47.300614" lon="-120.700587" /><trkpt lat="47.303695" lon="-120.69624" /><trkpt lat="47.310693" lon="-120.69364" /><trkpt lat="47.318954" lon="-120.691865" /><trkpt lat="47.32368" lon="-120.678294" /><trkpt lat="47.328744" lon="-120.659833" /><trkpt lat="47.330388" lon="-120.645758" /><trkpt lat="47.332513" lon="-120.640886" /><trkpt lat="47.333967" lon="-120.633002" /><trkpt lat="47.334686" lon="-120.623568" /><trkpt lat="47.331534" lon="-120.611913" /><trkpt lat="47.333388" lon="-120.598039" /><trkpt lat="47.336717" lon="-120.59086" /><trkpt lat="47.334831" lon="-120.584149" /><trkpt lat="47.335215" lon="-120.579238" /><trkpt lat="47.333606" lon="-120.575879" /><trkpt lat="47.333696" lon="-120.571679" /><trkpt lat="47.337007" lon="-120.567181" /><trkpt lat="47.339798" lon="-120.565708" /><trkpt lat="47.345465" lon="-120.566041" /><trkpt lat="47.347546" lon="-120.568525" /><trkpt lat="47.349186" lon="-120.571314" /><trkpt lat="47.351574" lon="-120.570989" /><trkpt lat="47.353799" lon="-120.566865" /><trkpt lat="47.356872" lon="-120.563161" /><trkpt lat="47.359839" lon="-120.563898" /><trkpt lat="47.361234" lon="-120.566792" /><trkpt lat="47.363834" lon="-120.576776" /><trkpt lat="47.36708" lon="-120.578187" /><trkpt lat="47.370067" lon="-120.583481" /><trkpt lat="47.374536" lon="-120.586292" /><trkpt lat="47.378143" lon="-120.589114" /><trkpt lat="47.384105" lon="-120.597742" /><trkpt lat="47.389065" lon="-120.603812" /><trkpt lat="47.394964" lon="-120.61169" /><trkpt lat="47.397109" lon="-120.619074" /><trkpt lat="47.396587" lon="-120.624044" /><trkpt lat="47.395223" lon="-120.62923" /><trkpt lat="47.394011" lon="-120.636838" /><trkpt lat="47.393216" lon="-120.641833" /><trkpt lat="47.395544" lon="-120.648197" /><trkpt lat="47.39965" lon="-120.652665" /><trkpt lat="47.406909" lon="-120.657819" /><trkpt lat="47.41188" lon="-120.658094" /><trkpt lat="47.414788" lon="-120.658384" /><trkpt lat="47.417424" lon="-120.659491" /><trkpt lat="47.419449" lon="-120.658151" /><trkpt lat="47.422411" lon="-120.659142" /><trkpt lat="47.424522" lon="-120.65931" /><trkpt lat="47.426659" lon="-120.658116" /><trkpt lat="47.431136" lon="-120.656021" /><trkpt lat="47.435358" lon="-120.657546" /><trkpt lat="47.439905" lon="-120.662126" /><trkpt lat="47.443809" lon="-120.661799" /><trkpt lat="47.447506" lon="-120.65798" /><trkpt lat="47.450521" lon="-120.65388" /><trkpt lat="47.454" lon="-120.654921" /><trkpt lat="47.455476" lon="-120.65837" /><trkpt lat="47.459811" lon="-120.659926" /><trkpt lat="47.463858" lon="-120.65991" /><trkpt lat="47.474513" lon="-120.655627" /><trkpt lat="47.479222" lon="-120.654045" /><trkpt lat="47.485831" lon="-120.651804" /><trkpt lat="47.488878" lon="-120.64685" /><trkpt lat="47.492327" lon="-120.636606" /><trkpt lat="47.495311" lon="-120.633054" /><trkpt lat="47.497481" lon="-120.632111" /><trkpt lat="47.499433" lon="-120.632058" /><trkpt lat="47.501932" lon="-120.632708" /><trkpt lat="47.504316" lon="-120.633364" /><trkpt lat="47.5065" lon="-120.633697" /><trkpt lat="47.508985" lon="-120.632514" /><trkpt lat="47.514731" lon="-120.628764" /><trkpt lat="47.51801" lon="-120.626963" /><trkpt lat="47.524398" lon="-120.624637" /><trkpt lat="47.532491" lon="-120.621692" /><trkpt lat="47.536722" lon="-120.620156" /><trkpt lat="47.540687" lon="-120.618696" /><trkpt lat="47.542587" lon="-120.617634" /><trkpt lat="47.5448" lon="-120.61565" /><trkpt lat="47.547359" lon="-120.612317" /><trkpt lat="47.551027" lon="-120.607412" /><trkpt lat="47.552869" lon="-120.604908" /><trkpt lat="47.553968" lon="-120.602937" /><trkpt lat="47.554706" lon="-120.60111" /><trkpt lat="47.556151" lon="-120.596714" /><trkpt lat="47.557167" lon="-120.595036" /><trkpt lat="47.562331" lon="-120.598718" /><trkpt lat="47.564996" lon="-120.603398" /><trkpt lat="47.56701" lon="-120.605396" /><trkpt lat="47.571233" lon="-120.608561" /><trkpt lat="47.572821" lon="-120.612066" /><trkpt lat="47.575851" lon="-120.613076" /><trkpt lat="47.580653" lon="-120.613871" /><trkpt lat="47.581898" lon="-120.616331" /><trkpt lat="47.582805" lon="-120.619417" /><trkpt lat="47.585793" lon="-120.62381" /><trkpt lat="47.588692" lon="-120.628105" /><trkpt lat="47.590695" lon="-120.632128" /><trkpt lat="47.592673" lon="-120.63744" /><trkpt lat="47.596268" lon="-120.64574" /><trkpt lat="47.597897" lon="-120.649785" /><trkpt lat="47.599089" lon="-120.653465" /><trkpt lat="47.598832" lon="-120.656094" /><trkpt lat="47.597353" lon="-120.659226" /><trkpt lat="47.596883" lon="-120.660121" /><trkpt lat="47.595745" lon="-120.662289" /><trkpt lat="47.596883" lon="-120.660121" /><trkpt lat="47.597353" lon="-120.659226" /><trkpt lat="47.598832" lon="-120.656094" /><trkpt lat="47.599089" lon="-120.653465" /><trkpt lat="47.597897" lon="-120.649785" /><trkpt lat="47.596617" lon="-120.646616" /><trkpt lat="47.592673" lon="-120.63744" /><trkpt lat="47.590831" lon="-120.632523" /><trkpt lat="47.588692" lon="-120.628105" /><trkpt lat="47.585793" lon="-120.62381" /><trkpt lat="47.582965" lon="-120.619675" /><trkpt lat="47.581898" lon="-120.616331" /><trkpt lat="47.580783" lon="-120.614022" /><trkpt lat="47.577644" lon="-120.61295" /><trkpt lat="47.573001" lon="-120.612282" /><trkpt lat="47.571391" lon="-120.608809" /><trkpt lat="47.567389" lon="-120.605649" /><trkpt lat="47.565182" lon="-120.603669" /><trkpt lat="47.563787" lon="-120.601306" /><trkpt lat="47.556908" lon="-120.595382" /><trkpt lat="47.555972" lon="-120.597154" /><trkpt lat="47.554532" lon="-120.601592" /><trkpt lat="47.553838" lon="-120.603205" /><trkpt lat="47.55275" lon="-120.605075" /><trkpt lat="47.550545" lon="-120.608056" /><trkpt lat="47.546716" lon="-120.613189" /><trkpt lat="47.544337" lon="-120.616146" /><trkpt lat="47.542482" lon="-120.617707" /><trkpt lat="47.539852" lon="-120.619012" /><trkpt lat="47.53636" lon="-120.620286" /><trkpt lat="47.53118" lon="-120.62217" /><trkpt lat="47.523912" lon="-120.624809" /><trkpt lat="47.517866" lon="-120.627018" /><trkpt lat="47.514431" lon="-120.628959" /><trkpt lat="47.50888" lon="-120.632582" /><trkpt lat="47.506244" lon="-120.633725" /><trkpt lat="47.504316" lon="-120.633364" /><trkpt lat="47.501737" lon="-120.632655" /><trkpt lat="47.499332" lon="-120.632045" /><trkpt lat="47.497106" lon="-120.632199" /><trkpt lat="47.495016" lon="-120.633265" /><trkpt lat="47.492327" lon="-120.636606" /><trkpt lat="47.488564" lon="-120.647807" /><trkpt lat="47.485831" lon="-120.651804" /><trkpt lat="47.478523" lon="-120.654272" /><trkpt lat="47.474513" lon="-120.655627" /><trkpt lat="47.463858" lon="-120.65991" /><trkpt lat="47.459339" lon="-120.659539" /><trkpt lat="47.455476" lon="-120.65837" /><trkpt lat="47.454" lon="-120.654921" /><trkpt lat="47.450521" lon="-120.65388" /><trkpt lat="47.447506" lon="-120.65798" /><trkpt lat="47.443809" lon="-120.661799" /><trkpt lat="47.439905" lon="-120.662126" /><trkpt lat="47.435576" lon="-120.657593" /><trkpt lat="47.431136" lon="-120.656021" /><trkpt lat="47.426659" lon="-120.658116" /><trkpt lat="47.424522" lon="-120.65931" /><trkpt lat="47.422411" lon="-120.659142" /><trkpt lat="47.419576" lon="-120.658094" /><trkpt lat="47.417424" lon="-120.659491" /><trkpt lat="47.414945" lon="-120.658363" /><trkpt lat="47.41188" lon="-120.658094" /><trkpt lat="47.407914" lon="-120.657973" /><trkpt lat="47.399831" lon="-120.652858" /><trkpt lat="47.395544" lon="-120.648197" /><trkpt lat="47.393243" lon="-120.642214" /><trkpt lat="47.394011" lon="-120.636838" /><trkpt lat="47.395208" lon="-120.630024" /><trkpt lat="47.396215" lon="-120.625066" /><trkpt lat="47.397167" lon="-120.619651" /><trkpt lat="47.395173" lon="-120.612165" /><trkpt lat="47.390111" lon="-120.604738" /><trkpt lat="47.384354" lon="-120.598129" /><trkpt lat="47.379133" lon="-120.590541" /><trkpt lat="47.375086" lon="-120.586517" /><trkpt lat="47.370305" lon="-120.583867" /><trkpt lat="47.367607" lon="-120.578562" /><trkpt lat="47.364023" lon="-120.576974" /><trkpt lat="47.362157" lon="-120.571068" /><trkpt lat="47.360082" lon="-120.564183" /><trkpt lat="47.357382" lon="-120.563037" /><trkpt lat="47.354599" lon="-120.565231" /><trkpt lat="47.351784" lon="-120.570765" /><trkpt lat="47.349644" lon="-120.571505" /><trkpt lat="47.347655" lon="-120.568965" /><trkpt lat="47.346027" lon="-120.566253" /><trkpt lat="47.340228" lon="-120.565669" /><trkpt lat="47.337399" lon="-120.566835" /><trkpt lat="47.334058" lon="-120.571019" /><trkpt lat="47.33334" lon="-120.574935" /><trkpt lat="47.335019" lon="-120.57854" /><trkpt lat="47.335234" lon="-120.581583" /><trkpt lat="47.336475" lon="-120.589365" /><trkpt lat="47.335498" lon="-120.595276" /><trkpt lat="47.331552" lon="-120.609231" /><trkpt lat="47.334484" lon="-120.622252" /><trkpt lat="47.334956" lon="-120.629391" /><trkpt lat="47.332918" lon="-120.639745" /><trkpt lat="47.33069" lon="-120.644562" /><trkpt lat="47.32929" lon="-120.657235" /><trkpt lat="47.325553" lon="-120.672405" /><trkpt lat="47.319649" lon="-120.690841" /><trkpt lat="47.311987" lon="-120.693367" /><trkpt lat="47.304429" lon="-120.695751" /><trkpt lat="47.301682" lon="-120.699485" /><trkpt lat="47.297958" lon="-120.700968" /><trkpt lat="47.293354" lon="-120.700338" /><trkpt lat="47.291233" lon="-120.699826" /><trkpt lat="47.287576" lon="-120.697251" /><trkpt lat="47.283204" lon="-120.697962" /><trkpt lat="47.277734" lon="-120.69797" /><trkpt lat="47.273687" lon="-120.698263" /><trkpt lat="47.266785" lon="-120.697667" /><trkpt lat="47.262877" lon="-120.696677" /><trkpt lat="47.259243" lon="-120.695617" /><trkpt lat="47.25537" lon="-120.695137" /><trkpt lat="47.252038" lon="-120.692763" /><trkpt lat="47.249681" lon="-120.692782" /><trkpt lat="47.24471" lon="-120.69698" /><trkpt lat="47.242562" lon="-120.697574" /><trkpt lat="47.240046" lon="-120.696028" /><trkpt lat="47.23744" lon="-120.694798" /><trkpt lat="47.233459" lon="-120.69517" /><trkpt lat="47.227638" lon="-120.69561" /><trkpt lat="47.223846" lon="-120.696672" /><trkpt lat="47.218162" lon="-120.699472" /><trkpt lat="47.214784" lon="-120.700636" /><trkpt lat="47.211421" lon="-120.698315" /><trkpt lat="47.209341" lon="-120.698553" /><trkpt lat="47.207168" lon="-120.701376" /><trkpt lat="47.20076" lon="-120.714329" /><trkpt lat="47.199299" lon="-120.721161" /><trkpt lat="47.200646" lon="-120.727527" /><trkpt lat="47.200151" lon="-120.735059" /><trkpt lat="47.19692" lon="-120.750446" /><trkpt lat="47.192291" lon="-120.758488" /><trkpt lat="47.191823" lon="-120.761749" /><trkpt lat="47.195612" lon="-120.771616" /><trkpt lat="47.196369" lon="-120.777406" /><trkpt lat="47.194874" lon="-120.791371" /><trkpt lat="47.19295" lon="-120.808039" /><trkpt lat="47.187305" lon="-120.82134" /><trkpt lat="47.178619" lon="-120.841268" /><trkpt lat="47.175505" lon="-120.848951" /><trkpt lat="47.174961" lon="-120.855283" /><trkpt lat="47.177619" lon="-120.866061" /><trkpt lat="47.184667" lon="-120.89068" /><trkpt lat="47.186719" lon="-120.897508" /><trkpt lat="47.187567" lon="-120.89942" /><trkpt lat="47.184345" lon="-120.902458" /><trkpt lat="47.184396" lon="-120.904798" /><trkpt lat="47.190952" lon="-120.933707" /><trkpt lat="47.192127" lon="-120.935752" /><trkpt lat="47.192583" lon="-120.935965" /><trkpt lat="47.193565" lon="-120.94081" /><trkpt lat="47.195333" lon="-120.941985" /><trkpt lat="47.196169" lon="-120.952124" /><trkpt lat="47.194836" lon="-120.954112" /><trkpt lat="47.195567" lon="-120.955171" /><trkpt lat="47.195507" lon="-120.957964" /><trkpt lat="47.194994" lon="-120.962031" /><trkpt lat="47.185247" lon="-120.99543" /><trkpt lat="47.183225" lon="-121.023367" /><trkpt lat="47.18297" lon="-121.040372" /><trkpt lat="47.193281" lon="-121.04872" /><trkpt lat="47.195638" lon="-121.05425" /><trkpt lat="47.212304" lon="-121.103386" /><trkpt lat="47.216943" lon="-121.12682" /><trkpt lat="47.2181" lon="-121.132937" /><trkpt lat="47.219999" lon="-121.14652" /><trkpt lat="47.229789" lon="-121.165535" /><trkpt lat="47.238083" lon="-121.175308" /><trkpt lat="47.25506" lon="-121.19537" /><trkpt lat="47.25663" lon="-121.198975" /><trkpt lat="47.257534" lon="-121.206906" /><trkpt lat="47.259623" lon="-121.210136" /><trkpt lat="47.263446" lon="-121.214921" /><trkpt lat="47.265419" lon="-121.22196" /><trkpt lat="47.270128" lon="-121.233663" /><trkpt lat="47.268984" lon="-121.238566" /><trkpt lat="47.268731" lon="-121.245034" /><trkpt lat="47.26776" lon="-121.251886" /><trkpt lat="47.26848" lon="-121.257755" /><trkpt lat="47.2705" lon="-121.267073" /><trkpt lat="47.275578" lon="-121.275812" /><trkpt lat="47.280076" lon="-121.280707" /><trkpt lat="47.285836" lon="-121.282251" /><trkpt lat="47.289814" lon="-121.283064" /><trkpt lat="47.296752" lon="-121.287339" /><trkpt lat="47.299224" lon="-121.290906" /><trkpt lat="47.301851" lon="-121.300319" /><trkpt lat="47.305365" lon="-121.306136" /><trkpt lat="47.309845" lon="-121.312241" /><trkpt lat="47.314428" lon="-121.315416" /><trkpt lat="47.324159" lon="-121.32666" /><trkpt lat="47.326314" lon="-121.330024" /><trkpt lat="47.329944" lon="-121.341576" /><trkpt lat="47.334129" lon="-121.345952" /><trkpt lat="47.339517" lon="-121.351319" /><trkpt lat="47.340525" lon="-121.354662" /><trkpt lat="47.340856" lon="-121.360262" /><trkpt lat="47.342378" lon="-121.363107" /><trkpt lat="47.345069" lon="-121.364197" /><trkpt lat="47.35012" lon="-121.363706" /><trkpt lat="47.355607" lon="-121.366113" /><trkpt lat="47.358568" lon="-121.369098" /><trkpt lat="47.361569" lon="-121.37261" /><trkpt lat="47.367001" lon="-121.372435" /><trkpt lat="47.370678" lon="-121.374837" /><trkpt lat="47.373857" lon="-121.376625" /><trkpt lat="47.38405" lon="-121.377808" /><trkpt lat="47.389128" lon="-121.381145" /><trkpt lat="47.391678" lon="-121.385388" /><trkpt lat="47.394835" lon="-121.393885" /><trkpt lat="47.397389" lon="-121.397993" /><trkpt lat="47.400891" lon="-121.402436" /><trkpt lat="47.405734" lon="-121.404011" /><trkpt lat="47.409758" lon="-121.40836" /><trkpt lat="47.415975" lon="-121.411042" /><trkpt lat="47.423344" lon="-121.41002" /><trkpt lat="47.428431" lon="-121.418898" /><trkpt lat="47.429274" lon="-121.424918" /><trkpt lat="47.427173" lon="-121.430394" /><trkpt lat="47.421129" lon="-121.441872" /><trkpt lat="47.418752" lon="-121.444816" /><trkpt lat="47.410619" lon="-121.447082" /><trkpt lat="47.405995" lon="-121.446267" /><trkpt lat="47.401717" lon="-121.450127" /><trkpt lat="47.398371" lon="-121.464455" /><trkpt lat="47.3955" lon="-121.477352" /><trkpt lat="47.396778" lon="-121.484373" /><trkpt lat="47.396459" lon="-121.504595" /><trkpt lat="47.395657" lon="-121.517753" /><trkpt lat="47.396093" lon="-121.532395" /><trkpt lat="47.398405" lon="-121.549828" /><trkpt lat="47.405127" lon="-121.568281" /><trkpt lat="47.408728" lon="-121.574718" /><trkpt lat="47.415437" lon="-121.585186" /><trkpt lat="47.41882" lon="-121.588266" /><trkpt lat="47.423632" lon="-121.594733" /><trkpt lat="47.425844" lon="-121.604004" /><trkpt lat="47.429261" lon="-121.616115" /><trkpt lat="47.429394" lon="-121.628844" /><trkpt lat="47.430516" lon="-121.634755" /><trkpt lat="47.43317" lon="-121.639674" /><trkpt lat="47.442884" lon="-121.660536" /><trkpt lat="47.443211" lon="-121.670182" /><trkpt lat="47.443844" lon="-121.676753" /><trkpt lat="47.443675" lon="-121.685765" /><trkpt lat="47.445659" lon="-121.693431" /><trkpt lat="47.454684" lon="-121.701739" /><trkpt lat="47.461602" lon="-121.704778" /><trkpt lat="47.464677" lon="-121.712932" /><trkpt lat="47.471721" lon="-121.735316" /><trkpt lat="47.473647" lon="-121.754002" /><trkpt lat="47.473698" lon="-121.777837" /><trkpt lat="47.475187" lon="-121.782577" /><trkpt lat="47.489284" lon="-121.797315" /><trkpt lat="47.492355" lon="-121.802502" /><trkpt lat="47.497059" lon="-121.814762" /><trkpt lat="47.513917" lon="-121.834426" /><trkpt lat="47.515331" lon="-121.840813" /><trkpt lat="47.512595" lon="-121.852222" /><trkpt lat="47.511368" lon="-121.858596" /><trkpt lat="47.511291" lon="-121.867598" /><trkpt lat="47.507552" lon="-121.895804" /><trkpt lat="47.507294" lon="-121.90194" /><trkpt lat="47.511486" lon="-121.909934" /><trkpt lat="47.518824" lon="-121.92536" /><trkpt lat="47.522646" lon="-121.93536" /><trkpt lat="47.527829" lon="-121.939661" /><trkpt lat="47.531277" lon="-121.943734" /><trkpt lat="47.533207" lon="-121.958911" /><trkpt lat="47.536221" lon="-121.969884" /><trkpt lat="47.535289" lon="-121.974235" /><trkpt lat="47.531247" lon="-121.981256" /><trkpt lat="47.53187" lon="-121.992935" /><trkpt lat="47.536459" lon="-122.006165" /><trkpt lat="47.536922" lon="-122.011581" /><trkpt lat="47.534446" lon="-122.016978" /><trkpt lat="47.532325" lon="-122.020849" /><trkpt lat="47.531928" lon="-122.022568" /><trkpt lat="47.532005" lon="-122.025766" /><trkpt lat="47.533555" lon="-122.029196" /><trkpt lat="47.540308" lon="-122.035699" /><trkpt lat="47.543949" lon="-122.042851" /><trkpt lat="47.545819" lon="-122.053219" /><trkpt lat="47.551434" lon="-122.068233" /><trkpt lat="47.560181" lon="-122.089764" /><trkpt lat="47.566047" lon="-122.09828" /><trkpt lat="47.566719" lon="-122.099189" /><trkpt lat="47.567427" lon="-122.099669" /><trkpt lat="47.567986" lon="-122.099837" /><trkpt lat="47.56963" lon="-122.100693" /><trkpt lat="47.570958" lon="-122.1035" /><trkpt lat="47.571718" lon="-122.106546" /><trkpt lat="47.572944" lon="-122.107969" /><trkpt lat="47.575807" lon="-122.110971" /><trkpt lat="47.576651" lon="-122.11307" /><trkpt lat="47.57731" lon="-122.113616" /><trkpt lat="47.579076" lon="-122.113359" /><trkpt lat="47.582613" lon="-122.111998" /><trkpt lat="47.584854" lon="-122.11129" /><trkpt lat="47.586837" lon="-122.111502" /><trkpt lat="47.589775" lon="-122.111819" /><trkpt lat="47.591647" lon="-122.112025" /><trkpt lat="47.59326" lon="-122.112142" /><trkpt lat="47.595214" lon="-122.111156" /><trkpt lat="47.598864" lon="-122.110524" /><trkpt lat="47.601468" lon="-122.111436" /><trkpt lat="47.606792" lon="-122.113286" /><trkpt lat="47.608397" lon="-122.111926" /><trkpt lat="47.609914" lon="-122.110451" /><trkpt lat="47.612406" lon="-122.109464" /><trkpt lat="47.616408" lon="-122.107118" /><trkpt lat="47.61678" lon="-122.10925" /><trkpt lat="47.616792" lon="-122.111586" /></trkseg></trk><wpt lat="47.6765382" lon="-122.2070775"><name>Kirkland, WA</name><desc>54.2339 kWh</desc></wpt><wpt lat="47.1948356" lon="-120.9540582"><name>Cle Elum, WA - West Davis Street</name><desc>24.1363 kWh</desc></wpt><wpt lat="47.5957449" lon="-120.6622886"><name>Leavenworth, WA - US-2</name><desc>34.1701 kWh</desc></wpt><wpt lat="47.1948356" lon="-120.9540582"><name>Cle Elum, WA - West Davis Street</name><desc>43.1168 kWh</desc></wpt><wpt lat="47.6167921" lon="-122.1115836"><name>Bellevue, WA - Northeast 8th Street</name><desc>18.4693 kWh</desc></wpt></gpx>