<?xml version='1.0' encoding='utf-8'?>
<gpx version="1.1" creator="My Mile Diary" xmlns="http://www.topografix.com/GPX/1/1"><metadata><name>Sep 2025 — Frisco → Colorado (Round Trip) · Rama + Akash (Akash's car)</name></metadata><wpt lat="33.1097617" lon="-96.8125339"><name>Frisco, TX - 8404 Warren Parkway</name><desc>Frisco, TX - 8404 Warren Parkway</desc></wpt><wpt lat="33.8166258" lon="-98.194682"><name>Henrietta, TX</name><desc>Henrietta, TX</desc></wpt><wpt lat="34.2937246" lon="-99.7423674"><name>Quanah, TX</name><desc>Quanah, TX</desc></wpt><wpt lat="35.2806227" lon="-101.8312825"><name>Amarillo, TX - River Road</name><desc>Amarillo, TX - River Road</desc></wpt><wpt lat="36.4507836" lon="-103.184797"><name>Clayton, NM</name><desc>Clayton, NM</desc></wpt><wpt lat="37.169397" lon="-104.500541"><name>Trinidad, CO</name><desc>Trinidad, CO</desc></wpt><wpt lat="38.5138823" lon="-106.0737176"><name>Poncha Springs, CO</name><desc>Poncha Springs, CO</desc></wpt><wpt lat="39.5466381" lon="-107.3246941"><name>Glenwood Springs, CO</name><desc>Glenwood Springs, CO</desc></wpt><wpt lat="39.1911128" lon="-106.82356"><name>Aspen, CO</name><desc>Aspen, CO</desc></wpt><wpt lat="39.5466381" lon="-107.3246941"><name>Glenwood Springs, CO</name><desc>Glenwood Springs, CO</desc></wpt><wpt lat="39.1911128" lon="-106.82356"><name>Aspen, CO</name><desc>Aspen, CO</desc></wpt><wpt lat="37.169397" lon="-104.500541"><name>Trinidad, CO</name><desc>Trinidad, CO</desc></wpt><wpt lat="35.2806227" lon="-101.8312825"><name>Amarillo, TX - River Road</name><desc>Amarillo, TX - River Road</desc></wpt><wpt lat="34.2937246" lon="-99.7423674"><name>Quanah, TX</name><desc>Quanah, TX</desc></wpt><wpt lat="33.8166258" lon="-98.194682"><name>Henrietta, TX</name><desc>Henrietta, TX</desc></wpt><wpt lat="33.1097617" lon="-96.8125339"><name>Frisco, TX - 8404 Warren Parkway</name><desc>Frisco, TX - 8404 Warren Parkway</desc></wpt></gpx>