<?xml version='1.0' encoding='utf-8'?>
<gpx version="1.1" creator="Road Replay" xmlns="http://www.topografix.com/GPX/1/1"><metadata><name>Apr 2026 — Bellevue → Leavenworth</name></metadata><wpt lat="47.6765382" lon="-122.2070775"><name>Kirkland, WA</name><desc>54.2339 kWh</desc></wpt><wpt lat="47.1948356" lon="-120.9540582"><name>Cle Elum, WA - West Davis Street</name><desc>24.1363 kWh</desc></wpt><wpt lat="47.5957449" lon="-120.6622886"><name>Leavenworth, WA - US-2</name><desc>34.1701 kWh</desc></wpt><wpt lat="47.1948356" lon="-120.9540582"><name>Cle Elum, WA - West Davis Street</name><desc>43.1168 kWh</desc></wpt><wpt lat="47.6167921" lon="-122.1115836"><name>Bellevue, WA - Northeast 8th Street</name><desc>18.4693 kWh</desc></wpt></gpx>