<?xml version='1.0' encoding='utf-8'?>
<gpx version="1.1" creator="Road Replay" xmlns="http://www.topografix.com/GPX/1/1"><metadata><name>Feb 2026 — Bellevue → Olympic Peninsula</name></metadata><wpt lat="47.6167921" lon="-122.1115836"><name>Bellevue, WA - Northeast 8th Street</name><desc>18.795 kWh</desc></wpt><wpt lat="47.2209169" lon="-122.4499901"><name>Tacoma, WA - S 40th Street</name><desc>33.1852 kWh</desc></wpt><wpt lat="46.975371" lon="-123.815722"><name>Aberdeen, WA</name><desc>61.4938 kWh</desc></wpt><wpt lat="47.950222" lon="-124.386165"><name>Forks, WA</name><desc>40.7843 kWh</desc></wpt><wpt lat="47.6167921" lon="-122.1115836"><name>Bellevue, WA - Northeast 8th Street</name><desc>21.6139 kWh</desc></wpt></gpx>