<?xml version='1.0' encoding='utf-8'?>
<gpx version="1.1" creator="Road Replay" xmlns="http://www.topografix.com/GPX/1/1"><metadata><name>Jan 2025 — Bellevue → Leavenworth</name></metadata><wpt lat="47.6167921" lon="-122.1115836"><name>Bellevue, WA - Northeast 8th Street</name><desc>49.247 kWh</desc></wpt><wpt lat="47.5957449" lon="-120.6622886"><name>Leavenworth, WA - US-2</name><desc>56.515 kWh</desc></wpt><wpt lat="47.5969138" lon="-120.661081"><name>Leavenworth, WA</name><desc>64.763 kWh</desc></wpt></gpx>