<?xml version='1.0' encoding='utf-8'?>
<gpx version="1.1" creator="Tesla Travel Map" xmlns="http://www.topografix.com/GPX/1/1"><metadata><name>May 2025 — Seattle → Chehalis</name></metadata><trk><name>May 2025 — Seattle → Chehalis</name><trkseg><trkpt lat="47.4438439" lon="-122.2212097" /><trkpt lat="47.44385" lon="-122.222749" /><trkpt lat="47.443858" lon="-122.22393" /><trkpt lat="47.444502" lon="-122.223917" /><trkpt lat="47.444933" lon="-122.223858" /><trkpt lat="47.445538" lon="-122.223717" /><trkpt lat="47.446582" lon="-122.223665" /><trkpt lat="47.44769" lon="-122.22364" /><trkpt lat="47.45004" lon="-122.223579" /><trkpt lat="47.451007" lon="-122.223559" /><trkpt lat="47.452135" lon="-122.223535" /><trkpt lat="47.45489" lon="-122.223476" /><trkpt lat="47.45615" lon="-122.223474" /><trkpt lat="47.459067" lon="-122.22342" /><trkpt lat="47.45967" lon="-122.22341" /><trkpt lat="47.460744" lon="-122.223348" /><trkpt lat="47.461321" lon="-122.223384" /><trkpt lat="47.462592" lon="-122.223363" /><trkpt lat="47.463127" lon="-122.223361" /><trkpt lat="47.464616" lon="-122.223359" /><trkpt lat="47.465964" lon="-122.223354" /><trkpt lat="47.466235" lon="-122.223351" /><trkpt lat="47.466554" lon="-122.22335" /><trkpt lat="47.468565" lon="-122.223327" /><trkpt lat="47.46931" lon="-122.223322" /><trkpt lat="47.469638" lon="-122.223319" /><trkpt lat="47.469798" lon="-122.22315" /><trkpt lat="47.470175" lon="-122.221497" /><trkpt lat="47.470453" lon="-122.219702" /><trkpt lat="47.470594" lon="-122.218358" /><trkpt lat="47.470502" lon="-122.218136" /><trkpt lat="47.469734" lon="-122.218105" /><trkpt lat="47.469471" lon="-122.218138" /><trkpt lat="47.469173" lon="-122.21861" /><trkpt lat="47.469106" lon="-122.218997" /><trkpt lat="47.469023" lon="-122.219382" /><trkpt lat="47.46866" lon="-122.219828" /><trkpt lat="47.468242" lon="-122.220199" /><trkpt lat="47.467983" lon="-122.220777" /><trkpt lat="47.467887" lon="-122.221533" /><trkpt lat="47.467763" lon="-122.223125" /><trkpt lat="47.467538" lon="-122.225672" /><trkpt lat="47.467402" lon="-122.230094" /><trkpt lat="47.467255" lon="-122.232844" /><trkpt lat="47.46708" lon="-122.23447" /><trkpt lat="47.466818" lon="-122.235924" /><trkpt lat="47.466386" lon="-122.237572" /><trkpt lat="47.464918" lon="-122.24233" /><trkpt lat="47.463985" lon="-122.245352" /><trkpt lat="47.46308" lon="-122.248287" /><trkpt lat="47.462802" lon="-122.249195" /><trkpt lat="47.462652" lon="-122.249654" /><trkpt lat="47.462066" lon="-122.251803" /><trkpt lat="47.461948" lon="-122.252703" /><trkpt lat="47.461975" lon="-122.254763" /><trkpt lat="47.462132" lon="-122.255817" /><trkpt lat="47.462725" lon="-122.258025" /><trkpt lat="47.462847" lon="-122.258408" /><trkpt lat="47.463471" lon="-122.260248" /><trkpt lat="47.463699" lon="-122.26211" /><trkpt lat="47.46381" lon="-122.263609" /><trkpt lat="47.464032" lon="-122.264443" /><trkpt lat="47.46434" lon="-122.265011" /><trkpt lat="47.46484" lon="-122.26551" /><trkpt lat="47.465112" lon="-122.265826" /><trkpt lat="47.465712" lon="-122.266296" /><trkpt lat="47.466641" lon="-122.266895" /><trkpt lat="47.46887" lon="-122.267809" /><trkpt lat="47.471722" lon="-122.268565" /><trkpt lat="47.473382" lon="-122.269077" /><trkpt lat="47.477674" lon="-122.271055" /><trkpt lat="47.478354" lon="-122.271372" /><trkpt lat="47.479146" lon="-122.271586" /><trkpt lat="47.479912" lon="-122.271686" /><trkpt lat="47.48107" lon="-122.271585" /><trkpt lat="47.482238" lon="-122.271163" /><trkpt lat="47.482952" lon="-122.27076" /><trkpt lat="47.484069" lon="-122.269823" /><trkpt lat="47.484407" lon="-122.269424" /><trkpt lat="47.487351" lon="-122.265753" /><trkpt lat="47.488598" lon="-122.264655" /><trkpt lat="47.489427" lon="-122.264367" /><trkpt lat="47.490283" lon="-122.264313" /><trkpt lat="47.491645" lon="-122.264805" /><trkpt lat="47.492689" lon="-122.265792" /><trkpt lat="47.498053" lon="-122.272239" /><trkpt lat="47.499485" lon="-122.273756" /><trkpt lat="47.501815" lon="-122.276119" /><trkpt lat="47.504979" lon="-122.279146" /><trkpt lat="47.50607" lon="-122.280057" /><trkpt lat="47.507667" lon="-122.281301" /><trkpt lat="47.507975" lon="-122.281536" /><trkpt lat="47.515516" lon="-122.287252" /><trkpt lat="47.517306" lon="-122.288384" /><trkpt lat="47.521186" lon="-122.290292" /><trkpt lat="47.52721" lon="-122.292344" /><trkpt lat="47.529282" lon="-122.293189" /><trkpt lat="47.533237" lon="-122.295088" /><trkpt lat="47.534838" lon="-122.295986" /><trkpt lat="47.536784" lon="-122.297633" /><trkpt lat="47.541898" lon="-122.303539" /><trkpt lat="47.545374" lon="-122.307267" /><trkpt lat="47.546435" lon="-122.30852" /><trkpt lat="47.547544" lon="-122.310111" /><trkpt lat="47.548683" lon="-122.311947" /><trkpt lat="47.549007" lon="-122.312476" /><trkpt lat="47.549605" lon="-122.313503" /><trkpt lat="47.550743" lon="-122.315373" /><trkpt lat="47.55117" lon="-122.316006" /><trkpt lat="47.551376" lon="-122.316239" /><trkpt lat="47.552053" lon="-122.3169" /><trkpt lat="47.553278" lon="-122.317637" /><trkpt lat="47.555214" lon="-122.318816" /><trkpt lat="47.55916" lon="-122.321182" /><trkpt lat="47.560063" lon="-122.321416" /><trkpt lat="47.561172" lon="-122.321489" /><trkpt lat="47.562396" lon="-122.32133" /><trkpt lat="47.568931" lon="-122.320168" /><trkpt lat="47.571234" lon="-122.319946" /><trkpt lat="47.571899" lon="-122.319904" /><trkpt lat="47.572357" lon="-122.319874" /><trkpt lat="47.572667" lon="-122.319854" /><trkpt lat="47.57515" lon="-122.319715" /><trkpt lat="47.575294" lon="-122.319707" /><trkpt lat="47.576232" lon="-122.319596" /><trkpt lat="47.576993" lon="-122.319435" /><trkpt lat="47.578802" lon="-122.319029" /><trkpt lat="47.580376" lon="-122.319031" /><trkpt lat="47.584731" lon="-122.319956" /><trkpt lat="47.587995" lon="-122.320133" /><trkpt lat="47.58996" lon="-122.320571" /><trkpt lat="47.591392" lon="-122.320642" /><trkpt lat="47.591848" lon="-122.320597" /><trkpt lat="47.592445" lon="-122.32049" /><trkpt lat="47.592962" lon="-122.32035" /><trkpt lat="47.593352" lon="-122.320224" /><trkpt lat="47.594205" lon="-122.319947" /><trkpt lat="47.594583" lon="-122.319834" /><trkpt lat="47.595037" lon="-122.319753" /><trkpt lat="47.595728" lon="-122.319738" /><trkpt lat="47.596608" lon="-122.319826" /><trkpt lat="47.59728" lon="-122.320042" /><trkpt lat="47.597723" lon="-122.320203" /><trkpt lat="47.598103" lon="-122.320409" /><trkpt lat="47.598529" lon="-122.320673" /><trkpt lat="47.599148" lon="-122.321163" /><trkpt lat="47.599578" lon="-122.321575" /><trkpt lat="47.600167" lon="-122.322222" /><trkpt lat="47.601568" lon="-122.32403" /><trkpt lat="47.602247" lon="-122.324757" /><trkpt lat="47.602616" lon="-122.325148" /><trkpt lat="47.603122" lon="-122.325771" /><trkpt lat="47.603907" lon="-122.326433" /><trkpt lat="47.604199" lon="-122.326635" /><trkpt lat="47.603997" lon="-122.328463" /><trkpt lat="47.60378" lon="-122.328988" /><trkpt lat="47.603599" lon="-122.329423" /><trkpt lat="47.603317" lon="-122.330352" /><trkpt lat="47.603948" lon="-122.330924" /><trkpt lat="47.604175" lon="-122.330377" /><trkpt lat="47.6038321" lon="-122.330062" /><trkpt lat="47.60522" lon="-122.327966" /><trkpt lat="47.607528" lon="-122.329814" /><trkpt lat="47.609404" lon="-122.330975" /><trkpt lat="47.611125" lon="-122.330816" /><trkpt lat="47.614357" lon="-122.329593" /><trkpt lat="47.61886" lon="-122.328261" /><trkpt lat="47.627613" lon="-122.327931" /><trkpt lat="47.629053" lon="-122.32708" /><trkpt lat="47.632032" lon="-122.324243" /><trkpt lat="47.635493" lon="-122.32287" /><trkpt lat="47.64429" lon="-122.322544" /><trkpt lat="47.6602" lon="-122.322034" /><trkpt lat="47.668784" lon="-122.32173" /><trkpt lat="47.675619" lon="-122.320514" /><trkpt lat="47.680619" lon="-122.320574" /><trkpt lat="47.682858" lon="-122.32144" /><trkpt lat="47.68645" lon="-122.325606" /><trkpt lat="47.690312" lon="-122.328912" /><trkpt lat="47.696891" lon="-122.329066" /><trkpt lat="47.70533" lon="-122.329556" /><trkpt lat="47.709459" lon="-122.329703" /><trkpt lat="47.710945" lon="-122.329177" /><trkpt lat="47.712432" lon="-122.32809" /><trkpt lat="47.713765" lon="-122.327027" /><trkpt lat="47.716661" lon="-122.32486" /><trkpt lat="47.731322" lon="-122.324162" /><trkpt lat="47.737795" lon="-122.326724" /><trkpt lat="47.744883" lon="-122.329645" /><trkpt lat="47.752639" lon="-122.330076" /><trkpt lat="47.755605" lon="-122.329581" /><trkpt lat="47.760663" lon="-122.325236" /><trkpt lat="47.764097" lon="-122.323273" /><trkpt lat="47.770755" lon="-122.321139" /><trkpt lat="47.777256" lon="-122.317544" /><trkpt lat="47.778771" lon="-122.316541" /><trkpt lat="47.778147" lon="-122.315792" /><trkpt lat="47.777689" lon="-122.317527" /><trkpt lat="47.777725" lon="-122.324359" /><trkpt lat="47.777617" lon="-122.329336" /><trkpt lat="47.777821" lon="-122.335667" /><trkpt lat="47.778666" lon="-122.340592" /><trkpt lat="47.77954" lon="-122.3465" /><trkpt lat="47.781983" lon="-122.349384" /><trkpt lat="47.783583" lon="-122.352232" /><trkpt lat="47.785361" lon="-122.353409" /><trkpt lat="47.788824" lon="-122.355054" /><trkpt lat="47.791855" lon="-122.358485" /><trkpt lat="47.791777" lon="-122.360418" /><trkpt lat="47.790596" lon="-122.363557" /><trkpt lat="47.790582" lon="-122.366806" /><trkpt lat="47.791446" lon="-122.368718" /><trkpt lat="47.79479" lon="-122.372948" /><trkpt lat="47.795914" lon="-122.375793" /><trkpt lat="47.797314" lon="-122.377038" /><trkpt lat="47.798055" lon="-122.376837" /><trkpt lat="47.799622" lon="-122.377672" /><trkpt lat="47.803494" lon="-122.383337" /><trkpt lat="47.809369" lon="-122.383051" /><trkpt lat="47.810756" lon="-122.382839" /><trkpt lat="47.812522" lon="-122.382675" /><trkpt lat="47.814534" lon="-122.38975" /><trkpt lat="47.79362" lon="-122.492016" /><trkpt lat="47.796092" lon="-122.495851" /><trkpt lat="47.79737" lon="-122.495466" /><trkpt lat="47.799441" lon="-122.498315" /><trkpt lat="47.801028" lon="-122.499486" /><trkpt lat="47.802103" lon="-122.502056" /><trkpt lat="47.803982" lon="-122.50673" /><trkpt lat="47.808506" lon="-122.518047" /><trkpt lat="47.809433" lon="-122.520818" /><trkpt lat="47.809508" lon="-122.526308" /><trkpt lat="47.809513" lon="-122.534758" /><trkpt lat="47.809545" lon="-122.542655" /><trkpt lat="47.809523" lon="-122.555312" /><trkpt lat="47.808771" lon="-122.557462" /><trkpt lat="47.806499" lon="-122.560086" /><trkpt lat="47.805594" lon="-122.563321" /><trkpt lat="47.804608" lon="-122.568101" /><trkpt lat="47.805627" lon="-122.57235" /><trkpt lat="47.810258" lon="-122.578641" /><trkpt lat="47.813798" lon="-122.583827" /><trkpt lat="47.816813" lon="-122.584463" /><trkpt lat="47.820821" lon="-122.584958" /><trkpt lat="47.824684" lon="-122.585452" /><trkpt lat="47.83085" lon="-122.586326" /><trkpt lat="47.835907" lon="-122.586899" /><trkpt lat="47.840917" lon="-122.587301" /><trkpt lat="47.848998" lon="-122.584619" /><trkpt lat="47.853873" lon="-122.584046" /><trkpt lat="47.854234" lon="-122.584464" /><trkpt lat="47.854231" lon="-122.592045" /><trkpt lat="47.854872" lon="-122.597341" /><trkpt lat="47.854818" lon="-122.601094" /><trkpt lat="47.854207" lon="-122.605593" /><trkpt lat="47.851901" lon="-122.609624" /><trkpt lat="47.857347" lon="-122.620007" /><trkpt lat="47.867351" lon="-122.637848" /><trkpt lat="47.867859" lon="-122.639248" /><trkpt lat="47.86832" lon="-122.65014" /><trkpt lat="47.870939" lon="-122.657537" /><trkpt lat="47.87165" lon="-122.663318" /><trkpt lat="47.869801" lon="-122.677849" /><trkpt lat="47.869648" lon="-122.684383" /><trkpt lat="47.873238" lon="-122.693242" /><trkpt lat="47.876291" lon="-122.709367" /><trkpt lat="47.888203" lon="-122.725427" /><trkpt lat="47.889763" lon="-122.731194" /><trkpt lat="47.890274" lon="-122.73239" /><trkpt lat="47.890871" lon="-122.738121" /><trkpt lat="47.894377" lon="-122.75768" /><trkpt lat="47.908844" lon="-122.780911" /><trkpt lat="47.917759" lon="-122.795147" /><trkpt lat="47.922568" lon="-122.812335" /><trkpt lat="47.926672" lon="-122.82338" /><trkpt lat="47.938131" lon="-122.847746" /><trkpt lat="47.941182" lon="-122.855556" /><trkpt lat="47.944081" lon="-122.879426" /><trkpt lat="47.945322" lon="-122.883017" /><trkpt lat="47.947757" lon="-122.884591" /><trkpt lat="47.952696" lon="-122.881952" /><trkpt lat="47.955038" lon="-122.881522" /><trkpt lat="47.960877" lon="-122.8826" /><trkpt lat="47.964476" lon="-122.880884" /><trkpt lat="47.973465" lon="-122.883094" /><trkpt lat="47.977126" lon="-122.883531" /><trkpt lat="47.984501" lon="-122.884856" /><trkpt lat="47.986557" lon="-122.885213" /><trkpt lat="47.988419" lon="-122.888585" /><trkpt lat="47.990082" lon="-122.890252" /><trkpt lat="47.992277" lon="-122.889787" /><trkpt lat="47.99839" lon="-122.883035" /><trkpt lat="48.000408" lon="-122.87974" /><trkpt lat="48.004553" lon="-122.867065" /><trkpt lat="48.007659" lon="-122.864595" /><trkpt lat="48.015987" lon="-122.862171" /><trkpt lat="48.025665" lon="-122.864886" /><trkpt lat="48.034287" lon="-122.870352" /><trkpt lat="48.040698" lon="-122.878703" /><trkpt lat="48.046188" lon="-122.90439" /><trkpt lat="48.050245" lon="-122.925876" /><trkpt lat="48.050253" lon="-122.944569" /><trkpt lat="48.050102" lon="-122.967958" /><trkpt lat="48.045498" lon="-122.979685" /><trkpt lat="48.032805" lon="-122.98922" /><trkpt lat="48.024624" lon="-122.995348" /><trkpt lat="48.020492" lon="-123.004115" /><trkpt lat="48.023208" lon="-123.010653" /><trkpt lat="48.035667" lon="-123.029011" /><trkpt lat="48.041522" lon="-123.030803" /><trkpt lat="48.046701" lon="-123.034946" /><trkpt lat="48.055284" lon="-123.049291" /><trkpt lat="48.065005" lon="-123.061228" /><trkpt lat="48.07072" lon="-123.078278" /><trkpt lat="48.073182" lon="-123.09893" /><trkpt lat="48.076484" lon="-123.102358" /><trkpt lat="48.079632" lon="-123.102342" /><trkpt lat="48.081468" lon="-123.105145" /><trkpt lat="48.083402" lon="-123.113148" /><trkpt lat="48.085163" lon="-123.11111" /><trkpt lat="48.08583" lon="-123.113146" /><trkpt lat="48.082484" lon="-123.11315" /><trkpt lat="48.08098" lon="-123.118582" /><trkpt lat="48.07962" lon="-123.119878" /><trkpt lat="48.079144" lon="-123.123673" /><trkpt lat="48.079053" lon="-123.124394" /><trkpt lat="48.077813" lon="-123.133146" /><trkpt lat="48.077691" lon="-123.134955" /><trkpt lat="48.076832" lon="-123.134917" /><trkpt lat="48.074777" lon="-123.135143" /><trkpt lat="48.076169" lon="-123.150157" /><trkpt lat="48.07818" lon="-123.163793" /><trkpt lat="48.079409" lon="-123.171678" /><trkpt lat="48.082229" lon="-123.189244" /><trkpt lat="48.08518" lon="-123.206864" /><trkpt lat="48.086937" lon="-123.219214" /><trkpt lat="48.089189" lon="-123.234633" /><trkpt lat="48.09083" lon="-123.249387" /><trkpt lat="48.093035" lon="-123.268565" /><trkpt lat="48.094565" lon="-123.282215" /><trkpt lat="48.096277" lon="-123.298343" /><trkpt lat="48.096475" lon="-123.315566" /><trkpt lat="48.099875" lon="-123.335153" /><trkpt lat="48.10415" lon="-123.343088" /><trkpt lat="48.10639" lon="-123.346377" /><trkpt lat="48.106583" lon="-123.347781" /><trkpt lat="48.106256" lon="-123.349263" /><trkpt lat="48.103535" lon="-123.352648" /><trkpt lat="48.103016" lon="-123.353991" /><trkpt lat="48.102986" lon="-123.355566" /><trkpt lat="48.103467" lon="-123.357015" /><trkpt lat="48.104388" lon="-123.357878" /><trkpt lat="48.105436" lon="-123.358" /><trkpt lat="48.108413" lon="-123.357603" /><trkpt lat="48.109302" lon="-123.360676" /><trkpt lat="48.106299" lon="-123.36773" /><trkpt lat="48.104848" lon="-123.377304" /><trkpt lat="48.104523" lon="-123.384324" /><trkpt lat="48.105537" lon="-123.39305" /><trkpt lat="48.106461" lon="-123.399885" /><trkpt lat="48.107416" lon="-123.402664" /><trkpt lat="48.108561" lon="-123.405083" /><trkpt lat="48.11018" lon="-123.409007" /><trkpt lat="48.111513" lon="-123.412281" /><trkpt lat="48.112681" lon="-123.415132" /><trkpt lat="48.113807" lon="-123.417855" /><trkpt lat="48.113055" lon="-123.418933" /><trkpt lat="48.111215" lon="-123.420597" /><trkpt lat="48.108708" lon="-123.422877" /><trkpt lat="48.10673" lon="-123.424679" /><trkpt lat="48.104701" lon="-123.426957" /><trkpt lat="48.106023" lon="-123.43534" /><trkpt lat="48.107073" lon="-123.441994" /><trkpt lat="48.107539" lon="-123.445047" /><trkpt lat="48.107759" lon="-123.452758" /><trkpt lat="48.106604" lon="-123.464452" /><trkpt lat="48.106087" lon="-123.469651" /><trkpt lat="48.105459" lon="-123.476479" /><trkpt lat="48.104304" lon="-123.487868" /><trkpt lat="48.102179" lon="-123.509653" /><trkpt lat="48.100738" lon="-123.524107" /><trkpt lat="48.099153" lon="-123.534529" /><trkpt lat="48.097487" lon="-123.539914" /><trkpt lat="48.088822" lon="-123.55901" /><trkpt lat="48.084927" lon="-123.558535" /><trkpt lat="48.081232" lon="-123.559773" /><trkpt lat="48.075272" lon="-123.566916" /><trkpt lat="48.070896" lon="-123.572794" /><trkpt lat="48.070194" lon="-123.574839" /><trkpt lat="48.06916" lon="-123.575771" /><trkpt lat="48.067267" lon="-123.575603" /><trkpt lat="48.066409" lon="-123.576074" /><trkpt lat="48.065692" lon="-123.579349" /><trkpt lat="48.065677" lon="-123.581684" /><trkpt lat="48.065974" lon="-123.585452" /><trkpt lat="48.065638" lon="-123.588894" /><trkpt lat="48.064604" lon="-123.592294" /><trkpt lat="48.063916" lon="-123.595202" /><trkpt lat="48.063757" lon="-123.598393" /><trkpt lat="48.06432" lon="-123.602177" /><trkpt lat="48.069218" lon="-123.625923" /><trkpt lat="48.073333" lon="-123.66885" /><trkpt lat="48.076209" lon="-123.687481" /><trkpt lat="48.077409" lon="-123.692783" /><trkpt lat="48.078356" lon="-123.699971" /><trkpt lat="48.08005" lon="-123.703144" /><trkpt lat="48.083962" lon="-123.706793" /><trkpt lat="48.087826" lon="-123.725933" /><trkpt lat="48.082743" lon="-123.733471" /><trkpt lat="48.080564" lon="-123.740169" /><trkpt lat="48.079465" lon="-123.747803" /><trkpt lat="48.078963" lon="-123.752601" /><trkpt lat="48.077222" lon="-123.759049" /><trkpt lat="48.076845" lon="-123.765604" /><trkpt lat="48.075521" lon="-123.770299" /><trkpt lat="48.071935" lon="-123.773938" /><trkpt lat="48.067968" lon="-123.775865" /><trkpt lat="48.064592" lon="-123.776875" /><trkpt lat="48.062205" lon="-123.777578" /><trkpt lat="48.059346" lon="-123.782363" /><trkpt lat="48.057874" lon="-123.786451" /><trkpt lat="48.055299" lon="-123.791733" /><trkpt lat="48.054312" lon="-123.796044" /><trkpt lat="48.051127" lon="-123.798545" /><trkpt lat="48.049097" lon="-123.805655" /><trkpt lat="48.049431" lon="-123.812122" /><trkpt lat="48.050667" lon="-123.817979" /><trkpt lat="48.051465" lon="-123.823327" /><trkpt lat="48.052141" lon="-123.829985" /><trkpt lat="48.051931" lon="-123.833894" /><trkpt lat="48.05128" lon="-123.838662" /><trkpt lat="48.051276" lon="-123.841558" /><trkpt lat="48.04936" lon="-123.843479" /><trkpt lat="48.049155" lon="-123.848103" /><trkpt lat="48.049112" lon="-123.853883" /><trkpt lat="48.049582" lon="-123.859384" /><trkpt lat="48.051131" lon="-123.865615" /><trkpt lat="48.052347" lon="-123.870455" /><trkpt lat="48.053717" lon="-123.875167" /><trkpt lat="48.055306" lon="-123.878851" /><trkpt lat="48.056702" lon="-123.88217" /><trkpt lat="48.058505" lon="-123.884114" /><trkpt lat="48.058625" lon="-123.889905" /><trkpt lat="48.059817" lon="-123.894281" /><trkpt lat="48.061043" lon="-123.898473" /><trkpt lat="48.0613" lon="-123.902462" /><trkpt lat="48.063035" lon="-123.908284" /><trkpt lat="48.06736" lon="-123.915465" /><trkpt lat="48.071604" lon="-123.932164" /><trkpt lat="48.073428" lon="-123.951531" /><trkpt lat="48.077217" lon="-123.958408" /><trkpt lat="48.073603" lon="-123.972765" /><trkpt lat="48.071102" lon="-124.020075" /><trkpt lat="48.068191" lon="-124.086153" /><trkpt lat="48.062139" lon="-124.119489" /><trkpt lat="48.061434" lon="-124.161753" /><trkpt lat="48.06374" lon="-124.208489" /><trkpt lat="48.066056" lon="-124.235621" /><trkpt lat="48.070369" lon="-124.272339" /><trkpt lat="48.069601" lon="-124.284409" /><trkpt lat="48.066964" lon="-124.303925" /><trkpt lat="48.061836" lon="-124.309372" /><trkpt lat="48.055193" lon="-124.325714" /><trkpt lat="48.055077" lon="-124.342868" /><trkpt lat="48.055873" lon="-124.352181" /><trkpt lat="48.052725" lon="-124.35836" /><trkpt lat="48.043402" lon="-124.37656" /><trkpt lat="48.03191" lon="-124.387087" /><trkpt lat="48.01997" lon="-124.390396" /><trkpt lat="48.014828" lon="-124.391488" /><trkpt lat="48.009302" lon="-124.389302" /><trkpt lat="47.989095" lon="-124.392419" /><trkpt lat="47.982345" lon="-124.400603" /><trkpt lat="47.971308" lon="-124.40357" /><trkpt lat="47.965262" lon="-124.402208" /><trkpt lat="47.957877" lon="-124.38933" /><trkpt lat="47.955325" lon="-124.386041" /><trkpt lat="47.952235" lon="-124.385393" /><trkpt lat="47.950215" lon="-124.38606" /><trkpt lat="47.948149" lon="-124.385451" /><trkpt lat="47.942132" lon="-124.385536" /><trkpt lat="47.939534" lon="-124.386919" /><trkpt lat="47.932948" lon="-124.406761" /><trkpt lat="47.927398" lon="-124.409096" /><trkpt lat="47.90757" lon="-124.392376" /><trkpt lat="47.903565" lon="-124.387887" /><trkpt lat="47.895049" lon="-124.377802" /><trkpt lat="47.894441" lon="-124.357014" /><trkpt lat="47.890128" lon="-124.356979" /><trkpt lat="47.877108" lon="-124.347804" /><trkpt lat="47.871344" lon="-124.338116" /><trkpt lat="47.868631" lon="-124.337614" /><trkpt lat="47.860888" lon="-124.332271" /><trkpt lat="47.858295" lon="-124.325086" /><trkpt lat="47.855676" lon="-124.32299" /><trkpt lat="47.85495" lon="-124.31984" /><trkpt lat="47.854058" lon="-124.311585" /><trkpt lat="47.851607" lon="-124.302807" /><trkpt lat="47.848485" lon="-124.285076" /><trkpt lat="47.838321" lon="-124.276698" /><trkpt lat="47.832835" lon="-124.270185" /><trkpt lat="47.829582" lon="-124.265071" /><trkpt lat="47.821489" lon="-124.26443" /><trkpt lat="47.809835" lon="-124.258099" /><trkpt lat="47.808967" lon="-124.25486" /><trkpt lat="47.810532" lon="-124.252959" /><trkpt lat="47.81112" lon="-124.250858" /><trkpt lat="47.809884" lon="-124.250114" /><trkpt lat="47.807378" lon="-124.250298" /><trkpt lat="47.801682" lon="-124.251749" /><trkpt lat="47.792786" lon="-124.25173" /><trkpt lat="47.78768" lon="-124.249419" /><trkpt lat="47.781992" lon="-124.253215" /><trkpt lat="47.78063" lon="-124.264473" /><trkpt lat="47.782511" lon="-124.272908" /><trkpt lat="47.780361" lon="-124.278457" /><trkpt lat="47.77327" lon="-124.284665" /><trkpt lat="47.769739" lon="-124.296373" /><trkpt lat="47.76266" lon="-124.312207" /><trkpt lat="47.753418" lon="-124.321686" /><trkpt lat="47.749391" lon="-124.324441" /><trkpt lat="47.747814" lon="-124.331026" /><trkpt lat="47.7452" lon="-124.337919" /><trkpt lat="47.735979" lon="-124.355598" /><trkpt lat="47.735767" lon="-124.363114" /><trkpt lat="47.733665" lon="-124.366829" /><trkpt lat="47.732585" lon="-124.375552" /><trkpt lat="47.728561" lon="-124.381521" /><trkpt lat="47.727471" lon="-124.385984" /><trkpt lat="47.723305" lon="-124.391212" /><trkpt lat="47.721619" lon="-124.399443" /><trkpt lat="47.715168" lon="-124.413588" /><trkpt lat="47.710668" lon="-124.410797" /><trkpt lat="47.708857" lon="-124.413564" /><trkpt lat="47.691371" lon="-124.410233" /><trkpt lat="47.687747" lon="-124.408129" /><trkpt lat="47.685484" lon="-124.405639" /><trkpt lat="47.677427" lon="-124.401222" /><trkpt lat="47.670659" lon="-124.396257" /><trkpt lat="47.657733" lon="-124.387482" /><trkpt lat="47.641308" lon="-124.384823" /><trkpt lat="47.637273" lon="-124.382861" /><trkpt lat="47.631781" lon="-124.37992" /><trkpt lat="47.621" lon="-124.378306" /><trkpt lat="47.608936" lon="-124.37251" /><trkpt lat="47.600587" lon="-124.369511" /><trkpt lat="47.564196" lon="-124.35925" /><trkpt lat="47.55345" lon="-124.356033" /><trkpt lat="47.54488" lon="-124.33886" /><trkpt lat="47.536596" lon="-124.333141" /><trkpt lat="47.527933" lon="-124.33753" /><trkpt lat="47.518186" lon="-124.331277" /><trkpt lat="47.518834" lon="-124.315869" /><trkpt lat="47.536839" lon="-124.287016" /><trkpt lat="47.541689" lon="-124.269821" /><trkpt lat="47.541663" lon="-124.264218" /><trkpt lat="47.536022" lon="-124.233783" /><trkpt lat="47.530836" lon="-124.201807" /><trkpt lat="47.52614" lon="-124.19712" /><trkpt lat="47.523266" lon="-124.186928" /><trkpt lat="47.512923" lon="-124.174761" /><trkpt lat="47.502778" lon="-124.14606" /><trkpt lat="47.496845" lon="-124.123182" /><trkpt lat="47.494203" lon="-124.108685" /><trkpt lat="47.483222" lon="-124.077824" /><trkpt lat="47.475217" lon="-124.049228" /><trkpt lat="47.473758" lon="-124.022215" /><trkpt lat="47.475674" lon="-124.005821" /><trkpt lat="47.480236" lon="-123.978203" /><trkpt lat="47.480265" lon="-123.970044" /><trkpt lat="47.480187" lon="-123.940296" /><trkpt lat="47.479558" lon="-123.931994" /><trkpt lat="47.470421" lon="-123.924755" /><trkpt lat="47.464215" lon="-123.917685" /><trkpt lat="47.458166" lon="-123.906382" /><trkpt lat="47.459183" lon="-123.896638" /><trkpt lat="47.456943" lon="-123.887336" /><trkpt lat="47.454869" lon="-123.879114" /><trkpt lat="47.441635" lon="-123.877682" /><trkpt lat="47.421333" lon="-123.876286" /><trkpt lat="47.41475" lon="-123.880495" /><trkpt lat="47.405294" lon="-123.88686" /><trkpt lat="47.395445" lon="-123.891078" /><trkpt lat="47.379596" lon="-123.897353" /><trkpt lat="47.375634" lon="-123.899711" /><trkpt lat="47.355348" lon="-123.910918" /><trkpt lat="47.348624" lon="-123.909444" /><trkpt lat="47.342671" lon="-123.907218" /><trkpt lat="47.33002" lon="-123.906709" /><trkpt lat="47.300368" lon="-123.908347" /><trkpt lat="47.285698" lon="-123.91123" /><trkpt lat="47.262383" lon="-123.920862" /><trkpt lat="47.248692" lon="-123.929277" /><trkpt lat="47.242959" lon="-123.932099" /><trkpt lat="47.234069" lon="-123.954024" /><trkpt lat="47.226605" lon="-123.96555" /><trkpt lat="47.220069" lon="-123.969329" /><trkpt lat="47.199886" lon="-123.955134" /><trkpt lat="47.191506" lon="-123.935803" /><trkpt lat="47.178873" lon="-123.898431" /><trkpt lat="47.169744" lon="-123.884911" /><trkpt lat="47.163609" lon="-123.87943" /><trkpt lat="47.156412" lon="-123.882707" /><trkpt lat="47.142314" lon="-123.890302" /><trkpt lat="47.133898" lon="-123.897733" /><trkpt lat="47.123495" lon="-123.894059" /><trkpt lat="47.114062" lon="-123.896121" /><trkpt lat="47.105948" lon="-123.904701" /><trkpt lat="47.099589" lon="-123.906077" /><trkpt lat="47.084767" lon="-123.907208" /><trkpt lat="47.074984" lon="-123.920557" /><trkpt lat="47.069133" lon="-123.929688" /><trkpt lat="47.060258" lon="-123.92885" /><trkpt lat="47.05674" lon="-123.926911" /><trkpt lat="47.046811" lon="-123.924791" /><trkpt lat="47.036545" lon="-123.921559" /><trkpt lat="47.031147" lon="-123.922127" /><trkpt lat="47.021869" lon="-123.916805" /><trkpt lat="47.010679" lon="-123.911266" /><trkpt lat="47.005288" lon="-123.906592" /><trkpt lat="46.998695" lon="-123.903494" /><trkpt lat="46.994883" lon="-123.895784" /><trkpt lat="46.992771" lon="-123.889097" /><trkpt lat="46.990936" lon="-123.885727" /><trkpt lat="46.985457" lon="-123.885714" /><trkpt lat="46.981868" lon="-123.885676" /><trkpt lat="46.978715" lon="-123.886297" /><trkpt lat="46.976552" lon="-123.883011" /><trkpt lat="46.975401" lon="-123.878212" /><trkpt lat="46.975238" lon="-123.866823" /><trkpt lat="46.97518" lon="-123.856186" /><trkpt lat="46.975111" lon="-123.84739" /><trkpt lat="46.975104" lon="-123.840832" /><trkpt lat="46.975096" lon="-123.833367" /><trkpt lat="46.974196" lon="-123.830642" /><trkpt lat="46.972921" lon="-123.825488" /><trkpt lat="46.976337" lon="-123.818777" /><trkpt lat="46.975363" lon="-123.815713" /><trkpt lat="46.975818" lon="-123.812459" /><trkpt lat="46.97704" lon="-123.80803" /><trkpt lat="46.977346" lon="-123.802661" /><trkpt lat="46.981544" lon="-123.779032" /><trkpt lat="46.979432" lon="-123.763212" /><trkpt lat="46.976422" lon="-123.749989" /><trkpt lat="46.970907" lon="-123.737342" /><trkpt lat="46.971753" lon="-123.71753" /><trkpt lat="46.973262" lon="-123.697328" /><trkpt lat="46.975126" lon="-123.671849" /><trkpt lat="46.976511" lon="-123.646239" /><trkpt lat="46.975456" lon="-123.621683" /><trkpt lat="46.97345" lon="-123.608062" /><trkpt lat="46.978147" lon="-123.594068" /><trkpt lat="46.982048" lon="-123.570984" /><trkpt lat="46.985687" lon="-123.546289" /><trkpt lat="46.99352" lon="-123.513691" /><trkpt lat="46.999017" lon="-123.496378" /><trkpt lat="46.999423" lon="-123.482475" /><trkpt lat="46.998776" lon="-123.46436" /><trkpt lat="46.997591" lon="-123.45041" /><trkpt lat="46.995525" lon="-123.439058" /><trkpt lat="46.995569" lon="-123.426033" /><trkpt lat="46.999011" lon="-123.413037" /><trkpt lat="47.001593" lon="-123.399445" /><trkpt lat="47.010493" lon="-123.371367" /><trkpt lat="47.022395" lon="-123.346946" /><trkpt lat="47.039168" lon="-123.327828" /><trkpt lat="47.051392" lon="-123.297014" /><trkpt lat="47.054436" lon="-123.27845" /><trkpt lat="47.045802" lon="-123.264563" /><trkpt lat="47.044508" lon="-123.254912" /><trkpt lat="47.049624" lon="-123.23611" /><trkpt lat="47.050053" lon="-123.225792" /><trkpt lat="47.052645" lon="-123.211454" /><trkpt lat="47.058398" lon="-123.190736" /><trkpt lat="47.058204" lon="-123.172762" /><trkpt lat="47.055065" lon="-123.154338" /><trkpt lat="47.045345" lon="-123.140361" /><trkpt lat="47.035921" lon="-123.12176" /><trkpt lat="47.032706" lon="-123.114121" /><trkpt lat="47.033148" lon="-123.099783" /><trkpt lat="47.040137" lon="-123.07746" /><trkpt lat="47.040591" lon="-123.060131" /><trkpt lat="47.044222" lon="-123.053248" /><trkpt lat="47.049067" lon="-123.042546" /><trkpt lat="47.056834" lon="-123.025081" /><trkpt lat="47.058317" lon="-123.018737" /><trkpt lat="47.055661" lon="-123.008461" /><trkpt lat="47.04903" lon="-122.997794" /><trkpt lat="47.042823" lon="-122.986973" /><trkpt lat="47.042597" lon="-122.971389" /><trkpt lat="47.037545" lon="-122.952206" /><trkpt lat="47.029551" lon="-122.935214" /><trkpt lat="47.025668" lon="-122.925161" /><trkpt lat="47.024674" lon="-122.911984" /><trkpt lat="47.021179" lon="-122.908557" /><trkpt lat="47.022007" lon="-122.905326" /><trkpt lat="47.024461" lon="-122.900296" /><trkpt lat="47.032575" lon="-122.891714" /><trkpt lat="47.035706" lon="-122.881729" /><trkpt lat="47.040188" lon="-122.868929" /><trkpt lat="47.044202" lon="-122.844325" /><trkpt lat="47.047764" lon="-122.820156" /><trkpt lat="47.056822" lon="-122.805462" /><trkpt lat="47.067934" lon="-122.724742" /><trkpt lat="47.072" lon="-122.70318" /><trkpt lat="47.082745" lon="-122.66905" /><trkpt lat="47.08888" lon="-122.639866" /><trkpt lat="47.095205" lon="-122.616447" /><trkpt lat="47.103046" lon="-122.592227" /><trkpt lat="47.105174" lon="-122.584831" /><trkpt lat="47.110995" lon="-122.569878" /><trkpt lat="47.130326" lon="-122.537039" /><trkpt lat="47.145198" lon="-122.507871" /><trkpt lat="47.164142" lon="-122.478594" /><trkpt lat="47.186299" lon="-122.46335" /><trkpt lat="47.202849" lon="-122.461173" /><trkpt lat="47.214043" lon="-122.462478" /><trkpt lat="47.227316" lon="-122.462749" /><trkpt lat="47.230653" lon="-122.456138" /><trkpt lat="47.231628" lon="-122.44021" /><trkpt lat="47.233815" lon="-122.42867" /><trkpt lat="47.238758" lon="-122.413173" /><trkpt lat="47.239732" lon="-122.402098" /><trkpt lat="47.241453" lon="-122.390749" /><trkpt lat="47.240744" lon="-122.356884" /><trkpt lat="47.24285" lon="-122.336397" /><trkpt lat="47.255986" lon="-122.330725" /><trkpt lat="47.274414" lon="-122.313425" /><trkpt lat="47.288418" lon="-122.306784" /><trkpt lat="47.317431" lon="-122.296325" /><trkpt lat="47.345148" lon="-122.292678" /><trkpt lat="47.358108" lon="-122.296214" /><trkpt lat="47.384229" lon="-122.29003" /><trkpt lat="47.399021" lon="-122.291825" /><trkpt lat="47.418267" lon="-122.28863" /><trkpt lat="47.428607" lon="-122.274909" /><trkpt lat="47.442667" lon="-122.267904" /><trkpt lat="47.458043" lon="-122.263385" /><trkpt lat="47.464405" lon="-122.265299" /><trkpt lat="47.471722" lon="-122.268565" /><trkpt lat="47.480838" lon="-122.271635" /><trkpt lat="47.48824" lon="-122.264873" /><trkpt lat="47.499218" lon="-122.273477" /><trkpt lat="47.510099" lon="-122.283127" /><trkpt lat="47.533237" lon="-122.295088" /><trkpt lat="47.547544" lon="-122.310111" /><trkpt lat="47.551297" lon="-122.31615" /><trkpt lat="47.560557" lon="-122.321469" /><trkpt lat="47.572487" lon="-122.319866" /><trkpt lat="47.578805" lon="-122.319028" /><trkpt lat="47.591978" lon="-122.320967" /><trkpt lat="47.596397" lon="-122.320236" /><trkpt lat="47.599507" lon="-122.321779" /><trkpt lat="47.603817" lon="-122.326916" /><trkpt lat="47.608749" lon="-122.330812" /><trkpt lat="47.612353" lon="-122.330351" /><trkpt lat="47.616559" lon="-122.328771" /><trkpt lat="47.627232" lon="-122.328045" /><trkpt lat="47.630036" lon="-122.326115" /><trkpt lat="47.634229" lon="-122.323267" /><trkpt lat="47.642924" lon="-122.322547" /><trkpt lat="47.663181" lon="-122.321821" /><trkpt lat="47.673823" lon="-122.320917" /><trkpt lat="47.680851" lon="-122.320605" /><trkpt lat="47.684242" lon="-122.322741" /><trkpt lat="47.689648" lon="-122.328665" /><trkpt lat="47.700815" lon="-122.329288" /><trkpt lat="47.708877" lon="-122.329809" /><trkpt lat="47.71084" lon="-122.329234" /><trkpt lat="47.712809" lon="-122.327789" /><trkpt lat="47.714548" lon="-122.32638" /><trkpt lat="47.731322" lon="-122.324162" /><trkpt lat="47.741986" lon="-122.329306" /><trkpt lat="47.751498" lon="-122.329811" /><trkpt lat="47.756126" lon="-122.329308" /><trkpt lat="47.762232" lon="-122.324121" /><trkpt lat="47.770143" lon="-122.321551" /><trkpt lat="47.783681" lon="-122.316325" /><trkpt lat="47.792299" lon="-122.31607" /><trkpt lat="47.801367" lon="-122.313439" /><trkpt lat="47.810805" lon="-122.297781" /><trkpt lat="47.82436" lon="-122.272276" /><trkpt lat="47.833047" lon="-122.261548" /><trkpt lat="47.857864" lon="-122.251382" /><trkpt lat="47.875352" lon="-122.241651" /><trkpt lat="47.891576" lon="-122.220531" /><trkpt lat="47.908095" lon="-122.210643" /><trkpt lat="47.926563" lon="-122.202602" /><trkpt lat="47.939755" lon="-122.196785" /><trkpt lat="47.961284" lon="-122.199026" /><trkpt lat="47.964375" lon="-122.199939" /><trkpt lat="47.963443" lon="-122.206646" /><trkpt lat="47.963295" lon="-122.210486" /><trkpt lat="47.9671" lon="-122.210987" /><trkpt lat="47.971128" lon="-122.211159" /><trkpt lat="47.977322" lon="-122.211369" /><trkpt lat="47.979341" lon="-122.212701" /><trkpt lat="47.979331" lon="-122.211777" /><trkpt lat="47.979328" lon="-122.211484" /><trkpt lat="47.979648" lon="-122.211473" /><trkpt lat="47.980007" lon="-122.21142" /><trkpt lat="47.980036" lon="-122.211419" /><trkpt lat="47.980576" lon="-122.211443" /><trkpt lat="47.980766" lon="-122.211435" /><trkpt lat="47.981061" lon="-122.211392" /><trkpt lat="47.98129" lon="-122.211382" /><trkpt lat="47.981452" lon="-122.211375" /><trkpt lat="47.981774" lon="-122.211408" /><trkpt lat="47.982002" lon="-122.211408" /><trkpt lat="47.981995" lon="-122.210776" /><trkpt lat="47.981987" lon="-122.210091" /><trkpt lat="47.981979" lon="-122.209273" /><trkpt lat="47.981969" lon="-122.208406" /><trkpt lat="47.981958" lon="-122.207319" /><trkpt lat="47.981948" lon="-122.206455" /><trkpt lat="47.981941" lon="-122.20575" /><trkpt lat="47.98193" lon="-122.204759" /><trkpt lat="47.981924" lon="-122.204233" /><trkpt lat="47.98192" lon="-122.203796" /><trkpt lat="47.98191" lon="-122.202935" /><trkpt lat="47.981906" lon="-122.202614" /><trkpt lat="47.981897" lon="-122.202041" /><trkpt lat="47.981883" lon="-122.201306" /><trkpt lat="47.981879" lon="-122.200922" /><trkpt lat="47.98186" lon="-122.199389" /><trkpt lat="47.981851" lon="-122.198641" /><trkpt lat="47.981821" lon="-122.196039" /><trkpt lat="47.981799" lon="-122.1942" /><trkpt lat="47.981795" lon="-122.193911" /><trkpt lat="47.981788" lon="-122.193291" /><trkpt lat="47.981772" lon="-122.19191" /><trkpt lat="47.98176" lon="-122.190939" /><trkpt lat="47.98175" lon="-122.190228" /><trkpt lat="47.981752" lon="-122.189674" /><trkpt lat="47.98175" lon="-122.189255" /><trkpt lat="47.981747" lon="-122.188563" /><trkpt lat="47.981732" lon="-122.187559" /><trkpt lat="47.981715" lon="-122.185673" /><trkpt lat="47.981969" lon="-122.185381" /><trkpt lat="47.982235" lon="-122.185255" /><trkpt lat="47.982723" lon="-122.184785" /><trkpt lat="47.983534" lon="-122.184034" /><trkpt lat="47.984039" lon="-122.183675" /><trkpt lat="47.984482" lon="-122.18343" /><trkpt lat="47.985061" lon="-122.183305" /><trkpt lat="47.985539" lon="-122.183128" /><trkpt lat="47.986096" lon="-122.183025" /><trkpt lat="47.986826" lon="-122.18299" /><trkpt lat="47.987547" lon="-122.182961" /><trkpt lat="47.989845" lon="-122.182821" /><trkpt lat="47.990191" lon="-122.182704" /><trkpt lat="47.990995" lon="-122.182229" /><trkpt lat="47.991679" lon="-122.181532" /><trkpt lat="47.995818" lon="-122.176155" /><trkpt lat="47.997257" lon="-122.174739" /><trkpt lat="47.998183" lon="-122.174192" /><trkpt lat="48.000013" lon="-122.173826" /><trkpt lat="48.007425" lon="-122.174166" /><trkpt lat="48.019684" lon="-122.174851" /><trkpt lat="48.024202" lon="-122.175701" /><trkpt lat="48.034987" lon="-122.177848" /><trkpt lat="48.037772" lon="-122.178423" /><trkpt lat="48.038385" lon="-122.178544" /><trkpt lat="48.039549" lon="-122.178812" /><trkpt lat="48.040817" lon="-122.179253" /><trkpt lat="48.041425" lon="-122.17952" /><trkpt lat="48.042303" lon="-122.179984" /><trkpt lat="48.044163" lon="-122.180994" /><trkpt lat="48.048835" lon="-122.1837" /><trkpt lat="48.051175" lon="-122.184387" /><trkpt lat="48.052133" lon="-122.184419" /><trkpt lat="48.056316" lon="-122.184432" /><trkpt lat="48.06414" lon="-122.184713" /><trkpt lat="48.065752" lon="-122.184746" /><trkpt lat="48.070432" lon="-122.184644" /><trkpt lat="48.075819" lon="-122.184618" /><trkpt lat="48.079418" lon="-122.184601" /><trkpt lat="48.095873" lon="-122.184733" /><trkpt lat="48.100276" lon="-122.184761" /><trkpt lat="48.101822" lon="-122.184761" /><trkpt lat="48.113412" lon="-122.184764" /><trkpt lat="48.118619" lon="-122.18493" /><trkpt lat="48.12514" lon="-122.185234" /><trkpt lat="48.132938" lon="-122.185674" /><trkpt lat="48.137678" lon="-122.186118" /><trkpt lat="48.13874" lon="-122.186249" /><trkpt lat="48.146764" lon="-122.187684" /><trkpt lat="48.152476" lon="-122.188687" /><trkpt lat="48.15614" lon="-122.18933" /><trkpt lat="48.170314" lon="-122.191813" /><trkpt lat="48.175139" lon="-122.192678" /><trkpt lat="48.176582" lon="-122.193194" /><trkpt lat="48.177413" lon="-122.193579" /><trkpt lat="48.179643" lon="-122.195321" /><trkpt lat="48.185926" lon="-122.20076" /><trkpt lat="48.187319" lon="-122.201443" /><trkpt lat="48.187938" lon="-122.200127" /><trkpt lat="48.187945" lon="-122.199937" /><trkpt lat="48.187967" lon="-122.199353" /><trkpt lat="48.187993" lon="-122.198655" /><trkpt lat="48.188007" lon="-122.198283" /><trkpt lat="48.188046" lon="-122.197257" /><trkpt lat="48.188078" lon="-122.19641" /><trkpt lat="48.188119" lon="-122.195278" /><trkpt lat="48.188245" lon="-122.192088" /><trkpt lat="48.188386" lon="-122.188452" /><trkpt lat="48.188557" lon="-122.184005" /><trkpt lat="48.188651" lon="-122.178709" /><trkpt lat="48.188653" lon="-122.173045" /><trkpt lat="48.188646" lon="-122.170792" /><trkpt lat="48.188614" lon="-122.169528" /><trkpt lat="48.188575" lon="-122.164923" /><trkpt lat="48.18851" lon="-122.155257" /><trkpt lat="48.188421" lon="-122.151594" /><trkpt lat="48.188384" lon="-122.150896" /><trkpt lat="48.18836" lon="-122.150793" /><trkpt lat="48.188321" lon="-122.15071" /><trkpt lat="48.188329" lon="-122.150645" /><trkpt lat="48.188359" lon="-122.150258" /><trkpt lat="48.188367" lon="-122.149909" /><trkpt lat="48.188266" lon="-122.146695" /><trkpt lat="48.188297" lon="-122.145681" /><trkpt lat="48.18833" lon="-122.145324" /><trkpt lat="48.1884" lon="-122.144796" /><trkpt lat="48.188403" lon="-122.144675" /><trkpt lat="48.1885" lon="-122.14401" /><trkpt lat="48.188451" lon="-122.14381" /><trkpt lat="48.188456" lon="-122.143726" /><trkpt lat="48.188517" lon="-122.143645" /><trkpt lat="48.188556" lon="-122.143624" /><trkpt lat="48.188744" lon="-122.143314" /><trkpt lat="48.188923" lon="-122.142824" /><trkpt lat="48.189071" lon="-122.14246" /><trkpt lat="48.189364" lon="-122.141858" /><trkpt lat="48.189491" lon="-122.141632" /><trkpt lat="48.189867" lon="-122.141052" /><trkpt lat="48.190925" lon="-122.139947" /><trkpt lat="48.191366" lon="-122.139637" /><trkpt lat="48.192111" lon="-122.139292" /><trkpt lat="48.192533" lon="-122.139177" /><trkpt lat="48.194857" lon="-122.138843" /><trkpt lat="48.19565" lon="-122.138493" /><trkpt lat="48.196091" lon="-122.138187" /><trkpt lat="48.196777" lon="-122.137537" /><trkpt lat="48.197218" lon="-122.136984" /><trkpt lat="48.197848" lon="-122.135908" /><trkpt lat="48.198381" lon="-122.134484" /><trkpt lat="48.198577" lon="-122.133678" /><trkpt lat="48.198747" lon="-122.132234" /><trkpt lat="48.198777" lon="-122.131189" /><trkpt lat="48.198613" lon="-122.129458" /><trkpt lat="48.196115" lon="-122.128918" /><trkpt lat="48.194036" lon="-122.128863" /><trkpt lat="48.192739" lon="-122.1288" /><trkpt lat="48.191498" lon="-122.12868" /><trkpt lat="48.189693" lon="-122.128519" /><trkpt lat="48.193226" lon="-122.128843" /><trkpt lat="48.198595" lon="-122.129454" /><trkpt lat="48.198774" lon="-122.131532" /><trkpt lat="48.198381" lon="-122.134484" /><trkpt lat="48.197218" lon="-122.136984" /><trkpt lat="48.19586" lon="-122.138358" /><trkpt lat="48.194272" lon="-122.138967" /><trkpt lat="48.191593" lon="-122.139507" /><trkpt lat="48.189867" lon="-122.141052" /><trkpt lat="48.189265" lon="-122.142045" /><trkpt lat="48.188853" lon="-122.143056" /><trkpt lat="48.188652" lon="-122.143771" /><trkpt lat="48.188453" lon="-122.144621" /><trkpt lat="48.18833" lon="-122.145324" /><trkpt lat="48.18827" lon="-122.147395" /><trkpt lat="48.188411" lon="-122.150546" /><trkpt lat="48.188478" lon="-122.150688" /><trkpt lat="48.188428" lon="-122.151084" /><trkpt lat="48.18856" lon="-122.157177" /><trkpt lat="48.188646" lon="-122.170792" /><trkpt lat="48.188651" lon="-122.178709" /><trkpt lat="48.188386" lon="-122.188452" /><trkpt lat="48.188102" lon="-122.19577" /><trkpt lat="48.188026" lon="-122.197778" /><trkpt lat="48.187967" lon="-122.199353" /><trkpt lat="48.187888" lon="-122.201455" /><trkpt lat="48.187616" lon="-122.204244" /><trkpt lat="48.1819" lon="-122.197782" /><trkpt lat="48.176291" lon="-122.193405" /><trkpt lat="48.16752" lon="-122.191706" /><trkpt lat="48.152867" lon="-122.189062" /><trkpt lat="48.146361" lon="-122.187954" /><trkpt lat="48.136428" lon="-122.186321" /><trkpt lat="48.119298" lon="-122.185265" /><trkpt lat="48.100177" lon="-122.185065" /><trkpt lat="48.079512" lon="-122.184965" /><trkpt lat="48.071093" lon="-122.184999" /><trkpt lat="48.052294" lon="-122.184766" /><trkpt lat="48.049232" lon="-122.184291" /><trkpt lat="48.042498" lon="-122.180404" /><trkpt lat="48.039969" lon="-122.179176" /><trkpt lat="48.037774" lon="-122.178647" /><trkpt lat="48.024192" lon="-122.175936" /><trkpt lat="48.007419" lon="-122.174439" /><trkpt lat="47.996865" lon="-122.1753" /><trkpt lat="47.991305" lon="-122.182231" /><trkpt lat="47.989579" lon="-122.183117" /><trkpt lat="47.986835" lon="-122.183272" /><trkpt lat="47.98446" lon="-122.183915" /><trkpt lat="47.983337" lon="-122.184936" /><trkpt lat="47.981283" lon="-122.187522" /><trkpt lat="47.97857" lon="-122.190066" /><trkpt lat="47.976619" lon="-122.190723" /><trkpt lat="47.974711" lon="-122.191158" /><trkpt lat="47.972643" lon="-122.192343" /><trkpt lat="47.970878" lon="-122.194264" /><trkpt lat="47.968285" lon="-122.198044" /><trkpt lat="47.96618" lon="-122.199212" /><trkpt lat="47.964335" lon="-122.199377" /><trkpt lat="47.961624" lon="-122.199568" /><trkpt lat="47.958749" lon="-122.200048" /><trkpt lat="47.954089" lon="-122.200025" /><trkpt lat="47.950997" lon="-122.199699" /><trkpt lat="47.943185" lon="-122.197406" /><trkpt lat="47.939468" lon="-122.1977" /><trkpt lat="47.934453" lon="-122.196672" /><trkpt lat="47.930737" lon="-122.197289" /><trkpt lat="47.929668" lon="-122.198378" /><trkpt lat="47.926993" lon="-122.202699" /><trkpt lat="47.925172" lon="-122.204093" /><trkpt lat="47.918224" lon="-122.207072" /><trkpt lat="47.915935" lon="-122.208087" /><trkpt lat="47.907404" lon="-122.211742" /><trkpt lat="47.9002" lon="-122.214886" /><trkpt lat="47.896608" lon="-122.216519" /><trkpt lat="47.89499" lon="-122.217631" /><trkpt lat="47.891285" lon="-122.222133" /><trkpt lat="47.881856" lon="-122.23408" /><trkpt lat="47.875796" lon="-122.241836" /><trkpt lat="47.87373" lon="-122.243697" /><trkpt lat="47.866275" lon="-122.245799" /><trkpt lat="47.853574" lon="-122.255713" /><trkpt lat="47.85309" lon="-122.256128" /><trkpt lat="47.851634" lon="-122.25717" /><trkpt lat="47.849898" lon="-122.257779" /><trkpt lat="47.843985" lon="-122.259298" /><trkpt lat="47.834663" lon="-122.262011" /><trkpt lat="47.833302" lon="-122.262504" /><trkpt lat="47.832743" lon="-122.262585" /><trkpt lat="47.832047" lon="-122.262355" /><trkpt lat="47.831403" lon="-122.262036" /><trkpt lat="47.830724" lon="-122.261675" /><trkpt lat="47.830008" lon="-122.260669" /><trkpt lat="47.829329" lon="-122.258952" /><trkpt lat="47.828055" lon="-122.256747" /><trkpt lat="47.824956" lon="-122.253558" /><trkpt lat="47.823575" lon="-122.251405" /><trkpt lat="47.821311" lon="-122.245007" /><trkpt lat="47.820587" lon="-122.24344" /><trkpt lat="47.819231" lon="-122.241381" /><trkpt lat="47.817212" lon="-122.238507" /><trkpt lat="47.81411" lon="-122.233462" /><trkpt lat="47.812198" lon="-122.231242" /><trkpt lat="47.809646" lon="-122.229796" /><trkpt lat="47.805811" lon="-122.227922" /><trkpt lat="47.800933" lon="-122.224873" /><trkpt lat="47.799617" lon="-122.223493" /><trkpt lat="47.797891" lon="-122.220508" /><trkpt lat="47.795733" lon="-122.216263" /><trkpt lat="47.793766" lon="-122.212394" /><trkpt lat="47.791115" lon="-122.207178" /><trkpt lat="47.787463" lon="-122.200138" /><trkpt lat="47.785125" lon="-122.197239" /><trkpt lat="47.783699" lon="-122.196048" /><trkpt lat="47.776543" lon="-122.19153" /><trkpt lat="47.770987" lon="-122.190142" /><trkpt lat="47.76808" lon="-122.189456" /><trkpt lat="47.766436" lon="-122.188397" /><trkpt lat="47.762711" lon="-122.185631" /><trkpt lat="47.760291" lon="-122.184288" /><trkpt lat="47.758068" lon="-122.184408" /><trkpt lat="47.755337" lon="-122.18582" /><trkpt lat="47.75386" lon="-122.186438" /><trkpt lat="47.750656" lon="-122.187197" /><trkpt lat="47.743218" lon="-122.187282" /><trkpt lat="47.741225" lon="-122.187304" /><trkpt lat="47.738796" lon="-122.187533" /><trkpt lat="47.735667" lon="-122.18802" /><trkpt lat="47.728115" lon="-122.189511" /><trkpt lat="47.725545" lon="-122.190095" /><trkpt lat="47.722378" lon="-122.18975" /><trkpt lat="47.719695" lon="-122.188407" /><trkpt lat="47.717932" lon="-122.18744" /><trkpt lat="47.714069" lon="-122.185251" /><trkpt lat="47.710794" lon="-122.183295" /><trkpt lat="47.709153" lon="-122.182302" /><trkpt lat="47.705605" lon="-122.180306" /><trkpt lat="47.702751" lon="-122.179715" /><trkpt lat="47.699793" lon="-122.18006" /><trkpt lat="47.694861" lon="-122.180793" /><trkpt lat="47.689481" lon="-122.181874" /><trkpt lat="47.682182" lon="-122.184436" /><trkpt lat="47.680805" lon="-122.185225" /><trkpt lat="47.680002" lon="-122.185442" /><trkpt lat="47.679374" lon="-122.185457" /><trkpt lat="47.679252" lon="-122.186636" /><trkpt lat="47.679298" lon="-122.18782" /><trkpt lat="47.679338" lon="-122.189795" /><trkpt lat="47.679472" lon="-122.194746" /><trkpt lat="47.679337" lon="-122.197036" /><trkpt lat="47.678906" lon="-122.198635" /><trkpt lat="47.678582" lon="-122.199673" /><trkpt lat="47.678281" lon="-122.200657" /><trkpt lat="47.677496" lon="-122.203259" /><trkpt lat="47.677324" lon="-122.203863" /><trkpt lat="47.677124" lon="-122.20478" /><trkpt lat="47.676957" lon="-122.205545" /><trkpt lat="47.676839" lon="-122.206082" /><trkpt lat="47.676563" lon="-122.207118" /><trkpt lat="47.676772" lon="-122.206215" /><trkpt lat="47.676875" lon="-122.20592" /><trkpt lat="47.677118" lon="-122.204805" /><trkpt lat="47.677216" lon="-122.204147" /><trkpt lat="47.677398" lon="-122.203526" /><trkpt lat="47.677804" lon="-122.201871" /><trkpt lat="47.678241" lon="-122.200466" /><trkpt lat="47.678789" lon="-122.198695" /><trkpt lat="47.679129" lon="-122.197439" /><trkpt lat="47.679367" lon="-122.195766" /><trkpt lat="47.679448" lon="-122.191892" /><trkpt lat="47.679293" lon="-122.188613" /><trkpt lat="47.679146" lon="-122.187426" /><trkpt lat="47.679123" lon="-122.186135" /><trkpt lat="47.679165" lon="-122.185595" /><trkpt lat="47.679065" lon="-122.185182" /><trkpt lat="47.679123" lon="-122.18412" /><trkpt lat="47.679049" lon="-122.183701" /><trkpt lat="47.679266" lon="-122.183593" /><trkpt lat="47.679708" lon="-122.183507" /><trkpt lat="47.680876" lon="-122.183536" /><trkpt lat="47.682766" lon="-122.183488" /><trkpt lat="47.689976" lon="-122.181374" /><trkpt lat="47.698427" lon="-122.179838" /><trkpt lat="47.702413" lon="-122.179178" /><trkpt lat="47.704175" lon="-122.179334" /><trkpt lat="47.705318" lon="-122.179676" /><trkpt lat="47.706156" lon="-122.180064" /><trkpt lat="47.710272" lon="-122.182413" /><trkpt lat="47.713495" lon="-122.184217" /><trkpt lat="47.718686" lon="-122.187287" /><trkpt lat="47.719598" lon="-122.187762" /><trkpt lat="47.721239" lon="-122.188439" /><trkpt lat="47.724802" lon="-122.189127" /><trkpt lat="47.728412" lon="-122.188796" /><trkpt lat="47.733054" lon="-122.188009" /><trkpt lat="47.741537" lon="-122.186887" /><trkpt lat="47.743071" lon="-122.186883" /><trkpt lat="47.748698" lon="-122.186938" /><trkpt lat="47.750731" lon="-122.186832" /><trkpt lat="47.752594" lon="-122.186481" /><trkpt lat="47.755182" lon="-122.185623" /><trkpt lat="47.757486" lon="-122.184418" /><trkpt lat="47.759759" lon="-122.183871" /><trkpt lat="47.76138" lon="-122.184399" /><trkpt lat="47.766651" lon="-122.18824" /><trkpt lat="47.768868" lon="-122.189417" /><trkpt lat="47.773403" lon="-122.190333" /><trkpt lat="47.776159" lon="-122.191041" /><trkpt lat="47.783428" lon="-122.19454" /><trkpt lat="47.785027" lon="-122.195616" /><trkpt lat="47.786609" lon="-122.197643" /><trkpt lat="47.790399" lon="-122.205128" /><trkpt lat="47.792603" lon="-122.209534" /><trkpt lat="47.796036" lon="-122.216291" /><trkpt lat="47.798698" lon="-122.221489" /><trkpt lat="47.799979" lon="-122.223205" /><trkpt lat="47.801727" lon="-122.224687" /><trkpt lat="47.812158" lon="-122.230136" /><trkpt lat="47.813776" lon="-122.231261" /><trkpt lat="47.815004" lon="-122.232958" /><trkpt lat="47.816648" lon="-122.23685" /><trkpt lat="47.818064" lon="-122.239291" /><trkpt lat="47.820484" lon="-122.24271" /><trkpt lat="47.82118" lon="-122.243991" /><trkpt lat="47.821895" lon="-122.245905" /><trkpt lat="47.824108" lon="-122.251886" /><trkpt lat="47.825622" lon="-122.253858" /><trkpt lat="47.829072" lon="-122.257458" /><trkpt lat="47.831153" lon="-122.260518" /><trkpt lat="47.832028" lon="-122.261286" /><trkpt lat="47.8327" lon="-122.261423" /><trkpt lat="47.835552" lon="-122.260854" /><trkpt lat="47.844901" lon="-122.258475" /><trkpt lat="47.851863" lon="-122.25646" /><trkpt lat="47.861314" lon="-122.24843" /><trkpt lat="47.867452" lon="-122.245028" /><trkpt lat="47.872725" lon="-122.243635" /><trkpt lat="47.875101" lon="-122.241898" /><trkpt lat="47.879086" lon="-122.236932" /><trkpt lat="47.882094" lon="-122.233127" /><trkpt lat="47.886266" lon="-122.227586" /><trkpt lat="47.89367" lon="-122.217677" /><trkpt lat="47.897728" lon="-122.214032" /><trkpt lat="47.901967" lon="-122.212287" /><trkpt lat="47.908095" lon="-122.210643" /><trkpt lat="47.914375" lon="-122.208344" /><trkpt lat="47.920546" lon="-122.205667" /><trkpt lat="47.925515" lon="-122.203345" /><trkpt lat="47.927605" lon="-122.20128" /><trkpt lat="47.93073" lon="-122.196717" /><trkpt lat="47.933842" lon="-122.195844" /><trkpt lat="47.940322" lon="-122.196738" /><trkpt lat="47.9479" lon="-122.198351" /><trkpt lat="47.952859" lon="-122.199193" /><trkpt lat="47.959775" lon="-122.199324" /><trkpt lat="47.964318" lon="-122.199045" /><trkpt lat="47.96609" lon="-122.198867" /><trkpt lat="47.96795" lon="-122.197976" /><trkpt lat="47.970497" lon="-122.194355" /><trkpt lat="47.972208" lon="-122.192302" /><trkpt lat="47.974344" lon="-122.190971" /><trkpt lat="47.977594" lon="-122.190169" /><trkpt lat="47.979228" lon="-122.189433" /><trkpt lat="47.981138" lon="-122.187332" /><trkpt lat="47.983536" lon="-122.1844" /><trkpt lat="47.98478" lon="-122.183431" /><trkpt lat="47.986096" lon="-122.183025" /><trkpt lat="47.98916" lon="-122.182922" /><trkpt lat="47.990413" lon="-122.182601" /><trkpt lat="47.995187" lon="-122.176962" /><trkpt lat="47.998183" lon="-122.174192" /><trkpt lat="48.007605" lon="-122.174175" /><trkpt lat="48.028564" lon="-122.176559" /><trkpt lat="48.038385" lon="-122.178544" /><trkpt lat="48.040817" lon="-122.179253" /><trkpt lat="48.043312" lon="-122.180539" /><trkpt lat="48.049154" lon="-122.183758" /><trkpt lat="48.051862" lon="-122.183635" /><trkpt lat="48.051878" lon="-122.185561" /><trkpt lat="48.052197" lon="-122.186751" /><trkpt lat="48.052869" lon="-122.187655" /><trkpt lat="48.053651" lon="-122.188629" /><trkpt lat="48.054047" lon="-122.188941" /><trkpt lat="48.05429" lon="-122.189115" /><trkpt lat="48.054475" lon="-122.189756" /><trkpt lat="48.054841" lon="-122.190559" /><trkpt lat="48.055582" lon="-122.193018" /><trkpt lat="48.055698" lon="-122.19554" /><trkpt lat="48.055441" lon="-122.198017" /><trkpt lat="48.055074" lon="-122.199739" /><trkpt lat="48.052627" lon="-122.207338" /><trkpt lat="48.051878" lon="-122.209531" /><trkpt lat="48.050853" lon="-122.211593" /><trkpt lat="48.049617" lon="-122.213563" /><trkpt lat="48.046927" lon="-122.215996" /><trkpt lat="48.04559" lon="-122.217077" /><trkpt lat="48.044423" lon="-122.218655" /><trkpt lat="48.043065" lon="-122.221162" /><trkpt lat="48.041457" lon="-122.22417" /><trkpt lat="48.040627" lon="-122.22568" /><trkpt lat="48.040123" lon="-122.226754" /><trkpt lat="48.039475" lon="-122.228501" /><trkpt lat="48.039017" lon="-122.230232" /><trkpt lat="48.038625" lon="-122.232391" /><trkpt lat="48.038378" lon="-122.239431" /><trkpt lat="48.038327" lon="-122.243975" /><trkpt lat="48.038699" lon="-122.246371" /><trkpt lat="48.040137" lon="-122.249698" /><trkpt lat="48.041904" lon="-122.251587" /><trkpt lat="48.050445" lon="-122.257892" /><trkpt lat="48.06012" lon="-122.269414" /><trkpt lat="48.06451" lon="-122.274663" /><trkpt lat="48.065255" lon="-122.279823" /><trkpt lat="48.065343" lon="-122.283923" /><trkpt lat="48.065129" lon="-122.285036" /><trkpt lat="48.065284" lon="-122.285994" /><trkpt lat="48.065479" lon="-122.286713" /><trkpt lat="48.065637" lon="-122.286916" /><trkpt lat="48.065098" lon="-122.285333" /><trkpt lat="48.065427" lon="-122.278138" /><trkpt lat="48.051538" lon="-122.259182" /><trkpt lat="48.039749" lon="-122.249144" /><trkpt lat="48.038393" lon="-122.238934" /><trkpt lat="48.039315" lon="-122.229068" /><trkpt lat="48.040699" lon="-122.22554" /><trkpt lat="48.044423" lon="-122.218655" /><trkpt lat="48.048823" lon="-122.214446" /><trkpt lat="48.051878" lon="-122.209531" /><trkpt lat="48.055386" lon="-122.198335" /><trkpt lat="48.055398" lon="-122.192064" /><trkpt lat="48.053985" lon="-122.189453" /><trkpt lat="48.053295" lon="-122.188239" /><trkpt lat="48.051213" lon="-122.185467" /><trkpt lat="48.040608" lon="-122.17941" /><trkpt lat="48.019547" lon="-122.175086" /><trkpt lat="47.990902" lon="-122.182578" /><trkpt lat="47.985" lon="-122.183616" /><trkpt lat="47.979781" lon="-122.189265" /><trkpt lat="47.974711" lon="-122.191158" /><trkpt lat="47.968806" lon="-122.197465" /><trkpt lat="47.964155" lon="-122.19939" /><trkpt lat="47.954089" lon="-122.200025" /><trkpt lat="47.940618" lon="-122.197546" /><trkpt lat="47.929822" lon="-122.198169" /><trkpt lat="47.925172" lon="-122.204093" /><trkpt lat="47.911425" lon="-122.210091" /><trkpt lat="47.896282" lon="-122.216705" /><trkpt lat="47.881993" lon="-122.233906" /><trkpt lat="47.871848" lon="-122.244485" /><trkpt lat="47.852848" lon="-122.256331" /><trkpt lat="47.844346" lon="-122.259171" /><trkpt lat="47.831632" lon="-122.263016" /><trkpt lat="47.827979" lon="-122.266645" /><trkpt lat="47.8225" lon="-122.276651" /><trkpt lat="47.810026" lon="-122.299955" /><trkpt lat="47.802604" lon="-122.313048" /><trkpt lat="47.793976" lon="-122.31632" /><trkpt lat="47.784535" lon="-122.316855" /><trkpt lat="47.780056" lon="-122.317902" /><trkpt lat="47.77851" lon="-122.319638" /><trkpt lat="47.777707" lon="-122.320609" /><trkpt lat="47.777694" lon="-122.326841" /><trkpt lat="47.777727" lon="-122.334212" /><trkpt lat="47.777861" lon="-122.338076" /><trkpt lat="47.779333" lon="-122.345946" /><trkpt lat="47.781595" lon="-122.348883" /><trkpt lat="47.783208" lon="-122.351548" /><trkpt lat="47.785067" lon="-122.353345" /><trkpt lat="47.788722" lon="-122.354942" /><trkpt lat="47.791855" lon="-122.358485" /><trkpt lat="47.791777" lon="-122.360418" /><trkpt lat="47.790596" lon="-122.363557" /><trkpt lat="47.790645" lon="-122.367137" /><trkpt lat="47.791935" lon="-122.36923" /><trkpt lat="47.794894" lon="-122.373106" /><trkpt lat="47.796657" lon="-122.376697" /><trkpt lat="47.797575" lon="-122.37703" /><trkpt lat="47.798683" lon="-122.376773" /><trkpt lat="47.801046" lon="-122.380391" /><trkpt lat="47.804348" lon="-122.383185" /><trkpt lat="47.810061" lon="-122.383062" /><trkpt lat="47.812235" lon="-122.381866" /><trkpt lat="47.812704" lon="-122.383121" /><trkpt lat="47.797771" lon="-122.454913" /><trkpt lat="47.795584" lon="-122.4959" /><trkpt lat="47.797115" lon="-122.495386" /><trkpt lat="47.798812" lon="-122.497526" /><trkpt lat="47.800785" lon="-122.499139" /><trkpt lat="47.801971" lon="-122.501732" /><trkpt lat="47.803408" lon="-122.505321" /><trkpt lat="47.808396" lon="-122.517772" /><trkpt lat="47.809433" lon="-122.520818" /><trkpt lat="47.809508" lon="-122.526308" /><trkpt lat="47.809513" lon="-122.5348" /><trkpt lat="47.809543" lon="-122.549102" /><trkpt lat="47.809502" lon="-122.55553" /><trkpt lat="47.808627" lon="-122.557647" /><trkpt lat="47.806263" lon="-122.560559" /><trkpt lat="47.805201" lon="-122.565525" /><trkpt lat="47.803963" lon="-122.569994" /><trkpt lat="47.807183" lon="-122.574193" /><trkpt lat="47.813006" lon="-122.583085" /><trkpt lat="47.815131" lon="-122.584247" /><trkpt lat="47.818649" lon="-122.584698" /><trkpt lat="47.82328" lon="-122.585284" /><trkpt lat="47.828891" lon="-122.58603" /><trkpt lat="47.835127" lon="-122.586815" /><trkpt lat="47.840356" lon="-122.587361" /><trkpt lat="47.847145" lon="-122.585219" /><trkpt lat="47.852091" lon="-122.584071" /><trkpt lat="47.854229" lon="-122.584394" /><trkpt lat="47.854228" lon="-122.591431" /><trkpt lat="47.854859" lon="-122.597253" /><trkpt lat="47.854802" lon="-122.601328" /><trkpt lat="47.854121" lon="-122.605837" /><trkpt lat="47.851886" lon="-122.609721" /><trkpt lat="47.8606" lon="-122.62579" /><trkpt lat="47.867581" lon="-122.638489" /><trkpt lat="47.867825" lon="-122.639599" /><trkpt lat="47.868733" lon="-122.652055" /><trkpt lat="47.871427" lon="-122.659668" /><trkpt lat="47.871348" lon="-122.665883" /><trkpt lat="47.869355" lon="-122.681952" /><trkpt lat="47.870564" lon="-122.686685" /><trkpt lat="47.875554" lon="-122.706308" /><trkpt lat="47.88068" lon="-122.715553" /><trkpt lat="47.889248" lon="-122.72866" /><trkpt lat="47.890006" lon="-122.732139" /><trkpt lat="47.890248" lon="-122.734225" /><trkpt lat="47.894136" lon="-122.756899" /><trkpt lat="47.90572" lon="-122.775959" /><trkpt lat="47.917558" lon="-122.794728" /><trkpt lat="47.921968" lon="-122.810123" /><trkpt lat="47.926288" lon="-122.822566" /><trkpt lat="47.938509" lon="-122.848551" /><trkpt lat="47.941229" lon="-122.855922" /><trkpt lat="47.944119" lon="-122.879713" /><trkpt lat="47.945628" lon="-122.883404" /><trkpt lat="47.948291" lon="-122.88457" /><trkpt lat="47.95334" lon="-122.881586" /><trkpt lat="47.956467" lon="-122.882351" /><trkpt lat="47.961811" lon="-122.882208" /><trkpt lat="47.965956" lon="-122.88122" /><trkpt lat="47.975417" lon="-122.883075" /><trkpt lat="47.98208" lon="-122.885675" /><trkpt lat="47.985543" lon="-122.884751" /><trkpt lat="47.98761" lon="-122.886594" /><trkpt lat="47.989261" lon="-122.889734" /><trkpt lat="47.99143" lon="-122.890289" /><trkpt lat="47.997198" lon="-122.88439" /><trkpt lat="48.00002" lon="-122.880726" /><trkpt lat="48.00432" lon="-122.867469" /><trkpt lat="48.006856" lon="-122.864904" /><trkpt lat="48.015603" lon="-122.862153" /><trkpt lat="48.025665" lon="-122.864886" /><trkpt lat="48.034287" lon="-122.870352" /><trkpt lat="48.040835" lon="-122.879089" /><trkpt lat="48.047111" lon="-122.909092" /><trkpt lat="48.050258" lon="-122.926646" /><trkpt lat="48.050265" lon="-122.950743" /><trkpt lat="48.047898" lon="-122.975067" /><trkpt lat="48.043048" lon="-122.981508" /><trkpt lat="48.028751" lon="-122.992967" /><trkpt lat="48.023396" lon="-122.996662" /><trkpt lat="48.020827" lon="-123.006745" /><trkpt lat="48.02506" lon="-123.012477" /><trkpt lat="48.037506" lon="-123.030524" /><trkpt lat="48.044306" lon="-123.031616" /><trkpt lat="48.052638" lon="-123.043734" /><trkpt lat="48.059775" lon="-123.052289" /><trkpt lat="48.070085" lon="-123.075845" /><trkpt lat="48.072985" lon="-123.096701" /><trkpt lat="48.075749" lon="-123.102358" /><trkpt lat="48.079199" lon="-123.102333" /><trkpt lat="48.081467" lon="-123.104914" /><trkpt lat="48.083402" lon="-123.113148" /><trkpt lat="48.085163" lon="-123.11111" /><trkpt lat="48.08583" lon="-123.113146" /><trkpt lat="48.082484" lon="-123.11315" /><trkpt lat="48.08098" lon="-123.118582" /><trkpt lat="48.07962" lon="-123.119878" /><trkpt lat="48.079144" lon="-123.123673" /><trkpt lat="48.079053" lon="-123.124394" /><trkpt lat="48.077813" lon="-123.133146" /><trkpt lat="48.077691" lon="-123.134955" /><trkpt lat="48.076832" lon="-123.134917" /><trkpt lat="48.074777" lon="-123.135143" /><trkpt lat="48.076169" lon="-123.150157" /><trkpt lat="48.07818" lon="-123.163793" /><trkpt lat="48.079409" lon="-123.171678" /><trkpt lat="48.082229" lon="-123.189244" /><trkpt lat="48.08518" lon="-123.206864" /><trkpt lat="48.086937" lon="-123.219214" /><trkpt lat="48.089189" lon="-123.234633" /><trkpt lat="48.09083" lon="-123.249387" /><trkpt lat="48.093035" lon="-123.268565" /><trkpt lat="48.094565" lon="-123.282215" /><trkpt lat="48.096277" lon="-123.298343" /><trkpt lat="48.096475" lon="-123.315566" /><trkpt lat="48.099875" lon="-123.335153" /><trkpt lat="48.10415" lon="-123.343088" /><trkpt lat="48.10639" lon="-123.346377" /><trkpt lat="48.106583" lon="-123.347781" /><trkpt lat="48.106256" lon="-123.349263" /><trkpt lat="48.103535" lon="-123.352648" /><trkpt lat="48.103016" lon="-123.353991" /><trkpt lat="48.102986" lon="-123.355566" /><trkpt lat="48.103467" lon="-123.357015" /><trkpt lat="48.104388" lon="-123.357878" /><trkpt lat="48.105436" lon="-123.358" /><trkpt lat="48.108413" lon="-123.357603" /><trkpt lat="48.109302" lon="-123.360676" /><trkpt lat="48.106299" lon="-123.36773" /><trkpt lat="48.104848" lon="-123.377304" /><trkpt lat="48.104523" lon="-123.384324" /><trkpt lat="48.105537" lon="-123.39305" /><trkpt lat="48.106461" lon="-123.399885" /><trkpt lat="48.107416" lon="-123.402664" /><trkpt lat="48.108561" lon="-123.405083" /><trkpt lat="48.11018" lon="-123.409007" /><trkpt lat="48.111513" lon="-123.412281" /><trkpt lat="48.112681" lon="-123.415132" /><trkpt lat="48.113807" lon="-123.417855" /><trkpt lat="48.113055" lon="-123.418933" /><trkpt lat="48.111215" lon="-123.420597" /><trkpt lat="48.108708" lon="-123.422877" /><trkpt lat="48.10673" lon="-123.424679" /><trkpt lat="48.104701" lon="-123.426957" /><trkpt lat="48.106023" lon="-123.43534" /><trkpt lat="48.107073" lon="-123.441994" /><trkpt lat="48.107539" lon="-123.445047" /><trkpt lat="48.107759" lon="-123.452758" /><trkpt lat="48.106604" lon="-123.464452" /><trkpt lat="48.106087" lon="-123.469651" /><trkpt lat="48.105459" lon="-123.476479" /><trkpt lat="48.104304" lon="-123.487868" /><trkpt lat="48.102179" lon="-123.509653" /><trkpt lat="48.100738" lon="-123.524107" /><trkpt lat="48.099153" lon="-123.534529" /><trkpt lat="48.097487" lon="-123.539914" /><trkpt lat="48.088822" lon="-123.55901" /><trkpt lat="48.084927" lon="-123.558535" /><trkpt lat="48.081232" lon="-123.559773" /><trkpt lat="48.075272" lon="-123.566916" /><trkpt lat="48.070896" lon="-123.572794" /><trkpt lat="48.070194" lon="-123.574839" /><trkpt lat="48.06916" lon="-123.575771" /><trkpt lat="48.067267" lon="-123.575603" /><trkpt lat="48.066409" lon="-123.576074" /><trkpt lat="48.065692" lon="-123.579349" /><trkpt lat="48.065677" lon="-123.581684" /><trkpt lat="48.065974" lon="-123.585452" /><trkpt lat="48.065638" lon="-123.588894" /><trkpt lat="48.064604" lon="-123.592294" /><trkpt lat="48.063916" lon="-123.595202" /><trkpt lat="48.063757" lon="-123.598393" /><trkpt lat="48.06432" lon="-123.602177" /><trkpt lat="48.069218" lon="-123.625923" /><trkpt lat="48.073333" lon="-123.66885" /><trkpt lat="48.076209" lon="-123.687481" /><trkpt lat="48.077409" lon="-123.692783" /><trkpt lat="48.078356" lon="-123.699971" /><trkpt lat="48.08005" lon="-123.703144" /><trkpt lat="48.083962" lon="-123.706793" /><trkpt lat="48.087826" lon="-123.725933" /><trkpt lat="48.082743" lon="-123.733471" /><trkpt lat="48.080564" lon="-123.740169" /><trkpt lat="48.079465" lon="-123.747803" /><trkpt lat="48.078963" lon="-123.752601" /><trkpt lat="48.077222" lon="-123.759049" /><trkpt lat="48.076845" lon="-123.765604" /><trkpt lat="48.075521" lon="-123.770299" /><trkpt lat="48.071935" lon="-123.773938" /><trkpt lat="48.067968" lon="-123.775865" /><trkpt lat="48.064592" lon="-123.776875" /><trkpt lat="48.062205" lon="-123.777578" /><trkpt lat="48.059346" lon="-123.782363" /><trkpt lat="48.057874" lon="-123.786451" /><trkpt lat="48.055299" lon="-123.791733" /><trkpt lat="48.054312" lon="-123.796044" /><trkpt lat="48.051127" lon="-123.798545" /><trkpt lat="48.049097" lon="-123.805655" /><trkpt lat="48.049431" lon="-123.812122" /><trkpt lat="48.050667" lon="-123.817979" /><trkpt lat="48.051465" lon="-123.823327" /><trkpt lat="48.052141" lon="-123.829985" /><trkpt lat="48.051931" lon="-123.833894" /><trkpt lat="48.05128" lon="-123.838662" /><trkpt lat="48.051276" lon="-123.841558" /><trkpt lat="48.04936" lon="-123.843479" /><trkpt lat="48.049155" lon="-123.848103" /><trkpt lat="48.049112" lon="-123.853883" /><trkpt lat="48.049582" lon="-123.859384" /><trkpt lat="48.051131" lon="-123.865615" /><trkpt lat="48.052347" lon="-123.870455" /><trkpt lat="48.053717" lon="-123.875167" /><trkpt lat="48.055306" lon="-123.878851" /><trkpt lat="48.056702" lon="-123.88217" /><trkpt lat="48.058505" lon="-123.884114" /><trkpt lat="48.058625" lon="-123.889905" /><trkpt lat="48.059817" lon="-123.894281" /><trkpt lat="48.061043" lon="-123.898473" /><trkpt lat="48.0613" lon="-123.902462" /><trkpt lat="48.063035" lon="-123.908284" /><trkpt lat="48.06736" lon="-123.915465" /><trkpt lat="48.071604" lon="-123.932164" /><trkpt lat="48.073428" lon="-123.951531" /><trkpt lat="48.077217" lon="-123.958408" /><trkpt lat="48.073603" lon="-123.972765" /><trkpt lat="48.071102" lon="-124.020075" /><trkpt lat="48.068191" lon="-124.086153" /><trkpt lat="48.062139" lon="-124.119489" /><trkpt lat="48.061434" lon="-124.161753" /><trkpt lat="48.06374" lon="-124.208489" /><trkpt lat="48.066056" lon="-124.235621" /><trkpt lat="48.070369" lon="-124.272339" /><trkpt lat="48.069601" lon="-124.284409" /><trkpt lat="48.066964" lon="-124.303925" /><trkpt lat="48.061836" lon="-124.309372" /><trkpt lat="48.055193" lon="-124.325714" /><trkpt lat="48.055077" lon="-124.342868" /><trkpt lat="48.055873" lon="-124.352181" /><trkpt lat="48.052725" lon="-124.35836" /><trkpt lat="48.043402" lon="-124.37656" /><trkpt lat="48.03191" lon="-124.387087" /><trkpt lat="48.01997" lon="-124.390396" /><trkpt lat="48.014828" lon="-124.391488" /><trkpt lat="48.009302" lon="-124.389302" /><trkpt lat="47.989095" lon="-124.392419" /><trkpt lat="47.982345" lon="-124.400603" /><trkpt lat="47.971308" lon="-124.40357" /><trkpt lat="47.965262" lon="-124.402208" /><trkpt lat="47.957877" lon="-124.38933" /><trkpt lat="47.955325" lon="-124.386041" /><trkpt lat="47.952235" lon="-124.385393" /><trkpt lat="47.950215" lon="-124.38606" /><trkpt lat="47.956109" lon="-124.386649" /><trkpt lat="47.9684" lon="-124.403633" /><trkpt lat="47.987862" lon="-124.393001" /><trkpt lat="48.015992" lon="-124.391627" /><trkpt lat="48.035363" lon="-124.385198" /><trkpt lat="48.055627" lon="-124.352969" /><trkpt lat="48.055721" lon="-124.323645" /><trkpt lat="48.068146" lon="-124.297616" /><trkpt lat="48.068213" lon="-124.253517" /><trkpt lat="48.060992" lon="-124.145771" /><trkpt lat="48.068375" lon="-124.083244" /><trkpt lat="48.07713" lon="-123.961203" /><trkpt lat="48.071604" lon="-123.932164" /><trkpt lat="48.062077" lon="-123.905843" /><trkpt lat="48.060269" lon="-123.896511" /><trkpt lat="48.058937" lon="-123.885048" /><trkpt lat="48.055318" lon="-123.878045" /><trkpt lat="48.052128" lon="-123.867997" /><trkpt lat="48.048917" lon="-123.854602" /><trkpt lat="48.049526" lon="-123.84316" /><trkpt lat="48.051594" lon="-123.837326" /><trkpt lat="48.052187" lon="-123.826304" /><trkpt lat="48.049358" lon="-123.813572" /><trkpt lat="48.051804" lon="-123.797423" /><trkpt lat="48.057477" lon="-123.788119" /><trkpt lat="48.061983" lon="-123.778062" /><trkpt lat="48.069662" lon="-123.774359" /><trkpt lat="48.07669" lon="-123.767593" /><trkpt lat="48.077919" lon="-123.754599" /><trkpt lat="48.080751" lon="-123.739709" /><trkpt lat="48.087671" lon="-123.722568" /><trkpt lat="48.078754" lon="-123.70143" /><trkpt lat="48.076209" lon="-123.687481" /><trkpt lat="48.067509" lon="-123.617672" /><trkpt lat="48.063768" lon="-123.596739" /><trkpt lat="48.065594" lon="-123.589112" /><trkpt lat="48.065619" lon="-123.581065" /><trkpt lat="48.066902" lon="-123.575664" /><trkpt lat="48.070035" lon="-123.5751" /><trkpt lat="48.077566" lon="-123.56507" /><trkpt lat="48.086877" lon="-123.559901" /><trkpt lat="48.098725" lon="-123.536114" /><trkpt lat="48.102179" lon="-123.509653" /><trkpt lat="48.105681" lon="-123.473785" /><trkpt lat="48.107604" lon="-123.454356" /><trkpt lat="48.106732" lon="-123.439832" /><trkpt lat="48.104677" lon="-123.426035" /><trkpt lat="48.110268" lon="-123.421448" /><trkpt lat="48.11238" lon="-123.417314" /><trkpt lat="48.110492" lon="-123.412722" /><trkpt lat="48.106807" lon="-123.402757" /><trkpt lat="48.104811" lon="-123.38685" /><trkpt lat="48.106299" lon="-123.36773" /><trkpt lat="48.107461" lon="-123.357225" /><trkpt lat="48.103739" lon="-123.35737" /><trkpt lat="48.102974" lon="-123.354272" /><trkpt lat="48.10635" lon="-123.349033" /><trkpt lat="48.106073" lon="-123.345687" /><trkpt lat="48.098448" lon="-123.328893" /><trkpt lat="48.093581" lon="-123.275138" /><trkpt lat="48.090283" lon="-123.245994" /><trkpt lat="48.085453" lon="-123.210623" /><trkpt lat="48.082126" lon="-123.18914" /><trkpt lat="48.074262" lon="-123.137003" /><trkpt lat="48.072936" lon="-123.095591" /><trkpt lat="48.065005" lon="-123.061228" /><trkpt lat="48.047454" lon="-123.036071" /><trkpt lat="48.037427" lon="-123.030477" /><trkpt lat="48.021632" lon="-123.008562" /><trkpt lat="48.024992" lon="-122.995076" /><trkpt lat="48.043702" lon="-122.981016" /><trkpt lat="48.050292" lon="-122.961603" /><trkpt lat="48.05011" lon="-122.924112" /><trkpt lat="48.040698" lon="-122.878703" /><trkpt lat="48.030379" lon="-122.866993" /><trkpt lat="48.013538" lon="-122.862568" /><trkpt lat="48.004107" lon="-122.867896" /><trkpt lat="47.99839" lon="-122.883035" /><trkpt lat="47.990515" lon="-122.890378" /><trkpt lat="47.987468" lon="-122.886318" /><trkpt lat="47.982775" lon="-122.885591" /><trkpt lat="47.973574" lon="-122.883099" /><trkpt lat="47.961616" lon="-122.882325" /><trkpt lat="47.9533" lon="-122.884032" /><trkpt lat="47.946932" lon="-122.88437" /><trkpt lat="47.943447" lon="-122.874286" /><trkpt lat="47.93899" lon="-122.849576" /><trkpt lat="47.923147" lon="-122.814415" /><trkpt lat="47.916727" lon="-122.793345" /><trkpt lat="47.894203" lon="-122.757138" /><trkpt lat="47.889602" lon="-122.73048" /><trkpt lat="47.876291" lon="-122.709367" /><trkpt lat="47.869863" lon="-122.685018" /><trkpt lat="47.870434" lon="-122.673035" /><trkpt lat="47.870442" lon="-122.656174" /><trkpt lat="47.867702" lon="-122.639575" /><trkpt lat="47.866549" lon="-122.636364" /><trkpt lat="47.851216" lon="-122.610321" /><trkpt lat="47.847507" lon="-122.614045" /><trkpt lat="47.83931" lon="-122.617731" /><trkpt lat="47.832846" lon="-122.624122" /><trkpt lat="47.82327" lon="-122.638077" /><trkpt lat="47.817559" lon="-122.643695" /><trkpt lat="47.804571" lon="-122.648586" /><trkpt lat="47.793471" lon="-122.65159" /><trkpt lat="47.781381" lon="-122.651166" /><trkpt lat="47.768703" lon="-122.650716" /><trkpt lat="47.755344" lon="-122.659175" /><trkpt lat="47.748243" lon="-122.670442" /><trkpt lat="47.698253" lon="-122.685783" /><trkpt lat="47.681536" lon="-122.690357" /><trkpt lat="47.66748" lon="-122.687889" /><trkpt lat="47.662822" lon="-122.690042" /><trkpt lat="47.659703" lon="-122.700954" /><trkpt lat="47.657082" lon="-122.705051" /><trkpt lat="47.641833" lon="-122.705115" /><trkpt lat="47.634933" lon="-122.709273" /><trkpt lat="47.614744" lon="-122.712479" /><trkpt lat="47.604128" lon="-122.710602" /><trkpt lat="47.597126" lon="-122.699635" /><trkpt lat="47.586456" lon="-122.699015" /><trkpt lat="47.581401" lon="-122.694762" /><trkpt lat="47.573381" lon="-122.686437" /><trkpt lat="47.561792" lon="-122.675183" /><trkpt lat="47.550058" lon="-122.670784" /><trkpt lat="47.544882" lon="-122.674386" /><trkpt lat="47.538366" lon="-122.676572" /><trkpt lat="47.532233" lon="-122.690399" /><trkpt lat="47.527336" lon="-122.700197" /><trkpt lat="47.525187" lon="-122.699029" /><trkpt lat="47.525098" lon="-122.691265" /><trkpt lat="47.527299" lon="-122.682064" /><trkpt lat="47.52925" lon="-122.670055" /><trkpt lat="47.528142" lon="-122.664267" /><trkpt lat="47.514865" lon="-122.655993" /><trkpt lat="47.498794" lon="-122.643768" /><trkpt lat="47.478024" lon="-122.625988" /><trkpt lat="47.46222" lon="-122.624155" /><trkpt lat="47.450598" lon="-122.621988" /><trkpt lat="47.426753" lon="-122.623871" /><trkpt lat="47.414782" lon="-122.623724" /><trkpt lat="47.400159" lon="-122.623623" /><trkpt lat="47.383732" lon="-122.615838" /><trkpt lat="47.359586" lon="-122.615222" /><trkpt lat="47.322419" lon="-122.591832" /><trkpt lat="47.293075" lon="-122.565817" /><trkpt lat="47.275856" lon="-122.560217" /><trkpt lat="47.258657" lon="-122.529862" /><trkpt lat="47.255813" lon="-122.514399" /><trkpt lat="47.241878" lon="-122.503832" /><trkpt lat="47.234713" lon="-122.488083" /><trkpt lat="47.233761" lon="-122.464581" /><trkpt lat="47.229505" lon="-122.462688" /><trkpt lat="47.215895" lon="-122.463009" /><trkpt lat="47.190382" lon="-122.463061" /><trkpt lat="47.187389" lon="-122.464008" /><trkpt lat="47.1836" lon="-122.465601" /><trkpt lat="47.179699" lon="-122.463202" /><trkpt lat="47.174828" lon="-122.463137" /><trkpt lat="47.177762" lon="-122.463176" /><trkpt lat="47.179224" lon="-122.463199" /><trkpt lat="47.181056" lon="-122.464401" /><trkpt lat="47.179456" lon="-122.465802" /><trkpt lat="47.174751" lon="-122.468163" /><trkpt lat="47.159748" lon="-122.483322" /><trkpt lat="47.145098" lon="-122.508449" /><trkpt lat="47.137058" lon="-122.525429" /><trkpt lat="47.127311" lon="-122.542086" /><trkpt lat="47.118717" lon="-122.5567" /><trkpt lat="47.110791" lon="-122.57067" /><trkpt lat="47.106293" lon="-122.582982" /><trkpt lat="47.104224" lon="-122.588723" /><trkpt lat="47.102787" lon="-122.597758" /><trkpt lat="47.095417" lon="-122.61666" /><trkpt lat="47.09403" lon="-122.619841" /><trkpt lat="47.092989" lon="-122.623837" /><trkpt lat="47.088564" lon="-122.642673" /><trkpt lat="47.08282" lon="-122.670025" /><trkpt lat="47.081756" lon="-122.677245" /><trkpt lat="47.076953" lon="-122.694267" /><trkpt lat="47.071588" lon="-122.704926" /><trkpt lat="47.068156" lon="-122.714795" /><trkpt lat="47.068163" lon="-122.724844" /><trkpt lat="47.066543" lon="-122.741637" /><trkpt lat="47.064306" lon="-122.759508" /><trkpt lat="47.062141" lon="-122.775967" /><trkpt lat="47.056875" lon="-122.8066" /><trkpt lat="47.050633" lon="-122.816358" /><trkpt lat="47.047011" lon="-122.82273" /><trkpt lat="47.045639" lon="-122.837812" /><trkpt lat="47.041732" lon="-122.851178" /><trkpt lat="47.040494" lon="-122.858158" /><trkpt lat="47.040326" lon="-122.869185" /><trkpt lat="47.036988" lon="-122.875044" /><trkpt lat="47.035588" lon="-122.885429" /><trkpt lat="47.034772" lon="-122.888976" /><trkpt lat="47.030652" lon="-122.89351" /><trkpt lat="47.026617" lon="-122.89737" /><trkpt lat="47.025182" lon="-122.89913" /><trkpt lat="47.024118" lon="-122.902275" /><trkpt lat="47.022208" lon="-122.905723" /><trkpt lat="47.020682" lon="-122.906455" /><trkpt lat="47.016044" lon="-122.90596" /><trkpt lat="47.009781" lon="-122.906666" /><trkpt lat="46.999832" lon="-122.912364" /><trkpt lat="46.989667" lon="-122.919646" /><trkpt lat="46.978831" lon="-122.928755" /><trkpt lat="46.975036" lon="-122.931102" /><trkpt lat="46.950681" lon="-122.938259" /><trkpt lat="46.919396" lon="-122.947994" /><trkpt lat="46.896316" lon="-122.961072" /><trkpt lat="46.865926" lon="-122.970878" /><trkpt lat="46.853958" lon="-122.976481" /><trkpt lat="46.822617" lon="-122.995256" /><trkpt lat="46.798744" lon="-123.009523" /><trkpt lat="46.795318" lon="-123.010669" /><trkpt lat="46.775693" lon="-122.999332" /><trkpt lat="46.746394" lon="-122.981394" /><trkpt lat="46.736468" lon="-122.975404" /><trkpt lat="46.729881" lon="-122.976604" /><trkpt lat="46.725368" lon="-122.977132" /><trkpt lat="46.711939" lon="-122.975564" /><trkpt lat="46.695833" lon="-122.970303" /><trkpt lat="46.691006" lon="-122.97009" /><trkpt lat="46.678838" lon="-122.972687" /><trkpt lat="46.671721" lon="-122.979313" /><trkpt lat="46.66873" lon="-122.980761" /><trkpt lat="46.666443" lon="-122.980181" /><trkpt lat="46.658645" lon="-122.978102" /><trkpt lat="46.655932" lon="-122.976712" /><trkpt lat="46.652104" lon="-122.971915" /><trkpt lat="46.64341" lon="-122.954102" /><trkpt lat="46.634058" lon="-122.942307" /><trkpt lat="46.618017" lon="-122.92303" /><trkpt lat="46.606737" lon="-122.907796" /><trkpt lat="46.596357" lon="-122.900854" /><trkpt lat="46.578878" lon="-122.884011" /><trkpt lat="46.566237" lon="-122.877466" /><trkpt lat="46.561481" lon="-122.876751" /><trkpt lat="46.547439" lon="-122.876745" /><trkpt lat="46.518204" lon="-122.87677" /><trkpt lat="46.494178" lon="-122.876841" /><trkpt lat="46.476873" lon="-122.882846" /><trkpt lat="46.473245" lon="-122.883895" /><trkpt lat="46.457107" lon="-122.886209" /><trkpt lat="46.437788" lon="-122.888876" /><trkpt lat="46.418949" lon="-122.891145" /><trkpt lat="46.409071" lon="-122.889639" /><trkpt lat="46.40551" lon="-122.891484" /><trkpt lat="46.398698" lon="-122.899372" /><trkpt lat="46.387137" lon="-122.902823" /><trkpt lat="46.364156" lon="-122.908039" /><trkpt lat="46.346077" lon="-122.906904" /><trkpt lat="46.323743" lon="-122.912943" /><trkpt lat="46.311207" lon="-122.914064" /><trkpt lat="46.288535" lon="-122.905278" /><trkpt lat="46.275555" lon="-122.897749" /><trkpt lat="46.255651" lon="-122.884695" /><trkpt lat="46.240198" lon="-122.886659" /><trkpt lat="46.224127" lon="-122.889941" /><trkpt lat="46.200007" lon="-122.892769" /><trkpt lat="46.185706" lon="-122.897356" /><trkpt lat="46.176487" lon="-122.902587" /><trkpt lat="46.161409" lon="-122.903262" /><trkpt lat="46.153981" lon="-122.901744" /><trkpt lat="46.150367" lon="-122.900577" /><trkpt lat="46.143299" lon="-122.897621" /><trkpt lat="46.131911" lon="-122.898991" /><trkpt lat="46.125756" lon="-122.894667" /><trkpt lat="46.123001" lon="-122.88995" /><trkpt lat="46.106153" lon="-122.878851" /><trkpt lat="46.093761" lon="-122.872143" /><trkpt lat="46.078102" lon="-122.86671" /><trkpt lat="46.063718" lon="-122.867638" /><trkpt lat="46.041855" lon="-122.859526" /><trkpt lat="46.027724" lon="-122.854697" /><trkpt lat="46.015322" lon="-122.849033" /><trkpt lat="46.001171" lon="-122.843629" /><trkpt lat="45.980465" lon="-122.825311" /><trkpt lat="45.962315" lon="-122.808035" /><trkpt lat="45.958264" lon="-122.80425" /><trkpt lat="45.953578" lon="-122.793418" /><trkpt lat="45.930014" lon="-122.759484" /><trkpt lat="45.920191" lon="-122.751564" /><trkpt lat="45.889366" lon="-122.733016" /><trkpt lat="45.873522" lon="-122.712422" /><trkpt lat="45.855841" lon="-122.704822" /><trkpt lat="45.821093" lon="-122.688644" /><trkpt lat="45.801505" lon="-122.679543" /><trkpt lat="45.788355" lon="-122.674957" /><trkpt lat="45.780487" lon="-122.673441" /><trkpt lat="45.768495" lon="-122.668427" /><trkpt lat="45.754601" lon="-122.664105" /><trkpt lat="45.747292" lon="-122.661824" /><trkpt lat="45.731222" lon="-122.656824" /><trkpt lat="45.724563" lon="-122.654904" /><trkpt lat="45.721213" lon="-122.655194" /><trkpt lat="45.718475" lon="-122.655108" /><trkpt lat="45.71638" lon="-122.654364" /><trkpt lat="45.710475" lon="-122.653079" /><trkpt lat="45.692478" lon="-122.661718" /><trkpt lat="45.685579" lon="-122.664643" /><trkpt lat="45.672543" lon="-122.664647" /><trkpt lat="45.668007" lon="-122.666587" /><trkpt lat="45.664883" lon="-122.667412" /><trkpt lat="45.657323" lon="-122.664734" /><trkpt lat="45.648085" lon="-122.661868" /><trkpt lat="45.638242" lon="-122.662055" /><trkpt lat="45.635156" lon="-122.662939" /><trkpt lat="45.628561" lon="-122.666918" /><trkpt lat="45.625281" lon="-122.669124" /><trkpt lat="45.623471" lon="-122.671288" /><trkpt lat="45.622502" lon="-122.672571" /><trkpt lat="45.621584" lon="-122.673315" /><trkpt lat="45.613131" lon="-122.678377" /><trkpt lat="45.611677" lon="-122.680144" /><trkpt lat="45.611887" lon="-122.681964" /><trkpt lat="45.613569" lon="-122.683796" /><trkpt lat="45.613905" lon="-122.682025" /><trkpt lat="45.613411" lon="-122.68057" /><trkpt lat="45.613315" lon="-122.679524" /><trkpt lat="45.61309" lon="-122.678698" /><trkpt lat="45.612801" lon="-122.67795" /><trkpt lat="45.61241" lon="-122.677515" /><trkpt lat="45.611874" lon="-122.677346" /><trkpt lat="45.611368" lon="-122.677509" /><trkpt lat="45.611051" lon="-122.678118" /><trkpt lat="45.61128" lon="-122.678667" /><trkpt lat="45.6125" lon="-122.678291" /><trkpt lat="45.619441" lon="-122.674254" /><trkpt lat="45.62154" lon="-122.672995" /><trkpt lat="45.622049" lon="-122.672623" /><trkpt lat="45.62271" lon="-122.671961" /><trkpt lat="45.623337" lon="-122.671145" /><trkpt lat="45.62415" lon="-122.67006" /><trkpt lat="45.624831" lon="-122.669287" /><trkpt lat="45.625916" lon="-122.668319" /><trkpt lat="45.626925" lon="-122.667649" /><trkpt lat="45.631304" lon="-122.665008" /><trkpt lat="45.634757" lon="-122.662923" /><trkpt lat="45.63608" lon="-122.662165" /><trkpt lat="45.638568" lon="-122.66175" /><trkpt lat="45.642222" lon="-122.661702" /><trkpt lat="45.645161" lon="-122.661681" /><trkpt lat="45.649722" lon="-122.661644" /><trkpt lat="45.65277" lon="-122.662653" /><trkpt lat="45.660019" lon="-122.665584" /><trkpt lat="45.663055" lon="-122.666811" /><trkpt lat="45.664999" lon="-122.667178" /><trkpt lat="45.666976" lon="-122.666817" /><trkpt lat="45.6685" lon="-122.666034" /><trkpt lat="45.671804" lon="-122.664525" /><trkpt lat="45.679253" lon="-122.664489" /><trkpt lat="45.685906" lon="-122.664321" /><trkpt lat="45.68887" lon="-122.663354" /><trkpt lat="45.696999" lon="-122.659112" /><trkpt lat="45.708193" lon="-122.653286" /><trkpt lat="45.711341" lon="-122.6527" /><trkpt lat="45.714001" lon="-122.653133" /><trkpt lat="45.714732" lon="-122.65339" /><trkpt lat="45.717" lon="-122.654395" /><trkpt lat="45.718173" lon="-122.654826" /><trkpt lat="45.719086" lon="-122.655034" /><trkpt lat="45.721217" lon="-122.655041" /><trkpt lat="45.723237" lon="-122.654725" /><trkpt lat="45.724958" lon="-122.654772" /><trkpt lat="45.728278" lon="-122.655717" /><trkpt lat="45.741019" lon="-122.659579" /><trkpt lat="45.750535" lon="-122.662526" /><trkpt lat="45.75473" lon="-122.66381" /><trkpt lat="45.765331" lon="-122.667104" /><trkpt lat="45.780742" lon="-122.671868" /><trkpt lat="45.792843" lon="-122.67556" /><trkpt lat="45.797565" lon="-122.677253" /><trkpt lat="45.815822" lon="-122.685733" /><trkpt lat="45.829058" lon="-122.691863" /><trkpt lat="45.848007" lon="-122.700701" /><trkpt lat="45.85339" lon="-122.7032" /><trkpt lat="45.864426" lon="-122.705945" /><trkpt lat="45.869906" lon="-122.708534" /><trkpt lat="45.874981" lon="-122.713308" /><trkpt lat="45.88658" lon="-122.730926" /><trkpt lat="45.900169" lon="-122.739144" /><trkpt lat="45.909679" lon="-122.744866" /><trkpt lat="45.92463" lon="-122.754165" /><trkpt lat="45.929209" lon="-122.757012" /><trkpt lat="45.931833" lon="-122.758876" /><trkpt lat="45.954331" lon="-122.79311" /><trkpt lat="45.964334" lon="-122.809262" /><trkpt lat="45.980644" lon="-122.824953" /><trkpt lat="45.997389" lon="-122.840118" /><trkpt lat="46.001556" lon="-122.843319" /><trkpt lat="46.007569" lon="-122.845348" /><trkpt lat="46.018432" lon="-122.849482" /><trkpt lat="46.025195" lon="-122.852997" /><trkpt lat="46.03604" lon="-122.857095" /><trkpt lat="46.04201" lon="-122.859114" /><trkpt lat="46.053655" lon="-122.863002" /><trkpt lat="46.061008" lon="-122.866626" /><trkpt lat="46.070288" lon="-122.867874" /><trkpt lat="46.077157" lon="-122.866472" /><trkpt lat="46.083565" lon="-122.867356" /><trkpt lat="46.097039" lon="-122.873407" /><trkpt lat="46.100961" lon="-122.8756" /><trkpt lat="46.108041" lon="-122.879755" /><trkpt lat="46.122772" lon="-122.889393" /><trkpt lat="46.123987" lon="-122.89057" /><trkpt lat="46.124877" lon="-122.892033" /><trkpt lat="46.127677" lon="-122.897293" /><trkpt lat="46.131572" lon="-122.89866" /><trkpt lat="46.134944" lon="-122.898266" /><trkpt lat="46.143163" lon="-122.897283" /><trkpt lat="46.144875" lon="-122.897507" /><trkpt lat="46.151468" lon="-122.900608" /><trkpt lat="46.153707" lon="-122.901318" /><trkpt lat="46.156939" lon="-122.90195" /><trkpt lat="46.171621" lon="-122.904437" /><trkpt lat="46.175785" lon="-122.902487" /><trkpt lat="46.18398" lon="-122.897444" /><trkpt lat="46.195623" lon="-122.893434" /><trkpt lat="46.213394" lon="-122.891242" /><trkpt lat="46.233912" lon="-122.887093" /><trkpt lat="46.250017" lon="-122.883902" /><trkpt lat="46.25579" lon="-122.884213" /><trkpt lat="46.26017" lon="-122.887287" /><trkpt lat="46.275396" lon="-122.897077" /><trkpt lat="46.284589" lon="-122.902481" /><trkpt lat="46.294662" lon="-122.907965" /><trkpt lat="46.310392" lon="-122.913632" /><trkpt lat="46.319618" lon="-122.914626" /><trkpt lat="46.323622" lon="-122.912844" /><trkpt lat="46.327285" lon="-122.91025" /><trkpt lat="46.345055" lon="-122.90683" /><trkpt lat="46.357527" lon="-122.906231" /><trkpt lat="46.369274" lon="-122.907372" /><trkpt lat="46.390491" lon="-122.901788" /><trkpt lat="46.397862" lon="-122.899724" /><trkpt lat="46.400413" lon="-122.897596" /><trkpt lat="46.407004" lon="-122.890176" /><trkpt lat="46.410683" lon="-122.889508" /><trkpt lat="46.418219" lon="-122.890872" /><trkpt lat="46.436629" lon="-122.888888" /><trkpt lat="46.443369" lon="-122.887889" /><trkpt lat="46.474358" lon="-122.883436" /><trkpt lat="46.478041" lon="-122.882149" /><trkpt lat="46.488747" lon="-122.87822" /><trkpt lat="46.494258" lon="-122.876602" /><trkpt lat="46.508091" lon="-122.876529" /><trkpt lat="46.521045" lon="-122.876525" /><trkpt lat="46.543259" lon="-122.876508" /><trkpt lat="46.546978" lon="-122.87649" /><trkpt lat="46.552235" lon="-122.876482" /><trkpt lat="46.562812" lon="-122.876468" /><trkpt lat="46.567396" lon="-122.877768" /><trkpt lat="46.580954" lon="-122.885724" /><trkpt lat="46.585715" lon="-122.890342" /><trkpt lat="46.598813" lon="-122.902271" /><trkpt lat="46.606874" lon="-122.907647" /><trkpt lat="46.614924" lon="-122.918357" /><trkpt lat="46.622626" lon="-122.928354" /><trkpt lat="46.628449" lon="-122.935341" /><trkpt lat="46.640002" lon="-122.949163" /><trkpt lat="46.643096" lon="-122.953286" /><trkpt lat="46.644878" lon="-122.956256" /><trkpt lat="46.645502" lon="-122.956825" /><trkpt lat="46.64685" lon="-122.957726" /><trkpt lat="46.647543" lon="-122.957459" /><trkpt lat="46.648772" lon="-122.956216" /><trkpt lat="46.649552" lon="-122.955532" /><trkpt lat="46.650012" lon="-122.955419" /><trkpt lat="46.651708" lon="-122.955409" /><trkpt lat="46.652192" lon="-122.955363" /><trkpt lat="46.652186" lon="-122.956785" /><trkpt lat="46.653271" lon="-122.958288" /><trkpt lat="46.655351" lon="-122.961153" /><trkpt lat="46.658328" lon="-122.96527" /><trkpt lat="46.660034" lon="-122.963528" /></trkseg></trk><wpt lat="47.4438439" lon="-122.2212097"><name>Renton, WA - Southwest 41st Street</name><desc>4.752 kWh</desc></wpt><wpt lat="47.6038321" lon="-122.330062"><name>Seattle, WA</name><desc>40.0464 kWh</desc></wpt><wpt lat="47.6038321" lon="-122.330062"><name>Seattle, WA</name><desc>38.7659 kWh</desc></wpt><wpt lat="48.0849312" lon="-123.1096706"><name>Sequim, WA</name><desc>48.7678 kWh</desc></wpt><wpt lat="47.950222" lon="-124.386165"><name>Forks, WA</name><desc>41.0506 kWh</desc></wpt><wpt lat="46.975371" lon="-123.815722"><name>Aberdeen, WA</name><desc>23.0106 kWh</desc></wpt><wpt lat="47.9793437" lon="-122.2127011"><name>Everett, WA</name><desc>63.8252 kWh</desc></wpt><wpt lat="48.1896827" lon="-122.1288887"><name>Arlington, WA</name><desc>39.475 kWh</desc></wpt><wpt lat="47.6765382" lon="-122.2070775"><name>Kirkland, WA</name><desc>65.769 kWh</desc></wpt><wpt lat="48.0656302" lon="-122.286878"><name>Tulalip Bay, WA</name><desc>63.6109 kWh</desc></wpt><wpt lat="48.0849312" lon="-123.1096706"><name>Sequim, WA</name><desc>22.6748 kWh</desc></wpt><wpt lat="47.950222" lon="-124.386165"><name>Forks, WA</name><desc>46.8888 kWh</desc></wpt><wpt lat="47.1748283" lon="-122.4631366"><name>Tacoma, WA - South Hosmer Street</name><desc>11.3322 kWh</desc></wpt><wpt lat="45.6135685" lon="-122.6837959"><name>Portland, OR - North Pavilion Avenue</name><desc>31.8258 kWh</desc></wpt><wpt lat="46.6599653" lon="-122.963432"><name>Chehalis, WA</name><desc>38.2076 kWh</desc></wpt></gpx>