<?xml version='1.0' encoding='utf-8'?>
<gpx version="1.1" creator="Tesla Travel Map" xmlns="http://www.topografix.com/GPX/1/1"><metadata><name>Dec 2024 — North Bend</name></metadata><trk><name>Dec 2024 — North Bend</name><trkseg><trkpt lat="47.4891197" lon="-121.7907812" /><trkpt lat="47.490324" lon="-121.791422" /><trkpt lat="47.49159" lon="-121.791007" /><trkpt lat="47.494098" lon="-121.788324" /><trkpt lat="47.495452" lon="-121.786906" /><trkpt lat="47.496268" lon="-121.786082" /><trkpt lat="47.497652" lon="-121.784695" /><trkpt lat="47.497911" lon="-121.784759" /><trkpt lat="47.498979" lon="-121.78707" /><trkpt lat="47.500721" lon="-121.790734" /><trkpt lat="47.506915" lon="-121.79984" /><trkpt lat="47.517863" lon="-121.815908" /><trkpt lat="47.518861" lon="-121.817418" /><trkpt lat="47.520169" lon="-121.818912" /><trkpt lat="47.523363" lon="-121.821334" /><trkpt lat="47.525496" lon="-121.822893" /><trkpt lat="47.527106" lon="-121.824098" /><trkpt lat="47.527293" lon="-121.824235" /><trkpt lat="47.528035" lon="-121.824776" /><trkpt lat="47.528936" lon="-121.825435" /><trkpt lat="47.530422" lon="-121.826529" /><trkpt lat="47.532211" lon="-121.827873" /><trkpt lat="47.536107" lon="-121.830727" /><trkpt lat="47.537906" lon="-121.831968" /><trkpt lat="47.540034" lon="-121.832908" /><trkpt lat="47.540457" lon="-121.832905" /><trkpt lat="47.540737" lon="-121.8327" /><trkpt lat="47.540907" lon="-121.832943" /><trkpt lat="47.54082" lon="-121.833349" /><trkpt lat="47.540896" lon="-121.834018" /><trkpt lat="47.541894" lon="-121.835581" /><trkpt lat="47.542901" lon="-121.836536" /><trkpt lat="47.543939" lon="-121.836868" /><trkpt lat="47.545301" lon="-121.835631" /><trkpt lat="47.547617" lon="-121.836631" /><trkpt lat="47.548697" lon="-121.837961" /><trkpt lat="47.550026" lon="-121.838987" /><trkpt lat="47.550906" lon="-121.840428" /><trkpt lat="47.552149" lon="-121.840353" /><trkpt lat="47.552239" lon="-121.838618" /><trkpt lat="47.553009" lon="-121.83515" /><trkpt lat="47.553899" lon="-121.834676" /><trkpt lat="47.55407" lon="-121.836588" /><trkpt lat="47.553997" lon="-121.839181" /><trkpt lat="47.554582" lon="-121.842179" /><trkpt lat="47.556626" lon="-121.846438" /><trkpt lat="47.55858" lon="-121.850633" /><trkpt lat="47.560372" lon="-121.857623" /><trkpt lat="47.563051" lon="-121.866386" /><trkpt lat="47.566869" lon="-121.871775" /><trkpt lat="47.567715" lon="-121.874121" /><trkpt lat="47.56889" lon="-121.883125" /><trkpt lat="47.56943" lon="-121.886524" /><trkpt lat="47.569425" lon="-121.887258" /><trkpt lat="47.570478" lon="-121.88742" /><trkpt lat="47.572217" lon="-121.887544" /><trkpt lat="47.575487" lon="-121.890452" /><trkpt lat="47.578731" lon="-121.893715" /><trkpt lat="47.58511" lon="-121.900143" /><trkpt lat="47.591438" lon="-121.906499" /><trkpt lat="47.594641" lon="-121.910783" /><trkpt lat="47.598134" lon="-121.91377" /><trkpt lat="47.60223" lon="-121.913307" /><trkpt lat="47.605636" lon="-121.913999" /><trkpt lat="47.609014" lon="-121.912738" /><trkpt lat="47.614682" lon="-121.910295" /><trkpt lat="47.622573" lon="-121.909775" /><trkpt lat="47.62569" lon="-121.909809" /><trkpt lat="47.630263" lon="-121.912349" /><trkpt lat="47.633376" lon="-121.915239" /><trkpt lat="47.635297" lon="-121.916179" /><trkpt lat="47.637243" lon="-121.916291" /><trkpt lat="47.640198" lon="-121.91626" /><trkpt lat="47.640895" lon="-121.915999" /><trkpt lat="47.642944" lon="-121.915247" /><trkpt lat="47.644461" lon="-121.915585" /><trkpt lat="47.645699" lon="-121.91561" /><trkpt lat="47.646854" lon="-121.914941" /><trkpt lat="47.647779" lon="-121.914376" /><trkpt lat="47.648575" lon="-121.913833" /><trkpt lat="47.649373" lon="-121.913293" /><trkpt lat="47.650005" lon="-121.91286" /><trkpt lat="47.650824" lon="-121.912292" /><trkpt lat="47.651748" lon="-121.911901" /><trkpt lat="47.654869" lon="-121.911368" /><trkpt lat="47.660029" lon="-121.910016" /><trkpt lat="47.667508" lon="-121.907794" /><trkpt lat="47.671335" lon="-121.908398" /><trkpt lat="47.673871" lon="-121.906934" /><trkpt lat="47.677988" lon="-121.907257" /><trkpt lat="47.679666" lon="-121.910154" /><trkpt lat="47.681896" lon="-121.917867" /><trkpt lat="47.682596" lon="-121.919389" /><trkpt lat="47.683765" lon="-121.923215" /><trkpt lat="47.684786" lon="-121.928514" /><trkpt lat="47.687698" lon="-121.937305" /><trkpt lat="47.689773" lon="-121.940722" /><trkpt lat="47.690815" lon="-121.944195" /><trkpt lat="47.69105" lon="-121.947353" /><trkpt lat="47.691752" lon="-121.96206" /><trkpt lat="47.693541" lon="-121.967977" /><trkpt lat="47.700271" lon="-121.979955" /><trkpt lat="47.704975" lon="-121.984103" /><trkpt lat="47.708205" lon="-121.98447" /><trkpt lat="47.709038" lon="-121.984174" /><trkpt lat="47.709689" lon="-121.984241" /><trkpt lat="47.71358" lon="-121.984262" /><trkpt lat="47.714515" lon="-121.984552" /><trkpt lat="47.719482" lon="-121.985939" /><trkpt lat="47.721263" lon="-121.985699" /><trkpt lat="47.72476" lon="-121.986737" /><trkpt lat="47.727913" lon="-121.987059" /><trkpt lat="47.729981" lon="-121.987267" /><trkpt lat="47.731884" lon="-121.987453" /><trkpt lat="47.732655" lon="-121.987409" /><trkpt lat="47.734305" lon="-121.987331" /><trkpt lat="47.737849" lon="-121.987124" /><trkpt lat="47.739324" lon="-121.986535" /><trkpt lat="47.739966" lon="-121.986279" /><trkpt lat="47.740954" lon="-121.986072" /><trkpt lat="47.741525" lon="-121.986004" /><trkpt lat="47.742475" lon="-121.985858" /><trkpt lat="47.74392" lon="-121.985682" /><trkpt lat="47.74886" lon="-121.986038" /><trkpt lat="47.750287" lon="-121.985592" /><trkpt lat="47.752054" lon="-121.98346" /><trkpt lat="47.759045" lon="-121.970765" /><trkpt lat="47.764181" lon="-121.960943" /><trkpt lat="47.766213" lon="-121.957862" /><trkpt lat="47.76713" lon="-121.956813" /><trkpt lat="47.768458" lon="-121.955977" /><trkpt lat="47.770556" lon="-121.955771" /><trkpt lat="47.773131" lon="-121.957148" /><trkpt lat="47.776304" lon="-121.960427" /><trkpt lat="47.779174" lon="-121.963135" /><trkpt lat="47.780932" lon="-121.965727" /><trkpt lat="47.784862" lon="-121.969519" /><trkpt lat="47.78737" lon="-121.972628" /><trkpt lat="47.789023" lon="-121.974298" /><trkpt lat="47.793079" lon="-121.975038" /><trkpt lat="47.795549" lon="-121.976422" /><trkpt lat="47.800577" lon="-121.979149" /><trkpt lat="47.810485" lon="-121.982358" /><trkpt lat="47.811988" lon="-121.982471" /><trkpt lat="47.812301" lon="-121.982443" /><trkpt lat="47.813974" lon="-121.981834" /><trkpt lat="47.815742" lon="-121.981569" /><trkpt lat="47.818626" lon="-121.977915" /><trkpt lat="47.823119" lon="-121.973449" /><trkpt lat="47.826484" lon="-121.970774" /><trkpt lat="47.828771" lon="-121.970331" /><trkpt lat="47.833815" lon="-121.969424" /><trkpt lat="47.837451" lon="-121.96934" /><trkpt lat="47.839884" lon="-121.969327" /><trkpt lat="47.844661" lon="-121.970007" /><trkpt lat="47.848161" lon="-121.971113" /><trkpt lat="47.849857" lon="-121.970732" /><trkpt lat="47.85173" lon="-121.970719" /><trkpt lat="47.854106" lon="-121.970788" /><trkpt lat="47.855108" lon="-121.97125" /><trkpt lat="47.85666" lon="-121.967882" /><trkpt lat="47.857686" lon="-121.964809" /><trkpt lat="47.857275" lon="-121.961443" /><trkpt lat="47.856732" lon="-121.948539" /><trkpt lat="47.855487" lon="-121.919977" /><trkpt lat="47.855493" lon="-121.900258" /><trkpt lat="47.851706" lon="-121.866885" /><trkpt lat="47.856438" lon="-121.836834" /><trkpt lat="47.859468" lon="-121.825517" /><trkpt lat="47.861797" lon="-121.81482" /><trkpt lat="47.86205" lon="-121.808458" /><trkpt lat="47.863187" lon="-121.803514" /><trkpt lat="47.866041" lon="-121.79199" /><trkpt lat="47.867446" lon="-121.781381" /><trkpt lat="47.867796" lon="-121.777583" /><trkpt lat="47.868934" lon="-121.769972" /><trkpt lat="47.869442" lon="-121.760301" /><trkpt lat="47.867186" lon="-121.749471" /><trkpt lat="47.86718" lon="-121.742463" /><trkpt lat="47.86638" lon="-121.729667" /><trkpt lat="47.865139" lon="-121.71827" /><trkpt lat="47.860085" lon="-121.708478" /><trkpt lat="47.854599" lon="-121.696943" /><trkpt lat="47.850778" lon="-121.689519" /><trkpt lat="47.847055" lon="-121.682241" /><trkpt lat="47.842991" lon="-121.673345" /><trkpt lat="47.837675" lon="-121.657991" /><trkpt lat="47.834029" lon="-121.645455" /><trkpt lat="47.835466" lon="-121.621414" /><trkpt lat="47.830903" lon="-121.617453" /><trkpt lat="47.825599" lon="-121.618817" /><trkpt lat="47.817582" lon="-121.606698" /><trkpt lat="47.814537" lon="-121.596484" /><trkpt lat="47.815642" lon="-121.590452" /><trkpt lat="47.812267" lon="-121.58" /><trkpt lat="47.813797" lon="-121.572858" /><trkpt lat="47.811365" lon="-121.568684" /><trkpt lat="47.809707" lon="-121.563898" /><trkpt lat="47.807551" lon="-121.553957" /><trkpt lat="47.809852" lon="-121.545096" /><trkpt lat="47.804608" lon="-121.52792" /><trkpt lat="47.80461" lon="-121.519424" /><trkpt lat="47.797396" lon="-121.514561" /><trkpt lat="47.789328" lon="-121.506342" /><trkpt lat="47.782494" lon="-121.497004" /><trkpt lat="47.759556" lon="-121.469179" /><trkpt lat="47.749828" lon="-121.452706" /><trkpt lat="47.74442" lon="-121.441794" /><trkpt lat="47.734109" lon="-121.421449" /><trkpt lat="47.730812" lon="-121.408498" /><trkpt lat="47.728608" lon="-121.403345" /><trkpt lat="47.726812" lon="-121.397097" /><trkpt lat="47.720406" lon="-121.390175" /><trkpt lat="47.710983" lon="-121.371467" /><trkpt lat="47.711873" lon="-121.359614" /><trkpt lat="47.712444" lon="-121.351937" /><trkpt lat="47.713989" lon="-121.340745" /><trkpt lat="47.711949" lon="-121.325414" /><trkpt lat="47.712215" lon="-121.31499" /><trkpt lat="47.71125" lon="-121.305343" /><trkpt lat="47.712282" lon="-121.294197" /><trkpt lat="47.714582" lon="-121.285769" /><trkpt lat="47.717249" lon="-121.278394" /><trkpt lat="47.715121" lon="-121.271232" /><trkpt lat="47.715539" lon="-121.257747" /><trkpt lat="47.716964" lon="-121.241662" /><trkpt lat="47.718147" lon="-121.231251" /><trkpt lat="47.71738" lon="-121.220319" /><trkpt lat="47.716122" lon="-121.208192" /><trkpt lat="47.714862" lon="-121.198743" /><trkpt lat="47.715761" lon="-121.186818" /><trkpt lat="47.713974" lon="-121.172569" /><trkpt lat="47.710769" lon="-121.160562" /><trkpt lat="47.71238" lon="-121.150321" /><trkpt lat="47.715779" lon="-121.135186" /><trkpt lat="47.716595" lon="-121.12506" /><trkpt lat="47.717699" lon="-121.122571" /><trkpt lat="47.719681" lon="-121.123604" /><trkpt lat="47.720069" lon="-121.130563" /><trkpt lat="47.721014" lon="-121.136637" /><trkpt lat="47.729014" lon="-121.136759" /><trkpt lat="47.73727" lon="-121.128544" /><trkpt lat="47.744093" lon="-121.123056" /><trkpt lat="47.747118" lon="-121.118139" /><trkpt lat="47.74756" lon="-121.105388" /><trkpt lat="47.747758" lon="-121.098823" /><trkpt lat="47.745402" lon="-121.09332" /><trkpt lat="47.745056" lon="-121.090708" /><trkpt lat="47.74679" lon="-121.087797" /><trkpt lat="47.751305" lon="-121.079898" /><trkpt lat="47.759745" lon="-121.075277" /><trkpt lat="47.766936" lon="-121.07774" /><trkpt lat="47.773112" lon="-121.073344" /><trkpt lat="47.779915" lon="-121.06202" /><trkpt lat="47.781494" lon="-121.052193" /><trkpt lat="47.781869" lon="-121.042038" /><trkpt lat="47.78374" lon="-121.029912" /><trkpt lat="47.774323" lon="-121.017573" /><trkpt lat="47.771016" lon="-121.000694" /><trkpt lat="47.767026" lon="-120.989856" /><trkpt lat="47.770235" lon="-120.983298" /><trkpt lat="47.774506" lon="-120.965329" /><trkpt lat="47.775918" lon="-120.952127" /><trkpt lat="47.781787" lon="-120.938024" /><trkpt lat="47.783138" lon="-120.924037" /><trkpt lat="47.780867" lon="-120.90925" /><trkpt lat="47.782714" lon="-120.897423" /><trkpt lat="47.784579" lon="-120.893358" /><trkpt lat="47.787455" lon="-120.884965" /><trkpt lat="47.791266" lon="-120.873919" /><trkpt lat="47.788427" lon="-120.859662" /><trkpt lat="47.787171" lon="-120.85116" /><trkpt lat="47.777928" lon="-120.825977" /><trkpt lat="47.767769" lon="-120.799211" /><trkpt lat="47.76421" lon="-120.787964" /><trkpt lat="47.764429" lon="-120.78395" /><trkpt lat="47.767157" lon="-120.775291" /><trkpt lat="47.765491" lon="-120.763211" /><trkpt lat="47.762941" lon="-120.744831" /><trkpt lat="47.755825" lon="-120.738966" /><trkpt lat="47.74125" lon="-120.737816" /><trkpt lat="47.72897" lon="-120.738744" /><trkpt lat="47.725527" lon="-120.736565" /><trkpt lat="47.713009" lon="-120.741039" /><trkpt lat="47.703637" lon="-120.744132" /><trkpt lat="47.697957" lon="-120.745843" /><trkpt lat="47.693199" lon="-120.740728" /><trkpt lat="47.685723" lon="-120.735684" /><trkpt lat="47.675688" lon="-120.734106" /><trkpt lat="47.670915" lon="-120.735378" /><trkpt lat="47.665255" lon="-120.736326" /><trkpt lat="47.663347" lon="-120.733941" /><trkpt lat="47.659602" lon="-120.729265" /><trkpt lat="47.655937" lon="-120.729771" /><trkpt lat="47.651854" lon="-120.725012" /><trkpt lat="47.649204" lon="-120.723858" /><trkpt lat="47.643479" lon="-120.721611" /><trkpt lat="47.63801" lon="-120.722177" /><trkpt lat="47.632179" lon="-120.727171" /><trkpt lat="47.62448" lon="-120.725362" /><trkpt lat="47.618012" lon="-120.723543" /><trkpt lat="47.613502" lon="-120.719226" /><trkpt lat="47.605461" lon="-120.716208" /><trkpt lat="47.601402" lon="-120.715443" /><trkpt lat="47.597076" lon="-120.713388" /><trkpt lat="47.592216" lon="-120.710773" /><trkpt lat="47.588031" lon="-120.707988" /><trkpt lat="47.586065" lon="-120.705807" /><trkpt lat="47.584094" lon="-120.700956" /><trkpt lat="47.586323" lon="-120.688241" /><trkpt lat="47.587828" lon="-120.684511" /><trkpt lat="47.587206" lon="-120.680855" /><trkpt lat="47.587678" lon="-120.677466" /><trkpt lat="47.588571" lon="-120.675126" /><trkpt lat="47.590535" lon="-120.671079" /><trkpt lat="47.593392" lon="-120.666697" /><trkpt lat="47.594605" lon="-120.664457" /><trkpt lat="47.595273" lon="-120.663185" /><trkpt lat="47.596915" lon="-120.661079" /><trkpt lat="47.594957" lon="-120.663786" /><trkpt lat="47.593779" lon="-120.666031" /><trkpt lat="47.590273" lon="-120.671486" /><trkpt lat="47.588613" lon="-120.675346" /><trkpt lat="47.587111" lon="-120.680297" /><trkpt lat="47.587752" lon="-120.68482" /><trkpt lat="47.584568" lon="-120.693882" /><trkpt lat="47.585767" lon="-120.705479" /><trkpt lat="47.588924" lon="-120.708893" /><trkpt lat="47.595384" lon="-120.713021" /><trkpt lat="47.601141" lon="-120.715255" /><trkpt lat="47.606417" lon="-120.716345" /><trkpt lat="47.616786" lon="-120.722165" /><trkpt lat="47.62448" lon="-120.725362" /><trkpt lat="47.635798" lon="-120.725033" /><trkpt lat="47.641055" lon="-120.720279" /><trkpt lat="47.649379" lon="-120.723855" /><trkpt lat="47.654433" lon="-120.728935" /><trkpt lat="47.659171" lon="-120.729087" /><trkpt lat="47.663712" lon="-120.73477" /><trkpt lat="47.665977" lon="-120.736439" /><trkpt lat="47.67509" lon="-120.734255" /><trkpt lat="47.686913" lon="-120.736151" /><trkpt lat="47.696363" lon="-120.745203" /><trkpt lat="47.703129" lon="-120.744388" /><trkpt lat="47.721938" lon="-120.736872" /><trkpt lat="47.727832" lon="-120.737856" /><trkpt lat="47.744597" lon="-120.737706" /><trkpt lat="47.758644" lon="-120.741048" /><trkpt lat="47.764093" lon="-120.751277" /><trkpt lat="47.767086" lon="-120.775758" /><trkpt lat="47.764131" lon="-120.786168" /><trkpt lat="47.765354" lon="-120.79205" /><trkpt lat="47.779034" lon="-120.828916" /><trkpt lat="47.787652" lon="-120.856659" /><trkpt lat="47.791286" lon="-120.872135" /><trkpt lat="47.787735" lon="-120.889192" /><trkpt lat="47.782884" lon="-120.895476" /><trkpt lat="47.78127" lon="-120.90864" /><trkpt lat="47.783575" lon="-120.928273" /><trkpt lat="47.779565" lon="-120.944266" /><trkpt lat="47.774223" lon="-120.966235" /><trkpt lat="47.768294" lon="-120.98507" /><trkpt lat="47.769744" lon="-120.999266" /><trkpt lat="47.775701" lon="-121.018036" /><trkpt lat="47.784662" lon="-121.034689" /><trkpt lat="47.781803" lon="-121.042768" /><trkpt lat="47.781609" lon="-121.055068" /><trkpt lat="47.773652" lon="-121.07252" /><trkpt lat="47.765766" lon="-121.077602" /><trkpt lat="47.7562" lon="-121.075947" /><trkpt lat="47.747195" lon="-121.087094" /><trkpt lat="47.745" lon="-121.091364" /><trkpt lat="47.747173" lon="-121.096833" /><trkpt lat="47.74756" lon="-121.105388" /><trkpt lat="47.74672" lon="-121.119983" /><trkpt lat="47.739206" lon="-121.126651" /><trkpt lat="47.729014" lon="-121.136759" /><trkpt lat="47.720428" lon="-121.135143" /><trkpt lat="47.719831" lon="-121.124568" /><trkpt lat="47.718399" lon="-121.122583" /><trkpt lat="47.716666" lon="-121.125244" /><trkpt lat="47.714493" lon="-121.139415" /><trkpt lat="47.710812" lon="-121.158855" /><trkpt lat="47.714655" lon="-121.174966" /><trkpt lat="47.715279" lon="-121.190902" /><trkpt lat="47.716115" lon="-121.206813" /><trkpt lat="47.717477" lon="-121.221884" /><trkpt lat="47.718038" lon="-121.237652" /><trkpt lat="47.715765" lon="-121.25538" /><trkpt lat="47.715583" lon="-121.272247" /><trkpt lat="47.716522" lon="-121.282219" /><trkpt lat="47.712479" lon="-121.29224" /><trkpt lat="47.711631" lon="-121.309426" /><trkpt lat="47.712082" lon="-121.322047" /><trkpt lat="47.713989" lon="-121.340745" /><trkpt lat="47.711853" lon="-121.354521" /><trkpt lat="47.710209" lon="-121.367335" /><trkpt lat="47.720556" lon="-121.390452" /><trkpt lat="47.727415" lon="-121.398534" /><trkpt lat="47.730642" lon="-121.407715" /><trkpt lat="47.735862" lon="-121.42545" /><trkpt lat="47.745804" lon="-121.446521" /><trkpt lat="47.754169" lon="-121.462326" /><trkpt lat="47.783854" lon="-121.497704" /><trkpt lat="47.793422" lon="-121.512813" /><trkpt lat="47.804568" lon="-121.51904" /><trkpt lat="47.809597" lon="-121.538158" /><trkpt lat="47.807144" lon="-121.550233" /><trkpt lat="47.809707" lon="-121.563898" /><trkpt lat="47.812815" lon="-121.569785" /><trkpt lat="47.81237" lon="-121.579142" /><trkpt lat="47.815796" lon="-121.591202" /><trkpt lat="47.815276" lon="-121.599575" /><trkpt lat="47.825432" lon="-121.618635" /><trkpt lat="47.83123" lon="-121.617362" /><trkpt lat="47.834505" lon="-121.637818" /><trkpt lat="47.836899" lon="-121.655747" /><trkpt lat="47.843694" lon="-121.675285" /><trkpt lat="47.849919" lon="-121.687845" /><trkpt lat="47.854599" lon="-121.696943" /><trkpt lat="47.860821" lon="-121.709899" /><trkpt lat="47.866295" lon="-121.723331" /><trkpt lat="47.86718" lon="-121.742463" /><trkpt lat="47.867648" lon="-121.752507" /><trkpt lat="47.869543" lon="-121.765333" /><trkpt lat="47.868106" lon="-121.777579" /><trkpt lat="47.866801" lon="-121.786085" /><trkpt lat="47.864035" lon="-121.800668" /><trkpt lat="47.862001" lon="-121.80889" /><trkpt lat="47.861582" lon="-121.81767" /><trkpt lat="47.856977" lon="-121.834813" /><trkpt lat="47.854724" lon="-121.884588" /><trkpt lat="47.854803" lon="-121.907282" /><trkpt lat="47.856765" lon="-121.948134" /><trkpt lat="47.857716" lon="-121.963239" /><trkpt lat="47.859228" lon="-121.969873" /><trkpt lat="47.861104" lon="-121.977919" /><trkpt lat="47.863379" lon="-121.981036" /><trkpt lat="47.84898" lon="-122.0071" /><trkpt lat="47.83525" lon="-122.020551" /><trkpt lat="47.831634" lon="-122.045646" /><trkpt lat="47.81985" lon="-122.063304" /><trkpt lat="47.812487" lon="-122.081775" /><trkpt lat="47.810806" lon="-122.10436" /><trkpt lat="47.800151" lon="-122.112406" /><trkpt lat="47.795694" lon="-122.130268" /><trkpt lat="47.783971" lon="-122.140521" /><trkpt lat="47.779043" lon="-122.152385" /><trkpt lat="47.763255" lon="-122.157789" /><trkpt lat="47.757588" lon="-122.167979" /><trkpt lat="47.759645" lon="-122.182633" /><trkpt lat="47.768912" lon="-122.189197" /><trkpt lat="47.784468" lon="-122.195165" /><trkpt lat="47.792603" lon="-122.209534" /><trkpt lat="47.801036" lon="-122.224205" /><trkpt lat="47.815076" lon="-122.233105" /><trkpt lat="47.820949" lon="-122.243546" /><trkpt lat="47.826016" lon="-122.254236" /><trkpt lat="47.833743" lon="-122.264663" /><trkpt lat="47.833678" lon="-122.262795" /><trkpt lat="47.829205" lon="-122.265929" /><trkpt lat="47.825159" lon="-122.27177" /><trkpt lat="47.810026" lon="-122.299955" /><trkpt lat="47.800522" lon="-122.314525" /><trkpt lat="47.785904" lon="-122.316608" /><trkpt lat="47.774655" lon="-122.318822" /><trkpt lat="47.765771" lon="-122.323176" /><trkpt lat="47.760069" lon="-122.326089" /><trkpt lat="47.754444" lon="-122.330276" /><trkpt lat="47.745774" lon="-122.329694" /><trkpt lat="47.73571" lon="-122.32587" /><trkpt lat="47.730645" lon="-122.324385" /><trkpt lat="47.717039" lon="-122.324969" /><trkpt lat="47.71145" lon="-122.329438" /><trkpt lat="47.708877" lon="-122.330403" /><trkpt lat="47.707244" lon="-122.33104" /><trkpt lat="47.708627" lon="-122.329894" /><trkpt lat="47.708556" lon="-122.323959" /><trkpt lat="47.708733" lon="-122.323231" /><trkpt lat="47.709499" lon="-122.323266" /><trkpt lat="47.708752" lon="-122.323366" /><trkpt lat="47.708658" lon="-122.325104" /><trkpt lat="47.708664" lon="-122.326406" /><trkpt lat="47.708626" lon="-122.328468" /><trkpt lat="47.708921" lon="-122.329018" /><trkpt lat="47.7094" lon="-122.329245" /><trkpt lat="47.710117" lon="-122.329182" /><trkpt lat="47.710445" lon="-122.3291" /><trkpt lat="47.711329" lon="-122.328688" /><trkpt lat="47.712315" lon="-122.328007" /><trkpt lat="47.713652" lon="-122.327008" /><trkpt lat="47.716067" lon="-122.325202" /><trkpt lat="47.71707" lon="-122.324666" /><trkpt lat="47.718343" lon="-122.324282" /><trkpt lat="47.723295" lon="-122.324178" /><trkpt lat="47.732448" lon="-122.324275" /><trkpt lat="47.733928" lon="-122.324678" /><trkpt lat="47.736817" lon="-122.326156" /><trkpt lat="47.740966" lon="-122.328685" /><trkpt lat="47.742952" lon="-122.329675" /><trkpt lat="47.744635" lon="-122.329699" /><trkpt lat="47.748565" lon="-122.328856" /><trkpt lat="47.751085" lon="-122.329663" /><trkpt lat="47.752639" lon="-122.330076" /><trkpt lat="47.753301" lon="-122.330107" /><trkpt lat="47.754346" lon="-122.329994" /><trkpt lat="47.755929" lon="-122.329417" /><trkpt lat="47.757266" lon="-122.328455" /><trkpt lat="47.759815" lon="-122.325991" /><trkpt lat="47.7611" lon="-122.324884" /><trkpt lat="47.762232" lon="-122.324121" /><trkpt lat="47.763337" lon="-122.323562" /><trkpt lat="47.764847" lon="-122.323063" /><trkpt lat="47.768537" lon="-122.322221" /><trkpt lat="47.770504" lon="-122.321312" /><trkpt lat="47.773557" lon="-122.319094" /><trkpt lat="47.774964" lon="-122.31835" /><trkpt lat="47.77734" lon="-122.31774" /><trkpt lat="47.783681" lon="-122.316325" /><trkpt lat="47.785229" lon="-122.316142" /><trkpt lat="47.786979" lon="-122.316089" /><trkpt lat="47.791339" lon="-122.316111" /><trkpt lat="47.792645" lon="-122.316024" /><trkpt lat="47.793786" lon="-122.31579" /><trkpt lat="47.7969" lon="-122.315025" /><trkpt lat="47.799997" lon="-122.314175" /><trkpt lat="47.801698" lon="-122.313194" /><trkpt lat="47.803087" lon="-122.311809" /><trkpt lat="47.804499" lon="-122.309535" /><trkpt lat="47.808126" lon="-122.302797" /><trkpt lat="47.812623" lon="-122.294326" /><trkpt lat="47.815527" lon="-122.288876" /><trkpt lat="47.820894" lon="-122.278777" /><trkpt lat="47.822291" lon="-122.276138" /><trkpt lat="47.826077" lon="-122.269097" /><trkpt lat="47.828577" lon="-122.264565" /><trkpt lat="47.83114" lon="-122.262264" /><trkpt lat="47.832288" lon="-122.261758" /><trkpt lat="47.835552" lon="-122.260854" /><trkpt lat="47.843415" lon="-122.258872" /><trkpt lat="47.851799" lon="-122.256495" /><trkpt lat="47.856471" lon="-122.252566" /><trkpt lat="47.865274" lon="-122.245562" /><trkpt lat="47.8711" lon="-122.244119" /><trkpt lat="47.873242" lon="-122.24337" /><trkpt lat="47.875101" lon="-122.241898" /><trkpt lat="47.879086" lon="-122.236932" /><trkpt lat="47.882094" lon="-122.233127" /><trkpt lat="47.88557" lon="-122.228516" /><trkpt lat="47.891576" lon="-122.220531" /><trkpt lat="47.896408" lon="-122.215003" /><trkpt lat="47.899039" lon="-122.213335" /><trkpt lat="47.902102" lon="-122.212242" /><trkpt lat="47.908095" lon="-122.210643" /><trkpt lat="47.914375" lon="-122.208344" /><trkpt lat="47.920546" lon="-122.205667" /><trkpt lat="47.924891" lon="-122.203683" /><trkpt lat="47.926972" lon="-122.20219" /><trkpt lat="47.929083" lon="-122.198728" /><trkpt lat="47.931637" lon="-122.196141" /><trkpt lat="47.935086" lon="-122.196061" /><trkpt lat="47.941632" lon="-122.196583" /><trkpt lat="47.9479" lon="-122.198351" /><trkpt lat="47.952859" lon="-122.199193" /><trkpt lat="47.959209" lon="-122.199337" /><trkpt lat="47.96152" lon="-122.199244" /><trkpt lat="47.964536" lon="-122.19903" /><trkpt lat="47.966985" lon="-122.198565" /><trkpt lat="47.968469" lon="-122.197449" /><trkpt lat="47.970682" lon="-122.194068" /><trkpt lat="47.972208" lon="-122.192302" /><trkpt lat="47.973969" lon="-122.191125" /><trkpt lat="47.976861" lon="-122.190336" /><trkpt lat="47.978726" lon="-122.189753" /><trkpt lat="47.980471" lon="-122.188181" /><trkpt lat="47.98186" lon="-122.186412" /><trkpt lat="47.984017" lon="-122.183931" /><trkpt lat="47.985061" lon="-122.183305" /><trkpt lat="47.986096" lon="-122.183025" /><trkpt lat="47.987547" lon="-122.182961" /><trkpt lat="47.990413" lon="-122.182601" /><trkpt lat="47.993764" lon="-122.178817" /><trkpt lat="47.997257" lon="-122.174739" /><trkpt lat="48.000013" lon="-122.173826" /><trkpt lat="48.019684" lon="-122.174851" /><trkpt lat="48.034987" lon="-122.177848" /><trkpt lat="48.038385" lon="-122.178544" /><trkpt lat="48.040817" lon="-122.179253" /><trkpt lat="48.042303" lon="-122.179984" /><trkpt lat="48.048835" lon="-122.1837" /><trkpt lat="48.050858" lon="-122.183821" /><trkpt lat="48.051869" lon="-122.184544" /><trkpt lat="48.051897" lon="-122.185878" /><trkpt lat="48.052474" lon="-122.187125" /><trkpt lat="48.053295" lon="-122.188239" /><trkpt lat="48.053651" lon="-122.188629" /><trkpt lat="48.053981" lon="-122.188937" /><trkpt lat="48.054263" lon="-122.189055" /><trkpt lat="48.054392" lon="-122.189547" /><trkpt lat="48.054664" lon="-122.190079" /><trkpt lat="48.055261" lon="-122.191615" /><trkpt lat="48.055665" lon="-122.19372" /><trkpt lat="48.055689" lon="-122.195705" /><trkpt lat="48.055441" lon="-122.198017" /><trkpt lat="48.055239" lon="-122.199081" /><trkpt lat="48.053058" lon="-122.206015" /><trkpt lat="48.052123" lon="-122.208883" /><trkpt lat="48.051433" lon="-122.210511" /><trkpt lat="48.050029" lon="-122.212992" /><trkpt lat="48.049321" lon="-122.213899" /><trkpt lat="48.046352" lon="-122.216426" /><trkpt lat="48.04559" lon="-122.217077" /><trkpt lat="48.044451" lon="-122.218607" /><trkpt lat="48.043392" lon="-122.220555" /><trkpt lat="48.042265" lon="-122.222677" /><trkpt lat="48.040813" lon="-122.225322" /><trkpt lat="48.040317" lon="-122.226326" /><trkpt lat="48.039924" lon="-122.227261" /><trkpt lat="48.039382" lon="-122.228808" /><trkpt lat="48.039017" lon="-122.230232" /><trkpt lat="48.038625" lon="-122.232391" /><trkpt lat="48.038393" lon="-122.238934" /><trkpt lat="48.038294" lon="-122.24316" /><trkpt lat="48.038556" lon="-122.245773" /><trkpt lat="48.039491" lon="-122.248609" /><trkpt lat="48.040318" lon="-122.249951" /><trkpt lat="48.046551" lon="-122.254517" /><trkpt lat="48.051538" lon="-122.259182" /><trkpt lat="48.06012" lon="-122.269414" /><trkpt lat="48.06415" lon="-122.274233" /><trkpt lat="48.065427" lon="-122.278138" /><trkpt lat="48.06519" lon="-122.281274" /><trkpt lat="48.065345" lon="-122.284417" /><trkpt lat="48.065098" lon="-122.285333" /><trkpt lat="48.065307" lon="-122.286562" /><trkpt lat="48.065534" lon="-122.286731" /><trkpt lat="48.065637" lon="-122.286916" /></trkseg></trk><wpt lat="47.4891197" lon="-121.7907812"><name>North Bend, WA - South Fork Avenue Southwest</name><desc>49.115 kWh</desc></wpt><wpt lat="47.8552259" lon="-121.971335"><name>Monroe, WA</name><desc>33.493 kWh</desc></wpt><wpt lat="47.5969138" lon="-120.661081"><name>Leavenworth, WA</name><desc>40.893 kWh</desc></wpt><wpt lat="47.7085558" lon="-122.323959"><name>Seattle, WA - NE Northgate Way (Floor 2)</name><desc>49.247 kWh</desc></wpt><wpt lat="48.0656302" lon="-122.286878"><name>Tulalip Bay, WA</name><desc>42.048 kWh</desc></wpt></gpx>