<?xml version='1.0' encoding='utf-8'?>
<gpx version="1.1" creator="Road Replay" xmlns="http://www.topografix.com/GPX/1/1"><metadata><name>May 2026 — Bellevue → Oceanside (via WA, OR, CA)</name></metadata><wpt lat="47.6167921" lon="-122.1115836"><name>Bellevue, WA - Northeast 8th Street</name><desc>18.4693 kWh</desc></wpt><wpt lat="46.1421249" lon="-122.905299"><name>Kelso, WA</name><desc>27.1053 kWh</desc></wpt><wpt lat="45.460293" lon="-123.7266793"><name>Tillamook, OR</name><desc>27.0562 kWh</desc></wpt><wpt lat="44.636755" lon="-124.053442"><name>Newport, OR</name><desc>44.849 kWh</desc></wpt><wpt lat="43.1195634" lon="-124.4094086"><name>Bandon, OR</name><desc>38.4985 kWh</desc></wpt><wpt lat="41.7522404" lon="-124.1978539"><name>Crescent City, CA</name><desc>61.13 kWh</desc></wpt><wpt lat="40.8047398" lon="-124.1551778"><name>Eureka, CA - 4th St</name><desc>19.23 kWh</desc></wpt><wpt lat="39.4436579" lon="-123.8057607"><name>Fort Bragg, CA</name><desc>64.9738 kWh</desc></wpt><wpt lat="38.0407566" lon="-122.7880459"><name>Olema, CA</name><desc>30.055 kWh</desc></wpt><wpt lat="37.6301729" lon="-122.4175684"><name>San Bruno, CA - El Camino Real</name><desc>26.5304 kWh</desc></wpt><wpt lat="36.62593" lon="-121.816926"><name>Seaside, CA</name><desc>29.633 kWh</desc></wpt><wpt lat="35.1427436" lon="-120.641288"><name>Pismo Beach, CA</name><desc>58.5608 kWh</desc></wpt><wpt lat="34.183671" lon="-118.91183"><name>Newbury Park, CA</name><desc>29.79 kWh</desc></wpt><wpt lat="34.0004225" lon="-117.9752615"><name>Hacienda Heights, CA</name><desc>65.52 kWh</desc></wpt><wpt lat="33.1762538" lon="-117.3525102"><name>Oceanside, CA - Vista Way</name><desc>53.3937 kWh</desc></wpt><wpt lat="33.5635267" lon="-117.6658467"><name>Mission Viejo, CA - Crown Valley Parkway</name><desc>43.4103 kWh</desc></wpt><wpt lat="34.4221319" lon="-119.702667"><name>Santa Barbara, CA</name><desc>32.6455 kWh</desc></wpt><wpt lat="35.1223351" lon="-120.5833942"><name>Arroyo Grande, CA - West Branch Street</name><desc>58.8134 kWh</desc></wpt><wpt lat="36.9757426" lon="-121.9650181"><name>Capitola, CA - 41st Ave</name><desc>32.6576 kWh</desc></wpt><wpt lat="37.5980374" lon="-122.4995234"><name>Pacifica, CA</name><desc>30.1912 kWh</desc></wpt><wpt lat="38.2325829" lon="-122.636465"><name>Petaluma, CA</name><desc>25.6351 kWh</desc></wpt><wpt lat="38.8816319" lon="-121.9701077"><name>Dunnigan, CA - County Road 8</name><desc>33.4678 kWh</desc></wpt><wpt lat="40.5880846" lon="-122.3472743"><name>Redding, CA - Old Alturas Road</name><desc>33.0742 kWh</desc></wpt><wpt lat="41.4238018" lon="-122.3847609"><name>Weed, CA</name><desc>14.8037 kWh</desc></wpt><wpt lat="42.360413" lon="-122.8585926"><name>Medford, OR  - Delta Waters Road</name><desc>57.1491 kWh</desc></wpt><wpt lat="44.0826252" lon="-123.0398274"><name>Springfield, OR - Kruse Way</name><desc>7.6295 kWh</desc></wpt><wpt lat="44.3796117" lon="-123.110065"><name>Halsey, OR</name><desc>40.0175 kWh</desc></wpt><wpt lat="45.8167616" lon="-122.7433775"><name>Ridgefield, WA</name><desc>29.9045 kWh</desc></wpt><wpt lat="46.9932302" lon="-122.9200682"><name>Tumwater, WA - Kingswood Drive Southwest</name><desc>47.4 kWh</desc></wpt></gpx>