<?xml version='1.0' encoding='utf-8'?>
<gpx version="1.1" creator="Tesla Travel Map" xmlns="http://www.topografix.com/GPX/1/1"><metadata><name>Sep 2023 — Red Oak</name></metadata><trk><name>Sep 2023 — Red Oak</name><trkseg><trkpt lat="32.5143898" lon="-96.8066615" /><trkpt lat="32.517187" lon="-96.811029" /><trkpt lat="32.519507" lon="-96.816742" /><trkpt lat="32.519444" lon="-96.823412" /><trkpt lat="32.515243" lon="-96.822393" /><trkpt lat="32.505125" lon="-96.822229" /><trkpt lat="32.496678" lon="-96.823329" /><trkpt lat="32.481934" lon="-96.831884" /><trkpt lat="32.466724" lon="-96.840854" /><trkpt lat="32.456757" lon="-96.844868" /><trkpt lat="32.444668" lon="-96.849319" /><trkpt lat="32.433207" lon="-96.857446" /><trkpt lat="32.422645" lon="-96.866077" /><trkpt lat="32.415207" lon="-96.871505" /><trkpt lat="32.408593" lon="-96.872837" /><trkpt lat="32.400039" lon="-96.872749" /><trkpt lat="32.379176" lon="-96.865717" /><trkpt lat="32.374234" lon="-96.863747" /><trkpt lat="32.366736" lon="-96.858042" /><trkpt lat="32.358697" lon="-96.854982" /><trkpt lat="32.347919" lon="-96.854672" /><trkpt lat="32.332549" lon="-96.858066" /><trkpt lat="32.310353" lon="-96.862662" /><trkpt lat="32.29537" lon="-96.86572" /><trkpt lat="32.282812" lon="-96.868292" /><trkpt lat="32.273166" lon="-96.870255" /><trkpt lat="32.261364" lon="-96.872678" /><trkpt lat="32.245529" lon="-96.875904" /><trkpt lat="32.230185" lon="-96.882929" /><trkpt lat="32.219654" lon="-96.888146" /><trkpt lat="32.209753" lon="-96.89268" /><trkpt lat="32.197774" lon="-96.898516" /><trkpt lat="32.192219" lon="-96.90125" /><trkpt lat="32.178058" lon="-96.908706" /><trkpt lat="32.173029" lon="-96.911578" /><trkpt lat="32.162382" lon="-96.921401" /><trkpt lat="32.147704" lon="-96.935019" /><trkpt lat="32.140419" lon="-96.944839" /><trkpt lat="32.133069" lon="-96.957411" /><trkpt lat="32.123487" lon="-96.974812" /><trkpt lat="32.118355" lon="-96.984564" /><trkpt lat="32.100227" lon="-97.01695" /><trkpt lat="32.081885" lon="-97.047183" /><trkpt lat="32.068006" lon="-97.072409" /><trkpt lat="32.056431" lon="-97.092706" /><trkpt lat="32.052214" lon="-97.094814" /><trkpt lat="32.042472" lon="-97.095101" /><trkpt lat="32.008729" lon="-97.095638" /><trkpt lat="32.002002" lon="-97.096865" /><trkpt lat="31.979241" lon="-97.112402" /><trkpt lat="31.968247" lon="-97.119389" /><trkpt lat="31.961803" lon="-97.117536" /><trkpt lat="31.944833" lon="-97.110106" /><trkpt lat="31.920574" lon="-97.099512" /><trkpt lat="31.905403" lon="-97.092843" /><trkpt lat="31.888925" lon="-97.085645" /><trkpt lat="31.881033" lon="-97.082231" /><trkpt lat="31.875022" lon="-97.08145" /><trkpt lat="31.86138" lon="-97.083581" /><trkpt lat="31.852597" lon="-97.084822" /><trkpt lat="31.842645" lon="-97.088196" /><trkpt lat="31.828113" lon="-97.094492" /><trkpt lat="31.820599" lon="-97.097738" /><trkpt lat="31.808784" lon="-97.099121" /><trkpt lat="31.797673" lon="-97.102122" /><trkpt lat="31.787708" lon="-97.102739" /><trkpt lat="31.766573" lon="-97.10387" /><trkpt lat="31.746966" lon="-97.103954" /><trkpt lat="31.713565" lon="-97.102394" /><trkpt lat="31.69798" lon="-97.101884" /><trkpt lat="31.675946" lon="-97.099655" /><trkpt lat="31.662643" lon="-97.100382" /><trkpt lat="31.651917" lon="-97.100709" /><trkpt lat="31.644928" lon="-97.097322" /><trkpt lat="31.634512" lon="-97.095997" /><trkpt lat="31.625492" lon="-97.096453" /><trkpt lat="31.615929" lon="-97.101055" /><trkpt lat="31.604773" lon="-97.106417" /><trkpt lat="31.598329" lon="-97.109007" /><trkpt lat="31.589703" lon="-97.109627" /><trkpt lat="31.580401" lon="-97.110735" /><trkpt lat="31.576405" lon="-97.113193" /><trkpt lat="31.572141" lon="-97.115789" /><trkpt lat="31.566378" lon="-97.116735" /><trkpt lat="31.560813" lon="-97.11741" /><trkpt lat="31.549473" lon="-97.123857" /><trkpt lat="31.542162" lon="-97.127709" /><trkpt lat="31.530255" lon="-97.131556" /><trkpt lat="31.517611" lon="-97.137402" /><trkpt lat="31.509478" lon="-97.142362" /><trkpt lat="31.502917" lon="-97.14545" /><trkpt lat="31.486797" lon="-97.154845" /><trkpt lat="31.473291" lon="-97.163069" /><trkpt lat="31.45046" lon="-97.176894" /><trkpt lat="31.431983" lon="-97.18838" /><trkpt lat="31.416763" lon="-97.197539" /><trkpt lat="31.399029" lon="-97.207085" /><trkpt lat="31.384641" lon="-97.212964" /><trkpt lat="31.371144" lon="-97.215716" /><trkpt lat="31.356857" lon="-97.218605" /><trkpt lat="31.339652" lon="-97.222395" /><trkpt lat="31.329362" lon="-97.227038" /><trkpt lat="31.322671" lon="-97.232337" /><trkpt lat="31.316063" lon="-97.239492" /><trkpt lat="31.305666" lon="-97.245769" /><trkpt lat="31.294813" lon="-97.252807" /><trkpt lat="31.286049" lon="-97.256386" /><trkpt lat="31.27242" lon="-97.265972" /><trkpt lat="31.250714" lon="-97.278707" /><trkpt lat="31.240197" lon="-97.284808" /><trkpt lat="31.225574" lon="-97.292722" /><trkpt lat="31.212712" lon="-97.300783" /><trkpt lat="31.199904" lon="-97.306051" /><trkpt lat="31.179305" lon="-97.314617" /><trkpt lat="31.167478" lon="-97.319134" /><trkpt lat="31.15083" lon="-97.325556" /><trkpt lat="31.133667" lon="-97.332067" /><trkpt lat="31.126096" lon="-97.337977" /><trkpt lat="31.123976" lon="-97.34791" /><trkpt lat="31.120365" lon="-97.352825" /><trkpt lat="31.108819" lon="-97.357369" /><trkpt lat="31.101005" lon="-97.360916" /><trkpt lat="31.096845" lon="-97.36663" /><trkpt lat="31.091645" lon="-97.384017" /><trkpt lat="31.084277" lon="-97.407361" /><trkpt lat="31.075716" lon="-97.417975" /><trkpt lat="31.058876" lon="-97.440484" /><trkpt lat="31.051814" lon="-97.45816" /><trkpt lat="31.046601" lon="-97.466647" /><trkpt lat="31.03811" lon="-97.471093" /><trkpt lat="31.028683" lon="-97.474859" /><trkpt lat="31.017976" lon="-97.481222" /><trkpt lat="30.999697" lon="-97.493521" /><trkpt lat="30.987083" lon="-97.502578" /><trkpt lat="30.975059" lon="-97.515216" /><trkpt lat="30.965381" lon="-97.526394" /><trkpt lat="30.956604" lon="-97.535222" /><trkpt lat="30.95156" lon="-97.537772" /><trkpt lat="30.940927" lon="-97.540145" /><trkpt lat="30.925331" lon="-97.543694" /><trkpt lat="30.907524" lon="-97.555884" /><trkpt lat="30.880646" lon="-97.57837" /><trkpt lat="30.853261" lon="-97.591186" /><trkpt lat="30.825097" lon="-97.60486" /><trkpt lat="30.811234" lon="-97.613041" /><trkpt lat="30.790112" lon="-97.622087" /><trkpt lat="30.768419" lon="-97.628462" /><trkpt lat="30.748415" lon="-97.635907" /><trkpt lat="30.735645" lon="-97.640116" /><trkpt lat="30.709547" lon="-97.649213" /><trkpt lat="30.687817" lon="-97.657465" /><trkpt lat="30.674272" lon="-97.664346" /><trkpt lat="30.660237" lon="-97.673442" /><trkpt lat="30.653534" lon="-97.677594" /><trkpt lat="30.651083" lon="-97.679475" /><trkpt lat="30.648601" lon="-97.677653" /><trkpt lat="30.645947" lon="-97.678301" /><trkpt lat="30.641357" lon="-97.678147" /><trkpt lat="30.639061" lon="-97.678092" /><trkpt lat="30.636596" lon="-97.677558" /><trkpt lat="30.63502" lon="-97.678021" /><trkpt lat="30.633328" lon="-97.677986" /><trkpt lat="30.633253" lon="-97.676629" /><trkpt lat="30.633274" lon="-97.673123" /><trkpt lat="30.633316" lon="-97.670578" /><trkpt lat="30.633358" lon="-97.667084" /><trkpt lat="30.633388" lon="-97.664408" /><trkpt lat="30.633508" lon="-97.663185" /><trkpt lat="30.634838" lon="-97.658672" /><trkpt lat="30.636935" lon="-97.651659" /><trkpt lat="30.638264" lon="-97.645305" /><trkpt lat="30.63955" lon="-97.639008" /><trkpt lat="30.64149" lon="-97.632339" /><trkpt lat="30.639313" lon="-97.629778" /><trkpt lat="30.631279" lon="-97.628006" /><trkpt lat="30.624798" lon="-97.62336" /><trkpt lat="30.61851" lon="-97.609606" /><trkpt lat="30.616219" lon="-97.605466" /><trkpt lat="30.613282" lon="-97.602725" /><trkpt lat="30.594222" lon="-97.594768" /><trkpt lat="30.581448" lon="-97.587632" /><trkpt lat="30.568108" lon="-97.58187" /><trkpt lat="30.55441" lon="-97.577185" /><trkpt lat="30.523207" lon="-97.576129" /><trkpt lat="30.504346" lon="-97.57903" /><trkpt lat="30.48736" lon="-97.584761" /><trkpt lat="30.477588" lon="-97.589482" /><trkpt lat="30.471448" lon="-97.593261" /><trkpt lat="30.466147" lon="-97.594697" /><trkpt lat="30.446757" lon="-97.59424" /><trkpt lat="30.414382" lon="-97.585855" /><trkpt lat="30.391051" lon="-97.579128" /><trkpt lat="30.374701" lon="-97.582601" /><trkpt lat="30.356891" lon="-97.589631" /><trkpt lat="30.348085" lon="-97.594192" /><trkpt lat="30.341817" lon="-97.592096" /><trkpt lat="30.33296" lon="-97.587371" /><trkpt lat="30.317392" lon="-97.575585" /><trkpt lat="30.308548" lon="-97.570257" /><trkpt lat="30.301147" lon="-97.569621" /><trkpt lat="30.2872" lon="-97.576716" /><trkpt lat="30.274804" lon="-97.589958" /><trkpt lat="30.260309" lon="-97.60052" /><trkpt lat="30.245038" lon="-97.611966" /><trkpt lat="30.229953" lon="-97.619758" /><trkpt lat="30.225253" lon="-97.62247" /><trkpt lat="30.198643" lon="-97.622866" /><trkpt lat="30.189038" lon="-97.627087" /><trkpt lat="30.180367" lon="-97.63231" /><trkpt lat="30.168389" lon="-97.646985" /><trkpt lat="30.161609" lon="-97.653648" /><trkpt lat="30.148012" lon="-97.660221" /><trkpt lat="30.136838" lon="-97.666334" /><trkpt lat="30.131801" lon="-97.666033" /><trkpt lat="30.121989" lon="-97.660621" /><trkpt lat="30.114968" lon="-97.661536" /><trkpt lat="30.097114" lon="-97.674237" /><trkpt lat="30.083432" lon="-97.689317" /><trkpt lat="30.081059" lon="-97.69552" /><trkpt lat="30.081633" lon="-97.704632" /><trkpt lat="30.081145" lon="-97.725731" /><trkpt lat="30.084996" lon="-97.73758" /><trkpt lat="30.095266" lon="-97.763482" /><trkpt lat="30.106724" lon="-97.788873" /><trkpt lat="30.112257" lon="-97.799131" /><trkpt lat="30.112014" lon="-97.806214" /><trkpt lat="30.109729" lon="-97.808842" /><trkpt lat="30.102104" lon="-97.812151" /><trkpt lat="30.093893" lon="-97.815959" /><trkpt lat="30.085999" lon="-97.82054" /><trkpt lat="30.068026" lon="-97.829586" /><trkpt lat="30.038531" lon="-97.844124" /><trkpt lat="30.021603" lon="-97.854768" /><trkpt lat="30.011431" lon="-97.861681" /><trkpt lat="29.997537" lon="-97.869645" /><trkpt lat="29.992066" lon="-97.871698" /><trkpt lat="29.981038" lon="-97.873818" /><trkpt lat="29.967844" lon="-97.875237" /><trkpt lat="29.95115" lon="-97.878816" /><trkpt lat="29.944354" lon="-97.881802" /><trkpt lat="29.911072" lon="-97.898979" /><trkpt lat="29.90236" lon="-97.903991" /><trkpt lat="29.893306" lon="-97.912299" /><trkpt lat="29.882101" lon="-97.922569" /><trkpt lat="29.87479" lon="-97.93204" /><trkpt lat="29.870835" lon="-97.93738" /><trkpt lat="29.858975" lon="-97.950971" /><trkpt lat="29.838511" lon="-97.973758" /><trkpt lat="29.8317" lon="-97.981326" /><trkpt lat="29.826053" lon="-97.987593" /><trkpt lat="29.820367" lon="-97.993906" /><trkpt lat="29.814207" lon="-98.000747" /><trkpt lat="29.808838" lon="-98.006706" /><trkpt lat="29.802382" lon="-98.013874" /><trkpt lat="29.796673" lon="-98.020214" /><trkpt lat="29.793484" lon="-98.023246" /><trkpt lat="29.786765" lon="-98.029377" /><trkpt lat="29.778814" lon="-98.035239" /><trkpt lat="29.771349" lon="-98.040695" /><trkpt lat="29.765148" lon="-98.045045" /><trkpt lat="29.761115" lon="-98.047817" /><trkpt lat="29.755839" lon="-98.051599" /><trkpt lat="29.750166" lon="-98.055703" /><trkpt lat="29.744956" lon="-98.059612" /><trkpt lat="29.737058" lon="-98.068804" /><trkpt lat="29.73006" lon="-98.077043" /><trkpt lat="29.724696" lon="-98.083333" /><trkpt lat="29.720838" lon="-98.086514" /><trkpt lat="29.715741" lon="-98.088659" /><trkpt lat="29.706878" lon="-98.090378" /><trkpt lat="29.702106" lon="-98.092509" /><trkpt lat="29.69842" lon="-98.095939" /><trkpt lat="29.696403" lon="-98.099144" /><trkpt lat="29.691801" lon="-98.110464" /><trkpt lat="29.687358" lon="-98.121513" /><trkpt lat="29.685529" lon="-98.128704" /><trkpt lat="29.683432" lon="-98.140412" /><trkpt lat="29.681036" lon="-98.145221" /><trkpt lat="29.676425" lon="-98.151796" /><trkpt lat="29.669747" lon="-98.161051" /><trkpt lat="29.664558" lon="-98.168068" /><trkpt lat="29.662323" lon="-98.172017" /><trkpt lat="29.658159" lon="-98.182" /><trkpt lat="29.655307" lon="-98.186455" /><trkpt lat="29.651647" lon="-98.192295" /><trkpt lat="29.646357" lon="-98.200858" /><trkpt lat="29.641621" lon="-98.208544" /><trkpt lat="29.636951" lon="-98.217671" /><trkpt lat="29.634366" lon="-98.222748" /><trkpt lat="29.631055" lon="-98.229239" /><trkpt lat="29.626666" lon="-98.237841" /><trkpt lat="29.618525" lon="-98.25381" /><trkpt lat="29.615257" lon="-98.259924" /><trkpt lat="29.610406" lon="-98.265823" /><trkpt lat="29.606336" lon="-98.270131" /><trkpt lat="29.600443" lon="-98.2764" /><trkpt lat="29.596209" lon="-98.284119" /><trkpt lat="29.591905" lon="-98.292691" /><trkpt lat="29.587825" lon="-98.30063" /><trkpt lat="29.583026" lon="-98.307666" /><trkpt lat="29.580232" lon="-98.314175" /><trkpt lat="29.577219" lon="-98.321984" /><trkpt lat="29.571812" lon="-98.328817" /><trkpt lat="29.569746" lon="-98.331772" /><trkpt lat="29.570084" lon="-98.335045" /><trkpt lat="29.573829" lon="-98.337814" /><trkpt lat="29.578172" lon="-98.34237" /><trkpt lat="29.583111" lon="-98.345346" /><trkpt lat="29.589222" lon="-98.349712" /><trkpt lat="29.597767" lon="-98.355877" /><trkpt lat="29.602728" lon="-98.361166" /><trkpt lat="29.60284" lon="-98.369875" /><trkpt lat="29.602403" lon="-98.392038" /><trkpt lat="29.60124" lon="-98.413278" /><trkpt lat="29.600552" lon="-98.425389" /><trkpt lat="29.600391" lon="-98.430505" /><trkpt lat="29.602288" lon="-98.439674" /><trkpt lat="29.603395" lon="-98.44428" /><trkpt lat="29.604637" lon="-98.450473" /><trkpt lat="29.606544" lon="-98.457494" /><trkpt lat="29.60538" lon="-98.456586" /><trkpt lat="29.604582" lon="-98.452389" /><trkpt lat="29.602014" lon="-98.44136" /><trkpt lat="29.59989" lon="-98.429457" /><trkpt lat="29.600892" lon="-98.414977" /><trkpt lat="29.601984" lon="-98.400229" /><trkpt lat="29.602459" lon="-98.379316" /><trkpt lat="29.602678" lon="-98.361896" /><trkpt lat="29.600955" lon="-98.358538" /><trkpt lat="29.59203" lon="-98.352144" /><trkpt lat="29.586115" lon="-98.348615" /><trkpt lat="29.579043" lon="-98.343722" /><trkpt lat="29.575678" lon="-98.340941" /><trkpt lat="29.57337" lon="-98.338006" /><trkpt lat="29.569427" lon="-98.335209" /><trkpt lat="29.566825" lon="-98.334429" /><trkpt lat="29.56707" lon="-98.331586" /><trkpt lat="29.569606" lon="-98.330903" /><trkpt lat="29.572187" lon="-98.328062" /><trkpt lat="29.576377" lon="-98.32302" /><trkpt lat="29.578394" lon="-98.318825" /><trkpt lat="29.582244" lon="-98.308641" /><trkpt lat="29.587404" lon="-98.301015" /><trkpt lat="29.593066" lon="-98.289947" /><trkpt lat="29.598334" lon="-98.27956" /><trkpt lat="29.602543" lon="-98.273798" /><trkpt lat="29.610091" lon="-98.265926" /><trkpt lat="29.615644" lon="-98.258995" /><trkpt lat="29.618703" lon="-98.25309" /><trkpt lat="29.627419" lon="-98.235995" /><trkpt lat="29.635376" lon="-98.220383" /><trkpt lat="29.640419" lon="-98.210486" /><trkpt lat="29.645144" lon="-98.202491" /><trkpt lat="29.65029" lon="-98.194161" /><trkpt lat="29.657269" lon="-98.183355" /><trkpt lat="29.661671" lon="-98.173146" /><trkpt lat="29.664402" lon="-98.167994" /><trkpt lat="29.66986" lon="-98.160586" /><trkpt lat="29.676666" lon="-98.151106" /><trkpt lat="29.68175" lon="-98.143818" /><trkpt lat="29.683324" lon="-98.140038" /><trkpt lat="29.684897" lon="-98.13122" /><trkpt lat="29.686546" lon="-98.123162" /><trkpt lat="29.688078" lon="-98.119202" /><trkpt lat="29.690988" lon="-98.111953" /><trkpt lat="29.695255" lon="-98.10133" /><trkpt lat="29.697805" lon="-98.096405" /><trkpt lat="29.701922" lon="-98.092372" /><trkpt lat="29.707533" lon="-98.090007" /><trkpt lat="29.715798" lon="-98.088418" /><trkpt lat="29.720505" lon="-98.086475" /><trkpt lat="29.724835" lon="-98.082927" /><trkpt lat="29.731841" lon="-98.07467" /><trkpt lat="29.73933" lon="-98.065828" /><trkpt lat="29.747383" lon="-98.057431" /><trkpt lat="29.753398" lon="-98.053119" /><trkpt lat="29.760051" lon="-98.048308" /><trkpt lat="29.765911" lon="-98.04428" /><trkpt lat="29.771673" lon="-98.040205" /><trkpt lat="29.779925" lon="-98.034157" /><trkpt lat="29.786564" lon="-98.029271" /><trkpt lat="29.790431" lon="-98.025356" /><trkpt lat="29.793884" lon="-98.022195" /><trkpt lat="29.796559" lon="-98.020031" /><trkpt lat="29.801284" lon="-98.014813" /><trkpt lat="29.806914" lon="-98.008577" /><trkpt lat="29.811294" lon="-98.003721" /><trkpt lat="29.816381" lon="-97.998081" /><trkpt lat="29.819674" lon="-97.994421" /><trkpt lat="29.82434" lon="-97.989241" /><trkpt lat="29.831728" lon="-97.98103" /><trkpt lat="29.839336" lon="-97.972565" /><trkpt lat="29.853427" lon="-97.956933" /><trkpt lat="29.864922" lon="-97.943948" /><trkpt lat="29.874664" lon="-97.931925" /><trkpt lat="29.880334" lon="-97.924311" /><trkpt lat="29.885629" lon="-97.919014" /><trkpt lat="29.894425" lon="-97.911036" /><trkpt lat="29.903446" lon="-97.902981" /><trkpt lat="29.913471" lon="-97.897539" /><trkpt lat="29.946014" lon="-97.880752" /><trkpt lat="29.952428" lon="-97.87827" /><trkpt lat="29.972697" lon="-97.874446" /><trkpt lat="29.986506" lon="-97.872643" /><trkpt lat="29.992991" lon="-97.871251" /><trkpt lat="30.001468" lon="-97.867214" /><trkpt lat="30.016563" lon="-97.858169" /><trkpt lat="30.029147" lon="-97.849129" /><trkpt lat="30.040766" lon="-97.842826" /><trkpt lat="30.071226" lon="-97.827812" /><trkpt lat="30.088384" lon="-97.818816" /><trkpt lat="30.097692" lon="-97.813741" /><trkpt lat="30.109955" lon="-97.808045" /><trkpt lat="30.119655" lon="-97.803993" /><trkpt lat="30.134084" lon="-97.79819" /><trkpt lat="30.146621" lon="-97.79356" /><trkpt lat="30.155013" lon="-97.790888" /><trkpt lat="30.162605" lon="-97.788385" /><trkpt lat="30.175155" lon="-97.780594" /><trkpt lat="30.186247" lon="-97.773307" /><trkpt lat="30.195932" lon="-97.766016" /><trkpt lat="30.205644" lon="-97.758045" /><trkpt lat="30.213289" lon="-97.75306" /><trkpt lat="30.219639" lon="-97.749281" /><trkpt lat="30.22749" lon="-97.744709" /><trkpt lat="30.238359" lon="-97.738356" /><trkpt lat="30.244237" lon="-97.735162" /><trkpt lat="30.24622" lon="-97.734944" /><trkpt lat="30.256477" lon="-97.736977" /><trkpt lat="30.259791" lon="-97.736668" /><trkpt lat="30.267878" lon="-97.733765" /><trkpt lat="30.274963" lon="-97.731296" /><trkpt lat="30.28032" lon="-97.728919" /><trkpt lat="30.286657" lon="-97.724774" /><trkpt lat="30.295517" lon="-97.719128" /><trkpt lat="30.303236" lon="-97.7143" /><trkpt lat="30.309456" lon="-97.710246" /><trkpt lat="30.315108" lon="-97.707718" /><trkpt lat="30.321726" lon="-97.706722" /><trkpt lat="30.329141" lon="-97.705543" /><trkpt lat="30.333361" lon="-97.703678" /><trkpt lat="30.341538" lon="-97.698506" /><trkpt lat="30.357311" lon="-97.688446" /><trkpt lat="30.370351" lon="-97.680298" /><trkpt lat="30.379696" lon="-97.674483" /><trkpt lat="30.389205" lon="-97.672138" /><trkpt lat="30.394947" lon="-97.671544" /><trkpt lat="30.400602" lon="-97.673923" /><trkpt lat="30.405274" lon="-97.67492" /><trkpt lat="30.411657" lon="-97.673855" /><trkpt lat="30.422289" lon="-97.671819" /><trkpt lat="30.435942" lon="-97.66926" /><trkpt lat="30.446833" lon="-97.667165" /><trkpt lat="30.454659" lon="-97.666147" /><trkpt lat="30.461259" lon="-97.667836" /><trkpt lat="30.469026" lon="-97.670302" /><trkpt lat="30.480063" lon="-97.673766" /><trkpt lat="30.495894" lon="-97.679007" /><trkpt lat="30.507063" lon="-97.68498" /><trkpt lat="30.515192" lon="-97.68747" /><trkpt lat="30.531516" lon="-97.69133" /><trkpt lat="30.537497" lon="-97.692155" /><trkpt lat="30.553875" lon="-97.692392" /><trkpt lat="30.580106" lon="-97.692766" /><trkpt lat="30.588574" lon="-97.692145" /><trkpt lat="30.596606" lon="-97.689618" /><trkpt lat="30.601099" lon="-97.687341" /><trkpt lat="30.607248" lon="-97.685185" /><trkpt lat="30.611949" lon="-97.683325" /><trkpt lat="30.619615" lon="-97.681033" /><trkpt lat="30.621189" lon="-97.680552" /><trkpt lat="30.623918" lon="-97.679415" /><trkpt lat="30.626963" lon="-97.677943" /><trkpt lat="30.629943" lon="-97.677943" /><trkpt lat="30.63042" lon="-97.67795" /><trkpt lat="30.633245" lon="-97.677986" /><trkpt lat="30.635016" lon="-97.678021" /><trkpt lat="30.636596" lon="-97.677558" /></trkseg></trk><wpt lat="32.5143898" lon="-96.8066615"><name>Red Oak, TX</name><desc>69.0 kWh</desc></wpt><wpt lat="30.6370152" lon="-97.6775634"><name>Georgetown, TX</name><desc>57.0 kWh</desc></wpt><wpt lat="29.6046366" lon="-98.4504734"><name>San Antonio, TX - North Loop 1604 East</name><desc>42.0 kWh</desc></wpt><wpt lat="30.6370152" lon="-97.6775634"><name>Georgetown, TX</name><desc>57.0 kWh</desc></wpt></gpx>