<?xml version='1.0' encoding='utf-8'?>
<gpx version="1.1" creator="Road Replay" xmlns="http://www.topografix.com/GPX/1/1"><metadata><name>Oct 2024 — Addison → Santa Fe</name></metadata><wpt lat="32.9601193" lon="-96.8300029"><name>Addison, TX</name><desc>62.119 kWh</desc></wpt><wpt lat="34.1513105" lon="-99.2860857"><name>Vernon, TX</name><desc>51.47 kWh</desc></wpt><wpt lat="35.1919954" lon="-101.8286328"><name>Amarillo, TX - East Interstate 40</name><desc>60.431 kWh</desc></wpt><wpt lat="34.93867" lon="-104.682489"><name>Santa Rosa, NM</name><desc>49.103 kWh</desc></wpt><wpt lat="35.6876096" lon="-105.938456"><name>Santa Fe, NM</name><desc>107.13 kWh</desc></wpt><wpt lat="35.6876096" lon="-105.938456"><name>Santa Fe, NM</name><desc>44.449 kWh</desc></wpt><wpt lat="35.1719425" lon="-103.72504"><name>Tucumcari, NM</name><desc>47.852 kWh</desc></wpt><wpt lat="35.1919954" lon="-101.8286328"><name>Amarillo, TX - East Interstate 40</name><desc>52.232 kWh</desc></wpt><wpt lat="34.1513105" lon="-99.2860857"><name>Vernon, TX</name><desc>65.121 kWh</desc></wpt><wpt lat="32.9601193" lon="-96.8300029"><name>Addison, TX</name><desc>55.265 kWh</desc></wpt></gpx>