<?xml version='1.0' encoding='utf-8'?>
<gpx version="1.1" creator="Tesla Travel Map" xmlns="http://www.topografix.com/GPX/1/1"><metadata><name>Apr 2024 — New Boston</name></metadata><trk><name>Apr 2024 — New Boston</name><trkseg><trkpt lat="33.4598415" lon="-94.4154787" /><trkpt lat="33.461097" lon="-94.417163" /><trkpt lat="33.461471" lon="-94.417396" /><trkpt lat="33.461575" lon="-94.422266" /><trkpt lat="33.461577" lon="-94.427634" /><trkpt lat="33.462241" lon="-94.431318" /><trkpt lat="33.463054" lon="-94.433302" /><trkpt lat="33.4638" lon="-94.435111" /><trkpt lat="33.465626" lon="-94.43956" /><trkpt lat="33.469698" lon="-94.449488" /><trkpt lat="33.470114" lon="-94.451004" /><trkpt lat="33.470493" lon="-94.453642" /><trkpt lat="33.470713" lon="-94.454965" /><trkpt lat="33.471252" lon="-94.457624" /><trkpt lat="33.471934" lon="-94.457501" /><trkpt lat="33.472496" lon="-94.455898" /><trkpt lat="33.471981" lon="-94.455464" /><trkpt lat="33.471482" lon="-94.455966" /><trkpt lat="33.469856" lon="-94.459465" /><trkpt lat="33.465809" lon="-94.46842" /><trkpt lat="33.464305" lon="-94.471785" /><trkpt lat="33.458792" lon="-94.484214" /><trkpt lat="33.450981" lon="-94.501908" /><trkpt lat="33.449533" lon="-94.505131" /><trkpt lat="33.446317" lon="-94.51239" /><trkpt lat="33.442825" lon="-94.520225" /><trkpt lat="33.439586" lon="-94.525885" /><trkpt lat="33.437831" lon="-94.528299" /><trkpt lat="33.426519" lon="-94.543493" /><trkpt lat="33.422069" lon="-94.549427" /><trkpt lat="33.418348" lon="-94.554405" /><trkpt lat="33.414397" lon="-94.559715" /><trkpt lat="33.407702" lon="-94.568674" /><trkpt lat="33.404967" lon="-94.572325" /><trkpt lat="33.396758" lon="-94.583275" /><trkpt lat="33.392498" lon="-94.589037" /><trkpt lat="33.389912" lon="-94.593281" /><trkpt lat="33.384468" lon="-94.603304" /><trkpt lat="33.377823" lon="-94.615566" /><trkpt lat="33.371741" lon="-94.626479" /><trkpt lat="33.366874" lon="-94.632197" /><trkpt lat="33.3593" lon="-94.641023" /><trkpt lat="33.340764" lon="-94.662564" /><trkpt lat="33.321082" lon="-94.685536" /><trkpt lat="33.30977" lon="-94.699419" /><trkpt lat="33.29842" lon="-94.714785" /><trkpt lat="33.296792" lon="-94.719657" /><trkpt lat="33.294712" lon="-94.736567" /><trkpt lat="33.292861" lon="-94.753863" /><trkpt lat="33.290844" lon="-94.772407" /><trkpt lat="33.289489" lon="-94.780195" /><trkpt lat="33.288452" lon="-94.783441" /><trkpt lat="33.285997" lon="-94.788929" /><trkpt lat="33.277734" lon="-94.803261" /><trkpt lat="33.272521" lon="-94.812178" /><trkpt lat="33.263409" lon="-94.827764" /><trkpt lat="33.253081" lon="-94.845502" /><trkpt lat="33.250174" lon="-94.850461" /><trkpt lat="33.244507" lon="-94.860346" /><trkpt lat="33.242612" lon="-94.863492" /><trkpt lat="33.231368" lon="-94.882623" /><trkpt lat="33.227611" lon="-94.887152" /><trkpt lat="33.224151" lon="-94.890241" /><trkpt lat="33.221133" lon="-94.892748" /><trkpt lat="33.206108" lon="-94.907438" /><trkpt lat="33.203558" lon="-94.910388" /><trkpt lat="33.200839" lon="-94.914527" /><trkpt lat="33.199447" lon="-94.917196" /><trkpt lat="33.198202" lon="-94.920083" /><trkpt lat="33.193541" lon="-94.931451" /><trkpt lat="33.188561" lon="-94.94361" /><trkpt lat="33.184475" lon="-94.953587" /><trkpt lat="33.181412" lon="-94.962333" /><trkpt lat="33.177529" lon="-94.974805" /><trkpt lat="33.174881" lon="-94.983362" /><trkpt lat="33.171478" lon="-94.994341" /><trkpt lat="33.169332" lon="-95.001247" /><trkpt lat="33.165056" lon="-95.015047" /><trkpt lat="33.160083" lon="-95.031151" /><trkpt lat="33.158506" lon="-95.03651" /><trkpt lat="33.158354" lon="-95.039198" /><trkpt lat="33.159128" lon="-95.060029" /><trkpt lat="33.159442" lon="-95.072767" /><trkpt lat="33.159641" lon="-95.081279" /><trkpt lat="33.160138" lon="-95.101959" /><trkpt lat="33.160302" lon="-95.108009" /><trkpt lat="33.160454" lon="-95.113223" /><trkpt lat="33.160655" lon="-95.118003" /><trkpt lat="33.160894" lon="-95.123568" /><trkpt lat="33.161188" lon="-95.130749" /><trkpt lat="33.161253" lon="-95.132482" /><trkpt lat="33.162619" lon="-95.164001" /><trkpt lat="33.162835" lon="-95.175502" /><trkpt lat="33.162293" lon="-95.178299" /><trkpt lat="33.159945" lon="-95.18631" /><trkpt lat="33.159616" lon="-95.201225" /><trkpt lat="33.160041" lon="-95.204226" /><trkpt lat="33.162332" lon="-95.213337" /><trkpt lat="33.162761" lon="-95.216416" /><trkpt lat="33.162859" lon="-95.219325" /><trkpt lat="33.162632" lon="-95.223333" /><trkpt lat="33.162022" lon="-95.230289" /><trkpt lat="33.161933" lon="-95.234553" /><trkpt lat="33.162213" lon="-95.239072" /><trkpt lat="33.163156" lon="-95.250687" /><trkpt lat="33.164347" lon="-95.274323" /><trkpt lat="33.165273" lon="-95.290269" /><trkpt lat="33.166143" lon="-95.305891" /><trkpt lat="33.166889" lon="-95.319807" /><trkpt lat="33.167341" lon="-95.329494" /><trkpt lat="33.167327" lon="-95.33463" /><trkpt lat="33.167245" lon="-95.345261" /><trkpt lat="33.166771" lon="-95.355371" /><trkpt lat="33.16639" lon="-95.366737" /><trkpt lat="33.166314" lon="-95.389198" /><trkpt lat="33.165805" lon="-95.393725" /><trkpt lat="33.163303" lon="-95.401711" /><trkpt lat="33.160449" lon="-95.410495" /><trkpt lat="33.155215" lon="-95.426553" /><trkpt lat="33.153891" lon="-95.430632" /><trkpt lat="33.15039" lon="-95.441267" /><trkpt lat="33.148601" lon="-95.447105" /><trkpt lat="33.14782" lon="-95.451037" /><trkpt lat="33.14733" lon="-95.45505" /><trkpt lat="33.146973" lon="-95.458298" /><trkpt lat="33.146788" lon="-95.462503" /><trkpt lat="33.146797" lon="-95.468349" /><trkpt lat="33.146808" lon="-95.476277" /><trkpt lat="33.146823" lon="-95.484133" /><trkpt lat="33.146831" lon="-95.490946" /><trkpt lat="33.146827" lon="-95.495124" /><trkpt lat="33.146845" lon="-95.503287" /><trkpt lat="33.146877" lon="-95.514667" /><trkpt lat="33.147143" lon="-95.519392" /><trkpt lat="33.147827" lon="-95.527054" /><trkpt lat="33.148238" lon="-95.532814" /><trkpt lat="33.148035" lon="-95.535899" /><trkpt lat="33.146634" lon="-95.547649" /><trkpt lat="33.146062" lon="-95.55202" /><trkpt lat="33.145216" lon="-95.559068" /><trkpt lat="33.144951" lon="-95.560581" /><trkpt lat="33.144523" lon="-95.562273" /><trkpt lat="33.143998" lon="-95.563812" /><trkpt lat="33.143514" lon="-95.564979" /><trkpt lat="33.142813" lon="-95.566381" /><trkpt lat="33.142254" lon="-95.567308" /><trkpt lat="33.141249" lon="-95.568712" /><trkpt lat="33.139168" lon="-95.57118" /><trkpt lat="33.138026" lon="-95.57223" /><trkpt lat="33.13792" lon="-95.572976" /><trkpt lat="33.137472" lon="-95.573538" /><trkpt lat="33.137631" lon="-95.57434" /><trkpt lat="33.137656" lon="-95.577966" /><trkpt lat="33.137654" lon="-95.581101" /><trkpt lat="33.137673" lon="-95.588938" /><trkpt lat="33.137716" lon="-95.59435" /><trkpt lat="33.138604" lon="-95.59654" /><trkpt lat="33.13862" lon="-95.59935" /><trkpt lat="33.138595" lon="-95.600886" /><trkpt lat="33.138539" lon="-95.601054" /></trkseg></trk><wpt lat="33.4598415" lon="-94.4154787"><name>New Boston, TX</name><desc>11.0 kWh</desc></wpt><wpt lat="33.1384886" lon="-95.6010143"><name>Sulphur Springs, TX</name><desc>45.0 kWh</desc></wpt></gpx>