<?xml version='1.0' encoding='utf-8'?>
<gpx version="1.1" creator="Road Replay" xmlns="http://www.topografix.com/GPX/1/1"><metadata><name>Apr 2024 — Addison → New Boston</name></metadata><wpt lat="32.9601193" lon="-96.8300029"><name>Addison, TX</name><desc>67.0 kWh</desc></wpt><wpt lat="33.4598415" lon="-94.4154787"><name>New Boston, TX</name><desc>11.0 kWh</desc></wpt><wpt lat="33.1384886" lon="-95.6010143"><name>Sulphur Springs, TX</name><desc>45.0 kWh</desc></wpt><wpt lat="32.9601193" lon="-96.8300029"><name>Addison, TX</name><desc>55.0 kWh</desc></wpt></gpx>