<?xml version='1.0' encoding='utf-8'?>
<gpx version="1.1" creator="Road Replay" xmlns="http://www.topografix.com/GPX/1/1"><metadata><name>Jul 2025 — Quanah → Colorado · Rama + Akash (Akash's car)</name></metadata><wpt lat="34.2937246" lon="-99.7423674"><name>Quanah, TX</name><desc>60.1378 kWh</desc></wpt><wpt lat="35.2806227" lon="-101.8312825"><name>Amarillo, TX - River Road</name><desc>34.8516 kWh</desc></wpt><wpt lat="36.4507836" lon="-103.184797"><name>Clayton, NM</name><desc>33.5914 kWh</desc></wpt><wpt lat="37.169397" lon="-104.500541"><name>Trinidad, CO</name><desc>62.6399 kWh</desc></wpt><wpt lat="38.263995" lon="-104.6141867"><name>Pueblo, CO</name><desc>45.0393 kWh</desc></wpt><wpt lat="38.8339578" lon="-104.825348"><name>Colorado Springs, CO</name><desc>40.8178 kWh</desc></wpt><wpt lat="39.5744" lon="-106.0965"><name>Frisco, CO - Summit Boulevard</name><desc>73.5173 kWh</desc></wpt><wpt lat="38.263995" lon="-104.6141867"><name>Pueblo, CO</name><desc>29.6539 kWh</desc></wpt><wpt lat="37.169397" lon="-104.500541"><name>Trinidad, CO</name><desc>35.971 kWh</desc></wpt><wpt lat="36.4507836" lon="-103.184797"><name>Clayton, NM</name><desc>7.655 kWh</desc></wpt><wpt lat="35.1919954" lon="-101.8286328"><name>Amarillo, TX - East Interstate 40</name><desc>82.27 kWh</desc></wpt><wpt lat="33.8166258" lon="-98.194682"><name>Henrietta, TX</name><desc>49.253 kWh</desc></wpt></gpx>