<?xml version='1.0' encoding='utf-8'?>
<gpx version="1.1" creator="Tesla Travel Map" xmlns="http://www.topografix.com/GPX/1/1"><metadata><name>Oct 2024 — Vernon</name></metadata><trk><name>Oct 2024 — Vernon</name><trkseg><trkpt lat="34.1513105" lon="-99.2860857" /><trkpt lat="34.154465" lon="-99.28446" /><trkpt lat="34.158973" lon="-99.284547" /><trkpt lat="34.16049" lon="-99.287437" /><trkpt lat="34.160792" lon="-99.298909" /><trkpt lat="34.161315" lon="-99.30978" /><trkpt lat="34.164453" lon="-99.314157" /><trkpt lat="34.174469" lon="-99.32046" /><trkpt lat="34.184861" lon="-99.328994" /><trkpt lat="34.191003" lon="-99.344551" /><trkpt lat="34.211443" lon="-99.378979" /><trkpt lat="34.21725" lon="-99.391524" /><trkpt lat="34.231878" lon="-99.43473" /><trkpt lat="34.242575" lon="-99.455576" /><trkpt lat="34.250747" lon="-99.479511" /><trkpt lat="34.255453" lon="-99.503965" /><trkpt lat="34.256543" lon="-99.515625" /><trkpt lat="34.257595" lon="-99.52185" /><trkpt lat="34.251255" lon="-99.547321" /><trkpt lat="34.257071" lon="-99.573799" /><trkpt lat="34.268474" lon="-99.625591" /><trkpt lat="34.272948" lon="-99.664312" /><trkpt lat="34.284728" lon="-99.70207" /><trkpt lat="34.286817" lon="-99.726303" /><trkpt lat="34.289512" lon="-99.740735" /><trkpt lat="34.291834" lon="-99.753259" /><trkpt lat="34.293231" lon="-99.762533" /><trkpt lat="34.300861" lon="-99.795416" /><trkpt lat="34.314607" lon="-99.823077" /><trkpt lat="34.319315" lon="-99.829398" /><trkpt lat="34.3305" lon="-99.862616" /><trkpt lat="34.333209" lon="-99.877995" /><trkpt lat="34.335102" lon="-99.89087" /><trkpt lat="34.347434" lon="-99.934195" /><trkpt lat="34.356474" lon="-99.966041" /><trkpt lat="34.363519" lon="-99.988413" /><trkpt lat="34.368549" lon="-100.003725" /><trkpt lat="34.372761" lon="-100.022429" /><trkpt lat="34.377021" lon="-100.041656" /><trkpt lat="34.388741" lon="-100.094422" /><trkpt lat="34.392319" lon="-100.105449" /><trkpt lat="34.395563" lon="-100.11472" /><trkpt lat="34.400453" lon="-100.128706" /><trkpt lat="34.412769" lon="-100.164296" /><trkpt lat="34.418861" lon="-100.184058" /><trkpt lat="34.423686" lon="-100.197038" /><trkpt lat="34.426975" lon="-100.205904" /><trkpt lat="34.429914" lon="-100.213796" /><trkpt lat="34.432542" lon="-100.220835" /><trkpt lat="34.434268" lon="-100.225443" /><trkpt lat="34.435815" lon="-100.229596" /><trkpt lat="34.437836" lon="-100.235262" /><trkpt lat="34.444283" lon="-100.256974" /><trkpt lat="34.450507" lon="-100.271127" /><trkpt lat="34.454772" lon="-100.280776" /><trkpt lat="34.460369" lon="-100.291902" /><trkpt lat="34.464495" lon="-100.299692" /><trkpt lat="34.472451" lon="-100.314712" /><trkpt lat="34.480417" lon="-100.329817" /><trkpt lat="34.4832" lon="-100.33946" /><trkpt lat="34.488151" lon="-100.345863" /><trkpt lat="34.494178" lon="-100.353063" /><trkpt lat="34.500563" lon="-100.361956" /><trkpt lat="34.502341" lon="-100.374999" /><trkpt lat="34.511055" lon="-100.391281" /><trkpt lat="34.516543" lon="-100.398795" /><trkpt lat="34.523215" lon="-100.406131" /><trkpt lat="34.530312" lon="-100.418569" /><trkpt lat="34.537373" lon="-100.432488" /><trkpt lat="34.541071" lon="-100.437811" /><trkpt lat="34.543974" lon="-100.439043" /><trkpt lat="34.551524" lon="-100.438832" /><trkpt lat="34.555814" lon="-100.439041" /><trkpt lat="34.563101" lon="-100.441292" /><trkpt lat="34.574588" lon="-100.435704" /><trkpt lat="34.578477" lon="-100.434949" /><trkpt lat="34.581334" lon="-100.436962" /><trkpt lat="34.592286" lon="-100.45425" /><trkpt lat="34.59855" lon="-100.463682" /><trkpt lat="34.614052" lon="-100.469618" /><trkpt lat="34.631941" lon="-100.47604" /><trkpt lat="34.654358" lon="-100.478834" /><trkpt lat="34.66397" lon="-100.481273" /><trkpt lat="34.674618" lon="-100.484233" /><trkpt lat="34.686212" lon="-100.491636" /><trkpt lat="34.700387" lon="-100.504287" /><trkpt lat="34.707819" lon="-100.51143" /><trkpt lat="34.710472" lon="-100.517058" /><trkpt lat="34.71233" lon="-100.521359" /><trkpt lat="34.717144" lon="-100.527536" /><trkpt lat="34.723746" lon="-100.533611" /><trkpt lat="34.728953" lon="-100.538331" /><trkpt lat="34.735001" lon="-100.543979" /><trkpt lat="34.742712" lon="-100.551196" /><trkpt lat="34.757541" lon="-100.564785" /><trkpt lat="34.784035" lon="-100.580486" /><trkpt lat="34.805353" lon="-100.585046" /><trkpt lat="34.815434" lon="-100.593754" /><trkpt lat="34.834242" lon="-100.622089" /><trkpt lat="34.848784" lon="-100.643653" /><trkpt lat="34.861496" lon="-100.651817" /><trkpt lat="34.866316" lon="-100.661639" /><trkpt lat="34.868763" lon="-100.667907" /><trkpt lat="34.869942" lon="-100.689403" /><trkpt lat="34.870923" lon="-100.700112" /><trkpt lat="34.87823" lon="-100.723674" /><trkpt lat="34.881467" lon="-100.738664" /><trkpt lat="34.893639" lon="-100.759972" /><trkpt lat="34.900948" lon="-100.770783" /><trkpt lat="34.904915" lon="-100.779486" /><trkpt lat="34.910352" lon="-100.792119" /><trkpt lat="34.913474" lon="-100.818446" /><trkpt lat="34.921884" lon="-100.846849" /><trkpt lat="34.928258" lon="-100.866357" /><trkpt lat="34.933348" lon="-100.877701" /><trkpt lat="34.937634" lon="-100.887222" /><trkpt lat="34.941526" lon="-100.895342" /><trkpt lat="34.943536" lon="-100.899117" /><trkpt lat="34.947352" lon="-100.904568" /><trkpt lat="34.955702" lon="-100.919848" /><trkpt lat="34.964604" lon="-100.941418" /><trkpt lat="34.970078" lon="-100.96432" /><trkpt lat="34.975172" lon="-100.983432" /><trkpt lat="34.989164" lon="-101.008533" /><trkpt lat="35.02318" lon="-101.078392" /><trkpt lat="35.027764" lon="-101.088259" /><trkpt lat="35.031619" lon="-101.115475" /><trkpt lat="35.034116" lon="-101.18257" /><trkpt lat="35.040559" lon="-101.216847" /><trkpt lat="35.049296" lon="-101.230293" /><trkpt lat="35.070924" lon="-101.255323" /><trkpt lat="35.088453" lon="-101.300839" /><trkpt lat="35.103773" lon="-101.340339" /><trkpt lat="35.105359" lon="-101.347168" /><trkpt lat="35.110215" lon="-101.359831" /><trkpt lat="35.112237" lon="-101.364507" /><trkpt lat="35.114298" lon="-101.367822" /><trkpt lat="35.122407" lon="-101.388928" /><trkpt lat="35.130684" lon="-101.414109" /><trkpt lat="35.142704" lon="-101.455401" /><trkpt lat="35.152336" lon="-101.488624" /><trkpt lat="35.161384" lon="-101.519947" /><trkpt lat="35.173651" lon="-101.562283" /><trkpt lat="35.178626" lon="-101.580639" /><trkpt lat="35.182837" lon="-101.611203" /><trkpt lat="35.186182" lon="-101.636065" /><trkpt lat="35.190676" lon="-101.669384" /><trkpt lat="35.193039" lon="-101.686893" /><trkpt lat="35.193965" lon="-101.694626" /><trkpt lat="35.19278" lon="-101.700584" /><trkpt lat="35.192895" lon="-101.72433" /><trkpt lat="35.192834" lon="-101.743019" /><trkpt lat="35.192739" lon="-101.776681" /><trkpt lat="35.192693" lon="-101.791856" /><trkpt lat="35.193401" lon="-101.805992" /><trkpt lat="35.193405" lon="-101.811689" /><trkpt lat="35.192988" lon="-101.817382" /><trkpt lat="35.192861" lon="-101.825156" /><trkpt lat="35.192769" lon="-101.829855" /><trkpt lat="35.191996" lon="-101.828589" /><trkpt lat="35.192022" lon="-101.823229" /><trkpt lat="35.19217" lon="-101.819642" /><trkpt lat="35.192865" lon="-101.817718" /><trkpt lat="35.192857" lon="-101.821445" /><trkpt lat="35.19254" lon="-101.833793" /><trkpt lat="35.194651" lon="-101.848992" /><trkpt lat="35.195368" lon="-101.856724" /><trkpt lat="35.195315" lon="-101.867429" /><trkpt lat="35.194442" lon="-101.870745" /><trkpt lat="35.191913" lon="-101.875345" /><trkpt lat="35.191545" lon="-101.883676" /><trkpt lat="35.191329" lon="-101.89336" /><trkpt lat="35.190243" lon="-101.904823" /><trkpt lat="35.187576" lon="-101.913489" /><trkpt lat="35.1867" lon="-101.919888" /><trkpt lat="35.187068" lon="-101.934425" /><trkpt lat="35.187367" lon="-101.944492" /><trkpt lat="35.187792" lon="-101.963977" /><trkpt lat="35.187173" lon="-101.972305" /><trkpt lat="35.188914" lon="-101.978201" /><trkpt lat="35.189946" lon="-102.003713" /><trkpt lat="35.190847" lon="-102.04086" /><trkpt lat="35.191414" lon="-102.064296" /><trkpt lat="35.192123" lon="-102.096076" /><trkpt lat="35.192944" lon="-102.102614" /><trkpt lat="35.196219" lon="-102.115232" /><trkpt lat="35.200753" lon="-102.134208" /><trkpt lat="35.205765" lon="-102.154832" /><trkpt lat="35.208782" lon="-102.168104" /><trkpt lat="35.209362" lon="-102.188811" /><trkpt lat="35.209263" lon="-102.198894" /><trkpt lat="35.209668" lon="-102.214276" /><trkpt lat="35.210164" lon="-102.229023" /><trkpt lat="35.210617" lon="-102.247236" /><trkpt lat="35.215005" lon="-102.271448" /><trkpt lat="35.223751" lon="-102.317988" /><trkpt lat="35.227727" lon="-102.339159" /><trkpt lat="35.232378" lon="-102.363865" /><trkpt lat="35.237158" lon="-102.389341" /><trkpt lat="35.239098" lon="-102.402592" /><trkpt lat="35.238057" lon="-102.410567" /><trkpt lat="35.236433" lon="-102.42247" /><trkpt lat="35.237536" lon="-102.429952" /><trkpt lat="35.243205" lon="-102.441245" /><trkpt lat="35.248575" lon="-102.451617" /><trkpt lat="35.252753" lon="-102.471696" /><trkpt lat="35.25661" lon="-102.492259" /><trkpt lat="35.258185" lon="-102.501622" /><trkpt lat="35.264917" lon="-102.536126" /><trkpt lat="35.268499" lon="-102.557079" /><trkpt lat="35.27061" lon="-102.566222" /><trkpt lat="35.273648" lon="-102.5881" /><trkpt lat="35.272034" lon="-102.64385" /><trkpt lat="35.271806" lon="-102.64657" /><trkpt lat="35.271356" lon="-102.648881" /><trkpt lat="35.270352" lon="-102.653332" /><trkpt lat="35.269633" lon="-102.673648" /><trkpt lat="35.269821" lon="-102.677563" /><trkpt lat="35.270724" lon="-102.682785" /><trkpt lat="35.270737" lon="-102.689411" /><trkpt lat="35.269723" lon="-102.722865" /><trkpt lat="35.269305" lon="-102.726459" /><trkpt lat="35.268498" lon="-102.730442" /><trkpt lat="35.267416" lon="-102.734103" /><trkpt lat="35.258356" lon="-102.759779" /><trkpt lat="35.254334" lon="-102.768907" /><trkpt lat="35.252024" lon="-102.774497" /><trkpt lat="35.251329" lon="-102.777444" /><trkpt lat="35.25075" lon="-102.781922" /><trkpt lat="35.250397" lon="-102.785215" /><trkpt lat="35.246423" lon="-102.799424" /><trkpt lat="35.245962" lon="-102.802257" /><trkpt lat="35.244633" lon="-102.816373" /><trkpt lat="35.241332" lon="-102.825777" /><trkpt lat="35.231601" lon="-102.852868" /><trkpt lat="35.223299" lon="-102.87966" /><trkpt lat="35.211837" lon="-102.917934" /><trkpt lat="35.201224" lon="-102.941407" /><trkpt lat="35.191791" lon="-102.968048" /><trkpt lat="35.185696" lon="-102.985994" /><trkpt lat="35.181293" lon="-103.022754" /><trkpt lat="35.1811" lon="-103.025877" /><trkpt lat="35.182387" lon="-103.036811" /><trkpt lat="35.182814" lon="-103.043361" /><trkpt lat="35.182918" lon="-103.069656" /><trkpt lat="35.174373" lon="-103.097799" /><trkpt lat="35.165519" lon="-103.128174" /><trkpt lat="35.14009" lon="-103.202384" /><trkpt lat="35.12983" lon="-103.231299" /><trkpt lat="35.123017" lon="-103.247843" /><trkpt lat="35.113763" lon="-103.28057" /><trkpt lat="35.112799" lon="-103.296243" /><trkpt lat="35.112513" lon="-103.314861" /><trkpt lat="35.112174" lon="-103.336423" /><trkpt lat="35.111978" lon="-103.35364" /><trkpt lat="35.112619" lon="-103.357742" /><trkpt lat="35.114772" lon="-103.363573" /><trkpt lat="35.127777" lon="-103.395298" /><trkpt lat="35.144824" lon="-103.437022" /><trkpt lat="35.150419" lon="-103.446621" /><trkpt lat="35.162984" lon="-103.46202" /><trkpt lat="35.17336" lon="-103.487015" /><trkpt lat="35.173441" lon="-103.527484" /><trkpt lat="35.173164" lon="-103.571788" /><trkpt lat="35.17262" lon="-103.62879" /><trkpt lat="35.172439" lon="-103.667237" /><trkpt lat="35.172011" lon="-103.67099" /><trkpt lat="35.170728" lon="-103.67516" /><trkpt lat="35.168992" lon="-103.678418" /><trkpt lat="35.163837" lon="-103.686259" /><trkpt lat="35.157798" lon="-103.699178" /><trkpt lat="35.152828" lon="-103.71009" /><trkpt lat="35.151814" lon="-103.714331" /><trkpt lat="35.151636" lon="-103.724664" /><trkpt lat="35.151804" lon="-103.743033" /><trkpt lat="35.152306" lon="-103.746285" /><trkpt lat="35.15485" lon="-103.754717" /><trkpt lat="35.1567" lon="-103.760973" /><trkpt lat="35.156876" lon="-103.763057" /><trkpt lat="35.15664" lon="-103.765291" /><trkpt lat="35.155809" lon="-103.767817" /><trkpt lat="35.151151" lon="-103.776894" /><trkpt lat="35.150056" lon="-103.779496" /><trkpt lat="35.149123" lon="-103.783364" /><trkpt lat="35.147145" lon="-103.799071" /><trkpt lat="35.142731" lon="-103.816653" /><trkpt lat="35.139912" lon="-103.826195" /><trkpt lat="35.119447" lon="-103.863607" /><trkpt lat="35.116699" lon="-103.869484" /><trkpt lat="35.118597" lon="-103.891085" /><trkpt lat="35.125651" lon="-103.939879" /><trkpt lat="35.125987" lon="-103.949272" /><trkpt lat="35.124275" lon="-103.959078" /><trkpt lat="35.113591" lon="-103.998695" /><trkpt lat="35.099631" lon="-104.050351" /><trkpt lat="35.093589" lon="-104.067784" /><trkpt lat="35.092024" lon="-104.076584" /><trkpt lat="35.066988" lon="-104.178246" /><trkpt lat="35.069541" lon="-104.212253" /><trkpt lat="35.068663" lon="-104.240516" /><trkpt lat="35.065349" lon="-104.271694" /><trkpt lat="35.060343" lon="-104.307707" /><trkpt lat="35.052038" lon="-104.338858" /><trkpt lat="35.047188" lon="-104.377603" /><trkpt lat="35.038546" lon="-104.394016" /><trkpt lat="35.020697" lon="-104.433803" /><trkpt lat="35.011693" lon="-104.480549" /><trkpt lat="35.007192" lon="-104.515329" /><trkpt lat="34.997615" lon="-104.535974" /><trkpt lat="34.95483" lon="-104.625384" /><trkpt lat="34.947895" lon="-104.641545" /><trkpt lat="34.945126" lon="-104.656389" /><trkpt lat="34.943714" lon="-104.670063" /><trkpt lat="34.945518" lon="-104.673782" /><trkpt lat="34.946402" lon="-104.673109" /><trkpt lat="34.945203" lon="-104.671958" /><trkpt lat="34.944704" lon="-104.673701" /><trkpt lat="34.944147" lon="-104.677507" /><trkpt lat="34.93869" lon="-104.682509" /><trkpt lat="34.937825" lon="-104.684754" /><trkpt lat="34.940446" lon="-104.689408" /><trkpt lat="34.938746" lon="-104.69203" /><trkpt lat="34.938435" lon="-104.693013" /><trkpt lat="34.938331" lon="-104.693739" /><trkpt lat="34.938392" lon="-104.69469" /><trkpt lat="34.938645" lon="-104.695534" /><trkpt lat="34.940202" lon="-104.698295" /><trkpt lat="34.942517" lon="-104.702326" /><trkpt lat="34.944288" lon="-104.705193" /><trkpt lat="34.947759" lon="-104.708122" /><trkpt lat="34.948394" lon="-104.709044" /><trkpt lat="34.948606" lon="-104.710396" /><trkpt lat="34.948656" lon="-104.712628" /><trkpt lat="34.951428" lon="-104.717655" /><trkpt lat="34.961584" lon="-104.735475" /><trkpt lat="34.963589" lon="-104.741062" /><trkpt lat="34.965039" lon="-104.750539" /><trkpt lat="34.966686" lon="-104.768367" /><trkpt lat="34.966819" lon="-104.775902" /><trkpt lat="34.968056" lon="-104.782601" /><trkpt lat="34.96895" lon="-104.78802" /><trkpt lat="34.969677" lon="-104.855397" /><trkpt lat="34.970271" lon="-104.86904" /><trkpt lat="34.972109" lon="-104.904352" /><trkpt lat="34.976688" lon="-104.993608" /><trkpt lat="34.980199" lon="-105.064361" /><trkpt lat="34.981253" lon="-105.084882" /><trkpt lat="34.985449" lon="-105.167623" /><trkpt lat="34.988326" lon="-105.226292" /><trkpt lat="34.99146" lon="-105.290636" /><trkpt lat="34.995392" lon="-105.372421" /><trkpt lat="34.997079" lon="-105.407317" /><trkpt lat="34.998783" lon="-105.442646" /><trkpt lat="34.999557" lon="-105.459289" /><trkpt lat="35.001121" lon="-105.471422" /><trkpt lat="35.005255" lon="-105.504715" /><trkpt lat="35.006141" lon="-105.537717" /><trkpt lat="35.003408" lon="-105.547562" /><trkpt lat="35.002281" lon="-105.55793" /><trkpt lat="35.00601" lon="-105.621865" /><trkpt lat="35.007737" lon="-105.652001" /><trkpt lat="35.008497" lon="-105.660753" /><trkpt lat="35.00909" lon="-105.662365" /><trkpt lat="35.00969" lon="-105.663654" /><trkpt lat="35.012024" lon="-105.66622" /><trkpt lat="35.015348" lon="-105.668125" /><trkpt lat="35.018638" lon="-105.670085" /><trkpt lat="35.023305" lon="-105.672691" /><trkpt lat="35.031072" lon="-105.677015" /><trkpt lat="35.041183" lon="-105.682598" /><trkpt lat="35.057781" lon="-105.691802" /><trkpt lat="35.076354" lon="-105.702195" /><trkpt lat="35.093494" lon="-105.711734" /><trkpt lat="35.104144" lon="-105.717644" /><trkpt lat="35.116498" lon="-105.725273" /><trkpt lat="35.128558" lon="-105.733983" /><trkpt lat="35.138855" lon="-105.741483" /><trkpt lat="35.155123" lon="-105.753268" /><trkpt lat="35.180706" lon="-105.771835" /><trkpt lat="35.196772" lon="-105.78348" /><trkpt lat="35.213004" lon="-105.795254" /><trkpt lat="35.226663" lon="-105.80226" /><trkpt lat="35.252048" lon="-105.807946" /><trkpt lat="35.264098" lon="-105.808934" /><trkpt lat="35.27372" lon="-105.812914" /><trkpt lat="35.283394" lon="-105.822786" /><trkpt lat="35.295106" lon="-105.82595" /><trkpt lat="35.31407" lon="-105.830381" /><trkpt lat="35.333258" lon="-105.836101" /><trkpt lat="35.350005" lon="-105.845278" /><trkpt lat="35.357746" lon="-105.846303" /><trkpt lat="35.370759" lon="-105.847285" /><trkpt lat="35.379871" lon="-105.850684" /><trkpt lat="35.388009" lon="-105.854184" /><trkpt lat="35.393539" lon="-105.857103" /><trkpt lat="35.406814" lon="-105.864321" /><trkpt lat="35.42596" lon="-105.876528" /><trkpt lat="35.443365" lon="-105.886406" /><trkpt lat="35.454623" lon="-105.89271" /><trkpt lat="35.458828" lon="-105.895144" /><trkpt lat="35.46057" lon="-105.896201" /><trkpt lat="35.462875" lon="-105.897978" /><trkpt lat="35.465357" lon="-105.899908" /><trkpt lat="35.46988" lon="-105.903382" /><trkpt lat="35.472929" lon="-105.905739" /><trkpt lat="35.474254" lon="-105.906522" /><trkpt lat="35.479296" lon="-105.908542" /><trkpt lat="35.48186" lon="-105.90801" /><trkpt lat="35.484598" lon="-105.905394" /><trkpt lat="35.486078" lon="-105.903552" /><trkpt lat="35.488146" lon="-105.902479" /><trkpt lat="35.491975" lon="-105.902946" /><trkpt lat="35.496341" lon="-105.902125" /><trkpt lat="35.506018" lon="-105.898437" /><trkpt lat="35.510748" lon="-105.896633" /><trkpt lat="35.518495" lon="-105.893714" /><trkpt lat="35.530665" lon="-105.889099" /><trkpt lat="35.534814" lon="-105.88753" /><trkpt lat="35.536895" lon="-105.886759" /><trkpt lat="35.542075" lon="-105.884822" /><trkpt lat="35.54753" lon="-105.882625" /><trkpt lat="35.553114" lon="-105.879598" /><trkpt lat="35.555751" lon="-105.878143" /><trkpt lat="35.558037" lon="-105.880863" /><trkpt lat="35.563816" lon="-105.884233" /><trkpt lat="35.572406" lon="-105.890952" /><trkpt lat="35.580192" lon="-105.898558" /><trkpt lat="35.584863" lon="-105.900478" /><trkpt lat="35.593962" lon="-105.905132" /><trkpt lat="35.601547" lon="-105.909556" /><trkpt lat="35.614328" lon="-105.91703" /><trkpt lat="35.620118" lon="-105.919261" /><trkpt lat="35.624588" lon="-105.920606" /><trkpt lat="35.629074" lon="-105.923255" /><trkpt lat="35.632812" lon="-105.925581" /><trkpt lat="35.634426" lon="-105.927019" /><trkpt lat="35.63497" lon="-105.92757" /><trkpt lat="35.635819" lon="-105.928475" /><trkpt lat="35.636684" lon="-105.929296" /><trkpt lat="35.637473" lon="-105.929854" /><trkpt lat="35.63888" lon="-105.929338" /><trkpt lat="35.639626" lon="-105.929258" /><trkpt lat="35.640505" lon="-105.929562" /><trkpt lat="35.642627" lon="-105.930878" /><trkpt lat="35.650847" lon="-105.935965" /><trkpt lat="35.652254" lon="-105.936835" /><trkpt lat="35.654162" lon="-105.938144" /><trkpt lat="35.654707" lon="-105.938656" /><trkpt lat="35.655632" lon="-105.938866" /><trkpt lat="35.656739" lon="-105.939502" /><trkpt lat="35.658359" lon="-105.939892" /><trkpt lat="35.659437" lon="-105.939577" /><trkpt lat="35.662578" lon="-105.937634" /><trkpt lat="35.664131" lon="-105.936758" /><trkpt lat="35.665313" lon="-105.936514" /><trkpt lat="35.667122" lon="-105.93649" /><trkpt lat="35.669199" lon="-105.93624" /><trkpt lat="35.67005" lon="-105.936044" /><trkpt lat="35.671158" lon="-105.935742" /><trkpt lat="35.671732" lon="-105.935757" /><trkpt lat="35.672507" lon="-105.936054" /><trkpt lat="35.673048" lon="-105.936349" /><trkpt lat="35.673935" lon="-105.936727" /><trkpt lat="35.674683" lon="-105.937037" /><trkpt lat="35.675446" lon="-105.937121" /><trkpt lat="35.676639" lon="-105.936997" /><trkpt lat="35.677636" lon="-105.937302" /><trkpt lat="35.678332" lon="-105.937335" /><trkpt lat="35.680029" lon="-105.937709" /><trkpt lat="35.681004" lon="-105.937948" /><trkpt lat="35.681508" lon="-105.938093" /><trkpt lat="35.682156" lon="-105.938143" /><trkpt lat="35.682913" lon="-105.938196" /><trkpt lat="35.683998" lon="-105.937786" /><trkpt lat="35.684792" lon="-105.937647" /><trkpt lat="35.686015" lon="-105.937967" /><trkpt lat="35.686386" lon="-105.938258" /><trkpt lat="35.687498" lon="-105.937987" /><trkpt lat="35.6876096" lon="-105.938456" /><trkpt lat="35.687518" lon="-105.937526" /><trkpt lat="35.686547" lon="-105.936873" /><trkpt lat="35.686059" lon="-105.936898" /><trkpt lat="35.685211" lon="-105.937744" /><trkpt lat="35.683998" lon="-105.937786" /><trkpt lat="35.682566" lon="-105.938263" /><trkpt lat="35.681484" lon="-105.938086" /><trkpt lat="35.680234" lon="-105.937767" /><trkpt lat="35.678287" lon="-105.937333" /><trkpt lat="35.676895" lon="-105.937069" /><trkpt lat="35.675352" lon="-105.937121" /><trkpt lat="35.674335" lon="-105.936923" /><trkpt lat="35.673048" lon="-105.936349" /><trkpt lat="35.672291" lon="-105.935968" /><trkpt lat="35.671158" lon="-105.935742" /><trkpt lat="35.669583" lon="-105.936201" /><trkpt lat="35.667675" lon="-105.93659" /><trkpt lat="35.665428" lon="-105.936622" /><trkpt lat="35.663812" lon="-105.937012" /><trkpt lat="35.660316" lon="-105.939118" /><trkpt lat="35.657956" lon="-105.940057" /><trkpt lat="35.655538" lon="-105.938941" /><trkpt lat="35.654437" lon="-105.938713" /><trkpt lat="35.652921" lon="-105.937416" /><trkpt lat="35.649176" lon="-105.935094" /><trkpt lat="35.640455" lon="-105.929693" /><trkpt lat="35.639941" lon="-105.929462" /><trkpt lat="35.639441" lon="-105.929395" /><trkpt lat="35.638271" lon="-105.929731" /><trkpt lat="35.6347" lon="-105.931083" /><trkpt lat="35.635217" lon="-105.930641" /><trkpt lat="35.635424" lon="-105.929778" /><trkpt lat="35.635244" lon="-105.929017" /><trkpt lat="35.634826" lon="-105.928205" /><trkpt lat="35.634055" lon="-105.927186" /><trkpt lat="35.631786" lon="-105.925231" /><trkpt lat="35.623898" lon="-105.920597" /><trkpt lat="35.616327" lon="-105.918346" /><trkpt lat="35.60145" lon="-105.909805" /><trkpt lat="35.588901" lon="-105.903282" /><trkpt lat="35.580055" lon="-105.899512" /><trkpt lat="35.568976" lon="-105.889195" /><trkpt lat="35.554378" lon="-105.879818" /><trkpt lat="35.548304" lon="-105.882389" /><trkpt lat="35.542111" lon="-105.884967" /><trkpt lat="35.536643" lon="-105.887011" /><trkpt lat="35.529642" lon="-105.889676" /><trkpt lat="35.51394" lon="-105.895641" /><trkpt lat="35.506465" lon="-105.898473" /><trkpt lat="35.494742" lon="-105.902912" /><trkpt lat="35.489889" lon="-105.902584" /><trkpt lat="35.486157" lon="-105.903698" /><trkpt lat="35.484062" lon="-105.906427" /><trkpt lat="35.479341" lon="-105.908715" /><trkpt lat="35.473712" lon="-105.9064" /><trkpt lat="35.469793" lon="-105.903472" /><trkpt lat="35.463966" lon="-105.89885" /><trkpt lat="35.46057" lon="-105.896201" /><trkpt lat="35.458195" lon="-105.894785" /><trkpt lat="35.443365" lon="-105.886406" /><trkpt lat="35.418505" lon="-105.871445" /><trkpt lat="35.394763" lon="-105.857765" /><trkpt lat="35.385455" lon="-105.853101" /><trkpt lat="35.372045" lon="-105.847569" /><trkpt lat="35.354634" lon="-105.846104" /><trkpt lat="35.341719" lon="-105.84087" /><trkpt lat="35.31075" lon="-105.829568" /><trkpt lat="35.286134" lon="-105.823241" /><trkpt lat="35.272618" lon="-105.811704" /><trkpt lat="35.257349" lon="-105.808668" /><trkpt lat="35.223358" lon="-105.801464" /><trkpt lat="35.201966" lon="-105.787263" /><trkpt lat="35.180706" lon="-105.771835" /><trkpt lat="35.145799" lon="-105.746499" /><trkpt lat="35.13054" lon="-105.73547" /><trkpt lat="35.112471" lon="-105.722367" /><trkpt lat="35.093494" lon="-105.711734" /><trkpt lat="35.07278" lon="-105.700207" /><trkpt lat="35.041359" lon="-105.682694" /><trkpt lat="35.027191" lon="-105.674858" /><trkpt lat="35.020494" lon="-105.671142" /><trkpt lat="35.013436" lon="-105.667198" /><trkpt lat="35.008032" lon="-105.664088" /><trkpt lat="35.007917" lon="-105.65896" /><trkpt lat="35.00297" lon="-105.57374" /><trkpt lat="35.002337" lon="-105.549974" /><trkpt lat="35.005789" lon="-105.540095" /><trkpt lat="35.00484" lon="-105.502346" /><trkpt lat="34.999447" lon="-105.461357" /><trkpt lat="34.99844" lon="-105.440445" /><trkpt lat="34.996963" lon="-105.409361" /><trkpt lat="34.994463" lon="-105.357541" /><trkpt lat="34.989795" lon="-105.261944" /><trkpt lat="34.981581" lon="-105.095545" /><trkpt lat="34.979682" lon="-105.05814" /><trkpt lat="34.97447" lon="-104.954903" /><trkpt lat="34.970278" lon="-104.873705" /><trkpt lat="34.968978" lon="-104.811934" /><trkpt lat="34.968672" lon="-104.787021" /><trkpt lat="34.966755" lon="-104.777076" /><trkpt lat="34.966454" lon="-104.767211" /><trkpt lat="34.9636" lon="-104.741786" /><trkpt lat="34.958144" lon="-104.729531" /><trkpt lat="34.946204" lon="-104.707867" /><trkpt lat="34.94542" lon="-104.704046" /><trkpt lat="34.945571" lon="-104.697316" /><trkpt lat="34.948394" lon="-104.681463" /><trkpt lat="34.944492" lon="-104.672611" /><trkpt lat="34.943289" lon="-104.668632" /><trkpt lat="34.946895" lon="-104.645097" /><trkpt lat="34.952919" lon="-104.628495" /><trkpt lat="34.988193" lon="-104.554857" /><trkpt lat="35.006649" lon="-104.515954" /><trkpt lat="35.011503" lon="-104.492401" /><trkpt lat="35.015015" lon="-104.446946" /><trkpt lat="35.028573" lon="-104.415386" /><trkpt lat="35.036703" lon="-104.396845" /><trkpt lat="35.047228" lon="-104.37658" /><trkpt lat="35.049204" lon="-104.360829" /><trkpt lat="35.054351" lon="-104.328331" /><trkpt lat="35.061967" lon="-104.299725" /><trkpt lat="35.065127" lon="-104.270909" /><trkpt lat="35.069015" lon="-104.234455" /><trkpt lat="35.066437" lon="-104.189988" /><trkpt lat="35.066687" lon="-104.178448" /><trkpt lat="35.081179" lon="-104.119364" /><trkpt lat="35.09196" lon="-104.07584" /><trkpt lat="35.093539" lon="-104.064627" /><trkpt lat="35.10014" lon="-104.047461" /><trkpt lat="35.115184" lon="-103.991208" /><trkpt lat="35.124673" lon="-103.956104" /><trkpt lat="35.125809" lon="-103.947655" /><trkpt lat="35.123658" lon="-103.927232" /><trkpt lat="35.116739" lon="-103.879366" /><trkpt lat="35.116386" lon="-103.870068" /><trkpt lat="35.117759" lon="-103.866316" /><trkpt lat="35.139156" lon="-103.827271" /><trkpt lat="35.140563" lon="-103.823875" /><trkpt lat="35.146486" lon="-103.801238" /><trkpt lat="35.147943" lon="-103.790789" /><trkpt lat="35.149096" lon="-103.782183" /><trkpt lat="35.149682" lon="-103.779911" /><trkpt lat="35.150476" lon="-103.77777" /><trkpt lat="35.155376" lon="-103.768162" /><trkpt lat="35.156306" lon="-103.765731" /><trkpt lat="35.156633" lon="-103.763737" /><trkpt lat="35.156569" lon="-103.761677" /><trkpt lat="35.156246" lon="-103.759946" /><trkpt lat="35.152184" lon="-103.746799" /><trkpt lat="35.15163" lon="-103.743627" /><trkpt lat="35.151438" lon="-103.731105" /><trkpt lat="35.15093" lon="-103.726074" /><trkpt lat="35.151727" lon="-103.724987" /><trkpt lat="35.15428" lon="-103.724971" /><trkpt lat="35.15549" lon="-103.724909" /><trkpt lat="35.156791" lon="-103.724898" /><trkpt lat="35.161914" lon="-103.724881" /><trkpt lat="35.170809" lon="-103.724844" /><trkpt lat="35.171942" lon="-103.724974" /><trkpt lat="35.171806" lon="-103.722709" /><trkpt lat="35.171794" lon="-103.72041" /><trkpt lat="35.171795" lon="-103.712138" /><trkpt lat="35.171817" lon="-103.707631" /><trkpt lat="35.171845" lon="-103.702336" /><trkpt lat="35.171926" lon="-103.681633" /><trkpt lat="35.17188" lon="-103.677135" /><trkpt lat="35.171662" lon="-103.6761" /><trkpt lat="35.171145" lon="-103.67521" /><trkpt lat="35.170001" lon="-103.674472" /><trkpt lat="35.170202" lon="-103.673713" /><trkpt lat="35.170992" lon="-103.67267" /><trkpt lat="35.171552" lon="-103.671334" /><trkpt lat="35.172104" lon="-103.668017" /><trkpt lat="35.172325" lon="-103.628237" /><trkpt lat="35.172492" lon="-103.590362" /><trkpt lat="35.173347" lon="-103.560197" /><trkpt lat="35.173239" lon="-103.500536" /><trkpt lat="35.172522" lon="-103.485546" /><trkpt lat="35.170175" lon="-103.479957" /><trkpt lat="35.153832" lon="-103.454268" /><trkpt lat="35.144486" lon="-103.437222" /><trkpt lat="35.133975" lon="-103.411458" /><trkpt lat="35.122769" lon="-103.384097" /><trkpt lat="35.113216" lon="-103.360753" /><trkpt lat="35.112399" lon="-103.358269" /><trkpt lat="35.111856" lon="-103.355569" /><trkpt lat="35.111637" lon="-103.351726" /><trkpt lat="35.112046" lon="-103.325534" /><trkpt lat="35.112489" lon="-103.296173" /><trkpt lat="35.114081" lon="-103.277532" /><trkpt lat="35.121825" lon="-103.250552" /><trkpt lat="35.126033" lon="-103.238696" /><trkpt lat="35.131355" lon="-103.226587" /><trkpt lat="35.145821" lon="-103.184507" /><trkpt lat="35.158624" lon="-103.147171" /><trkpt lat="35.167463" lon="-103.12127" /><trkpt lat="35.171823" lon="-103.105061" /><trkpt lat="35.179327" lon="-103.081118" /><trkpt lat="35.183009" lon="-103.06588" /><trkpt lat="35.182406" lon="-103.042491" /><trkpt lat="35.182161" lon="-103.037088" /><trkpt lat="35.181745" lon="-103.033876" /><trkpt lat="35.180953" lon="-103.027907" /><trkpt lat="35.180866" lon="-103.025358" /><trkpt lat="35.181461" lon="-103.019284" /><trkpt lat="35.185165" lon="-102.987545" /><trkpt lat="35.185544" lon="-102.985474" /><trkpt lat="35.186319" lon="-102.982606" /><trkpt lat="35.196721" lon="-102.953143" /><trkpt lat="35.201177" lon="-102.940886" /><trkpt lat="35.210925" lon="-102.919352" /><trkpt lat="35.216323" lon="-102.906788" /><trkpt lat="35.22571" lon="-102.868834" /><trkpt lat="35.23159" lon="-102.852189" /><trkpt lat="35.241792" lon="-102.823801" /><trkpt lat="35.244295" lon="-102.816605" /><trkpt lat="35.244604" lon="-102.814968" /><trkpt lat="35.245816" lon="-102.801265" /><trkpt lat="35.246144" lon="-102.79952" /><trkpt lat="35.249387" lon="-102.787976" /><trkpt lat="35.250883" lon="-102.778042" /><trkpt lat="35.251429" lon="-102.775406" /><trkpt lat="35.252298" lon="-102.772851" /><trkpt lat="35.257641" lon="-102.761034" /><trkpt lat="35.26106" lon="-102.751508" /><trkpt lat="35.267353" lon="-102.733663" /><trkpt lat="35.268195" lon="-102.730818" /><trkpt lat="35.268832" lon="-102.728015" /><trkpt lat="35.269346" lon="-102.724697" /><trkpt lat="35.269618" lon="-102.72136" /><trkpt lat="35.270654" lon="-102.685174" /><trkpt lat="35.270496" lon="-102.682557" /><trkpt lat="35.269789" lon="-102.678657" /><trkpt lat="35.269484" lon="-102.676203" /><trkpt lat="35.269429" lon="-102.673963" /><trkpt lat="35.269966" lon="-102.655418" /><trkpt lat="35.270157" lon="-102.653294" /><trkpt lat="35.270496" lon="-102.651404" /><trkpt lat="35.271346" lon="-102.648004" /><trkpt lat="35.271703" lon="-102.645784" /><trkpt lat="35.272299" lon="-102.62797" /><trkpt lat="35.273471" lon="-102.586678" /><trkpt lat="35.27342" lon="-102.58459" /><trkpt lat="35.273206" lon="-102.581814" /><trkpt lat="35.272884" lon="-102.579452" /><trkpt lat="35.270054" lon="-102.56438" /><trkpt lat="35.269653" lon="-102.562835" /><trkpt lat="35.268874" lon="-102.560221" /><trkpt lat="35.2684" lon="-102.557838" /><trkpt lat="35.267577" lon="-102.551327" /><trkpt lat="35.260162" lon="-102.512036" /><trkpt lat="35.258286" lon="-102.502731" /><trkpt lat="35.256337" lon="-102.491911" /><trkpt lat="35.25345" lon="-102.476465" /><trkpt lat="35.249263" lon="-102.454379" /><trkpt lat="35.248468" lon="-102.451871" /><trkpt lat="35.247861" lon="-102.45042" /><trkpt lat="35.243648" lon="-102.442589" /><trkpt lat="35.239301" lon="-102.434503" /><trkpt lat="35.236919" lon="-102.428498" /><trkpt lat="35.236224" lon="-102.422115" /><trkpt lat="35.237706" lon="-102.411442" /><trkpt lat="35.238771" lon="-102.404654" /><trkpt lat="35.238916" lon="-102.402004" /><trkpt lat="35.238751" lon="-102.399062" /><trkpt lat="35.237006" lon="-102.389629" /><trkpt lat="35.234515" lon="-102.376393" /><trkpt lat="35.23225" lon="-102.364251" /><trkpt lat="35.227872" lon="-102.34098" /><trkpt lat="35.223669" lon="-102.318594" /><trkpt lat="35.217934" lon="-102.288121" /><trkpt lat="35.212122" lon="-102.257236" /><trkpt lat="35.210336" lon="-102.246299" /><trkpt lat="35.209866" lon="-102.225197" /><trkpt lat="35.209586" lon="-102.215566" /><trkpt lat="35.209134" lon="-102.202214" /><trkpt lat="35.209196" lon="-102.192214" /><trkpt lat="35.208824" lon="-102.174441" /><trkpt lat="35.208229" lon="-102.165922" /><trkpt lat="35.204469" lon="-102.150265" /><trkpt lat="35.1994" lon="-102.129288" /><trkpt lat="35.195854" lon="-102.114609" /><trkpt lat="35.192884" lon="-102.103119" /><trkpt lat="35.191647" lon="-102.083153" /><trkpt lat="35.191173" lon="-102.062004" /><trkpt lat="35.190752" lon="-102.044852" /><trkpt lat="35.190078" lon="-102.016181" /><trkpt lat="35.189209" lon="-101.981137" /><trkpt lat="35.188353" lon="-101.977357" /><trkpt lat="35.187156" lon="-101.973691" /><trkpt lat="35.187202" lon="-101.96895" /><trkpt lat="35.187601" lon="-101.963041" /><trkpt lat="35.187331" lon="-101.953042" /><trkpt lat="35.187074" lon="-101.942485" /><trkpt lat="35.186765" lon="-101.929053" /><trkpt lat="35.186563" lon="-101.920857" /><trkpt lat="35.186941" lon="-101.915428" /><trkpt lat="35.188416" lon="-101.910517" /><trkpt lat="35.189951" lon="-101.905498" /><trkpt lat="35.190619" lon="-101.899511" /><trkpt lat="35.191164" lon="-101.893047" /><trkpt lat="35.191383" lon="-101.883112" /><trkpt lat="35.191506" lon="-101.876322" /><trkpt lat="35.193962" lon="-101.871317" /><trkpt lat="35.194977" lon="-101.868771" /><trkpt lat="35.195189" lon="-101.862829" /><trkpt lat="35.195192" lon="-101.854901" /><trkpt lat="35.194013" lon="-101.845159" /><trkpt lat="35.192413" lon="-101.83409" /><trkpt lat="35.192317" lon="-101.827287" /><trkpt lat="35.192123" lon="-101.82077" /><trkpt lat="35.192277" lon="-101.818206" /><trkpt lat="35.192865" lon="-101.817718" /><trkpt lat="35.192858" lon="-101.820589" /><trkpt lat="35.19286" lon="-101.826328" /><trkpt lat="35.192853" lon="-101.829758" /><trkpt lat="35.192201" lon="-101.830057" /><trkpt lat="35.191996" lon="-101.828589" /><trkpt lat="35.192026" lon="-101.821414" /><trkpt lat="35.192334" lon="-101.817285" /><trkpt lat="35.19273" lon="-101.811963" /><trkpt lat="35.193247" lon="-101.801966" /><trkpt lat="35.192478" lon="-101.791027" /><trkpt lat="35.192608" lon="-101.768848" /><trkpt lat="35.192641" lon="-101.742752" /><trkpt lat="35.192695" lon="-101.731253" /><trkpt lat="35.192586" lon="-101.709435" /><trkpt lat="35.192567" lon="-101.69672" /><trkpt lat="35.192195" lon="-101.682108" /><trkpt lat="35.188368" lon="-101.653783" /><trkpt lat="35.183586" lon="-101.618388" /><trkpt lat="35.180057" lon="-101.592214" /><trkpt lat="35.176864" lon="-101.575146" /><trkpt lat="35.169789" lon="-101.549758" /><trkpt lat="35.161747" lon="-101.521949" /><trkpt lat="35.154405" lon="-101.496528" /><trkpt lat="35.13931" lon="-101.444572" /><trkpt lat="35.131294" lon="-101.417001" /><trkpt lat="35.120448" lon="-101.384321" /><trkpt lat="35.113947" lon="-101.367007" /><trkpt lat="35.111873" lon="-101.363936" /><trkpt lat="35.109333" lon="-101.357554" /><trkpt lat="35.104911" lon="-101.345676" /><trkpt lat="35.100414" lon="-101.332164" /><trkpt lat="35.084884" lon="-101.292114" /><trkpt lat="35.070267" lon="-101.254487" /><trkpt lat="35.043006" lon="-101.223581" /><trkpt lat="35.036718" lon="-101.203968" /><trkpt lat="35.033791" lon="-101.179205" /><trkpt lat="35.03142" lon="-101.115471" /><trkpt lat="35.029869" lon="-101.0931" /><trkpt lat="35.009235" lon="-101.050388" /><trkpt lat="34.9864" lon="-101.003662" /><trkpt lat="34.974095" lon="-100.981635" /><trkpt lat="34.968169" lon="-100.956888" /><trkpt lat="34.95909" lon="-100.928663" /><trkpt lat="34.950429" lon="-100.910564" /><trkpt lat="34.944099" lon="-100.900327" /><trkpt lat="34.941825" lon="-100.895919" /><trkpt lat="34.938076" lon="-100.888207" /><trkpt lat="34.934328" lon="-100.879898" /><trkpt lat="34.928451" lon="-100.867448" /><trkpt lat="34.923656" lon="-100.853083" /><trkpt lat="34.914915" lon="-100.828265" /><trkpt lat="34.912561" lon="-100.812551" /><trkpt lat="34.908508" lon="-100.787895" /><trkpt lat="34.902734" lon="-100.77475" /><trkpt lat="34.899562" lon="-100.768615" /><trkpt lat="34.890455" lon="-100.755079" /><trkpt lat="34.880074" lon="-100.736069" /><trkpt lat="34.8777" lon="-100.722495" /><trkpt lat="34.870604" lon="-100.699701" /><trkpt lat="34.869473" lon="-100.686645" /><trkpt lat="34.868524" lon="-100.66755" /><trkpt lat="34.866099" lon="-100.66114" /><trkpt lat="34.861496" lon="-100.651817" /><trkpt lat="34.845742" lon="-100.640807" /><trkpt lat="34.818649" lon="-100.598609" /><trkpt lat="34.809425" lon="-100.58833" /><trkpt lat="34.792965" lon="-100.580569" /><trkpt lat="34.781313" lon="-100.580293" /><trkpt lat="34.755707" lon="-100.563851" /><trkpt lat="34.742118" lon="-100.550942" /><trkpt lat="34.735001" lon="-100.543979" /><trkpt lat="34.728953" lon="-100.538331" /><trkpt lat="34.723746" lon="-100.533611" /><trkpt lat="34.716609" lon="-100.527412" /><trkpt lat="34.712518" lon="-100.522232" /><trkpt lat="34.710129" lon="-100.517065" /><trkpt lat="34.707597" lon="-100.511574" /><trkpt lat="34.699009" lon="-100.503426" /><trkpt lat="34.683367" lon="-100.489478" /><trkpt lat="34.675136" lon="-100.484765" /><trkpt lat="34.6581" lon="-100.480017" /><trkpt lat="34.641609" lon="-100.477554" /><trkpt lat="34.630443" lon="-100.475877" /><trkpt lat="34.603333" lon="-100.466054" /><trkpt lat="34.598069" lon="-100.463581" /><trkpt lat="34.586344" lon="-100.445301" /><trkpt lat="34.580423" lon="-100.436378" /><trkpt lat="34.577464" lon="-100.435135" /><trkpt lat="34.567036" lon="-100.439867" /><trkpt lat="34.561852" lon="-100.441636" /><trkpt lat="34.555382" lon="-100.439231" /><trkpt lat="34.549314" lon="-100.439192" /><trkpt lat="34.543738" lon="-100.43928" /><trkpt lat="34.541307" lon="-100.438336" /><trkpt lat="34.537184" lon="-100.432721" /><trkpt lat="34.532164" lon="-100.422934" /><trkpt lat="34.526093" lon="-100.410463" /><trkpt lat="34.519958" lon="-100.40231" /><trkpt lat="34.513513" lon="-100.396165" /><trkpt lat="34.505656" lon="-100.382" /><trkpt lat="34.501899" lon="-100.373994" /><trkpt lat="34.500324" lon="-100.362132" /><trkpt lat="34.496579" lon="-100.356394" /><trkpt lat="34.488709" lon="-100.34694" /><trkpt lat="34.483475" lon="-100.340528" /><trkpt lat="34.481563" lon="-100.334683" /><trkpt lat="34.479759" lon="-100.329024" /><trkpt lat="34.472935" lon="-100.316138" /><trkpt lat="34.465109" lon="-100.301358" /><trkpt lat="34.460117" lon="-100.291935" /><trkpt lat="34.455034" lon="-100.28195" /><trkpt lat="34.447013" lon="-100.263733" /><trkpt lat="34.441057" lon="-100.247272" /><trkpt lat="34.437308" lon="-100.234205" /><trkpt lat="34.435815" lon="-100.229596" /><trkpt lat="34.434268" lon="-100.225443" /><trkpt lat="34.43246" lon="-100.220616" /><trkpt lat="34.429914" lon="-100.213796" /><trkpt lat="34.426813" lon="-100.205473" /><trkpt lat="34.423686" lon="-100.197038" /><trkpt lat="34.41816" lon="-100.18236" /><trkpt lat="34.413635" lon="-100.167905" /><trkpt lat="34.401881" lon="-100.133816" /><trkpt lat="34.392278" lon="-100.106116" /><trkpt lat="34.381559" lon="-100.063581" /><trkpt lat="34.375013" lon="-100.033705" /><trkpt lat="34.369738" lon="-100.010261" /><trkpt lat="34.36649" lon="-99.997268" /><trkpt lat="34.358913" lon="-99.976845" /><trkpt lat="34.353453" lon="-99.954757" /><trkpt lat="34.338698" lon="-99.90624" /><trkpt lat="34.33365" lon="-99.884445" /><trkpt lat="34.331459" lon="-99.866337" /><trkpt lat="34.321492" lon="-99.837203" /><trkpt lat="34.316534" lon="-99.825179" /><trkpt lat="34.309925" lon="-99.818279" /><trkpt lat="34.29342" lon="-99.777366" /><trkpt lat="34.292334" lon="-99.755956" /><trkpt lat="34.290501" lon="-99.746048" /><trkpt lat="34.287919" lon="-99.732262" /><trkpt lat="34.284576" lon="-99.70287" /><trkpt lat="34.27429" lon="-99.671044" /><trkpt lat="34.268304" lon="-99.631435" /><trkpt lat="34.254254" lon="-99.565506" /><trkpt lat="34.251097" lon="-99.54677" /><trkpt lat="34.257508" lon="-99.521554" /><trkpt lat="34.256336" lon="-99.514552" /><trkpt lat="34.255453" lon="-99.503965" /><trkpt lat="34.250651" lon="-99.479006" /><trkpt lat="34.240402" lon="-99.451799" /><trkpt lat="34.231124" lon="-99.434504" /><trkpt lat="34.220656" lon="-99.398541" /><trkpt lat="34.21355" lon="-99.383778" /><trkpt lat="34.206514" lon="-99.373071" /><trkpt lat="34.185101" lon="-99.330989" /><trkpt lat="34.180006" lon="-99.323902" /><trkpt lat="34.16773" lon="-99.316514" /><trkpt lat="34.162322" lon="-99.31223" /><trkpt lat="34.160742" lon="-99.308422" /><trkpt lat="34.160615" lon="-99.298076" /><trkpt lat="34.159826" lon="-99.287401" /><trkpt lat="34.158973" lon="-99.284547" /><trkpt lat="34.154465" lon="-99.28446" /><trkpt lat="34.151311" lon="-99.286083" /></trkseg></trk><wpt lat="34.1513105" lon="-99.2860857"><name>Vernon, TX</name><desc>51.47 kWh</desc></wpt><wpt lat="35.1919954" lon="-101.8286328"><name>Amarillo, TX - East Interstate 40</name><desc>60.431 kWh</desc></wpt><wpt lat="34.93867" lon="-104.682489"><name>Santa Rosa, NM</name><desc>49.103 kWh</desc></wpt><wpt lat="35.6876096" lon="-105.938456"><name>Santa Fe, NM</name><desc>107.13 kWh</desc></wpt><wpt lat="35.6876096" lon="-105.938456"><name>Santa Fe, NM</name><desc>44.449 kWh</desc></wpt><wpt lat="35.1719425" lon="-103.72504"><name>Tucumcari, NM</name><desc>47.852 kWh</desc></wpt><wpt lat="35.1919954" lon="-101.8286328"><name>Amarillo, TX - East Interstate 40</name><desc>52.232 kWh</desc></wpt><wpt lat="34.1513105" lon="-99.2860857"><name>Vernon, TX</name><desc>65.121 kWh</desc></wpt></gpx>