<?xml version='1.0' encoding='utf-8'?>
<gpx version="1.1" creator="My Mile Diary" xmlns="http://www.topografix.com/GPX/1/1"><metadata><name>Jul 2026 — Bellevue → Olympic Peninsula</name></metadata><wpt lat="47.6167921" lon="-122.1115836"><name>Bellevue, WA - Northeast 8th Street</name><desc>Bellevue, WA - Northeast 8th Street</desc></wpt><wpt lat="48.0849312" lon="-123.1096706"><name>Sequim, WA</name><desc>Sequim, WA</desc></wpt><wpt lat="48.0849312" lon="-123.1096706"><name>Sequim, WA</name><desc>Sequim, WA</desc></wpt><wpt lat="47.950222" lon="-124.386165"><name>Forks, WA</name><desc>Forks, WA</desc></wpt><wpt lat="46.975371" lon="-123.815722"><name>Aberdeen, WA</name><desc>Aberdeen, WA</desc></wpt><wpt lat="47.1748283" lon="-122.4631366"><name>Tacoma, WA - South Hosmer Street</name><desc>Tacoma, WA - South Hosmer Street</desc></wpt><wpt lat="47.6594091" lon="-122.6766317"><name>Silverdale, WA</name><desc>Silverdale, WA</desc></wpt><wpt lat="48.0849312" lon="-123.1096706"><name>Sequim, WA</name><desc>Sequim, WA</desc></wpt><wpt lat="47.6167921" lon="-122.1115836"><name>Bellevue, WA - Northeast 8th Street</name><desc>Bellevue, WA - Northeast 8th Street</desc></wpt></gpx>