<?xml version='1.0' encoding='utf-8'?>
<gpx version="1.1" creator="tesla-charging-history-map" xmlns="http://www.topografix.com/GPX/1/1"><metadata><name>Feb 2026 — Auburn → Suquamish</name></metadata><wpt lat="47.3301528" lon="-122.2215547"><name>Auburn, WA - Auburn Way North</name><desc>47.8649 kWh</desc></wpt><wpt lat="47.4957757" lon="-121.784889"><name>North Bend, WA</name><desc>45.8233 kWh</desc></wpt><wpt lat="47.5957449" lon="-120.6622886"><name>Leavenworth, WA - US-2</name><desc>30.4867 kWh</desc></wpt><wpt lat="47.6167921" lon="-122.1115836"><name>Bellevue, WA - Northeast 8th Street</name><desc>11.9898 kWh</desc></wpt><wpt lat="47.6765382" lon="-122.2070775"><name>Kirkland, WA</name><desc>26.3429 kWh</desc></wpt><wpt lat="47.3301528" lon="-122.2215547"><name>Auburn, WA - Auburn Way North</name><desc>47.6871 kWh</desc></wpt><wpt lat="47.313494" lon="-122.33931"><name>Federal Way, WA</name><desc>31.4301 kWh</desc></wpt><wpt lat="47.6167921" lon="-122.1115836"><name>Bellevue, WA - Northeast 8th Street</name><desc>18.795 kWh</desc></wpt><wpt lat="47.2209169" lon="-122.4499901"><name>Tacoma, WA - S 40th Street</name><desc>33.1852 kWh</desc></wpt><wpt lat="46.975371" lon="-123.815722"><name>Aberdeen, WA</name><desc>61.4938 kWh</desc></wpt><wpt lat="47.950222" lon="-124.386165"><name>Forks, WA</name><desc>40.7843 kWh</desc></wpt><wpt lat="47.717948" lon="-122.5844878"><name>Suquamish, WA</name><desc>21.6139 kWh</desc></wpt><wpt lat="47.6167921" lon="-122.1115836"><name>Bellevue, WA - Northeast 8th Street</name><desc>25.0085 kWh</desc></wpt></gpx>