<?xml version='1.0' encoding='utf-8'?>
<gpx version="1.1" creator="Road Replay" xmlns="http://www.topografix.com/GPX/1/1"><metadata><name>Dec 2025 — Bellevue → Redondo Beach (via WA, OR, ID, NV, UT, AZ, CA)</name></metadata><wpt lat="47.6167921" lon="-122.1115836"><name>Bellevue, WA - Northeast 8th Street</name><desc>13.7916 kWh</desc></wpt><wpt lat="46.6030113" lon="-120.5027063"><name>Yakima, WA - East Yakima Avenue</name><desc>49.6953 kWh</desc></wpt><wpt lat="45.672075" lon="-118.7885967"><name>Pendleton, OR</name><desc>45.9144 kWh</desc></wpt><wpt lat="44.7748748" lon="-117.834384"><name>Baker City, OR</name><desc>24.0635 kWh</desc></wpt><wpt lat="44.0265525" lon="-116.9629378"><name>Ontario, OR</name><desc>23.6881 kWh</desc></wpt><wpt lat="44.0214741" lon="-116.9504158"><name>Ontario, OR - Southeast 10th Street</name><desc>19.2916 kWh</desc></wpt><wpt lat="43.1318937" lon="-115.6939827"><name>Mountain Home, ID</name><desc>43.7702 kWh</desc></wpt><wpt lat="42.5558542" lon="-114.4700684"><name>Twin Falls, ID</name><desc>43.982 kWh</desc></wpt><wpt lat="41.1107264" lon="-114.963144"><name>Wells, NV</name><desc>50.3365 kWh</desc></wpt><wpt lat="39.2480588" lon="-114.891718"><name>Ely, NV</name><desc>59.3107 kWh</desc></wpt><wpt lat="36.1957762" lon="-115.1377081"><name>North Las Vegas, NV - East Lake Mead South Boulevard</name><desc>43.0471 kWh</desc></wpt><wpt lat="36.1607456" lon="-115.1360767"><name>Las Vegas, NV - South Maryland Parkway</name><desc>61.08 kWh</desc></wpt><wpt lat="37.2393471" lon="-113.525776"><name>Washington, UT</name><desc>53.1628 kWh</desc></wpt><wpt lat="36.9148305" lon="-111.457294"><name>Page, AZ</name><desc>41.2756 kWh</desc></wpt><wpt lat="35.1949783" lon="-111.6289385"><name>Flagstaff, AZ - US-89</name><desc>37.723 kWh</desc></wpt><wpt lat="35.2508504" lon="-112.187294"><name>Williams, AZ</name><desc>49.52 kWh</desc></wpt><wpt lat="35.7182855" lon="-114.4032833"><name>White Hills, AZ</name><desc>38.2214 kWh</desc></wpt><wpt lat="36.204178" lon="-116.0260261"><name>Pahrump, NV</name><desc>114.46 kWh</desc></wpt><wpt lat="35.275455" lon="-116.0694137"><name>Baker, CA</name><desc>60.9341 kWh</desc></wpt><wpt lat="34.8937247" lon="-117.0025044"><name>Barstow, CA - 1503 East Main Street</name><desc>68.4539 kWh</desc></wpt><wpt lat="34.0909468" lon="-118.3418797"><name>Tesla Diner</name><desc>25.197 kWh</desc></wpt><wpt lat="33.8398289" lon="-118.3845942"><name>Redondo Beach, CA</name><desc>26.976 kWh</desc></wpt><wpt lat="34.0352008" lon="-118.6937959"><name>Malibu, CA - Civic Center Way</name><desc>32.0227 kWh</desc></wpt><wpt lat="34.4221319" lon="-119.702667"><name>Santa Barbara, CA</name><desc>26.8112 kWh</desc></wpt><wpt lat="35.4894169" lon="-120.6707255"><name>Atascadero, CA</name><desc>31.308 kWh</desc></wpt><wpt lat="36.6171819" lon="-121.848285"><name>Sand City, CA</name><desc>58.5808 kWh</desc></wpt><wpt lat="37.3986946" lon="-121.9439508"><name>Mansion Grove</name><desc>7.735 kWh</desc></wpt><wpt lat="37.5780965" lon="-122.3473099"><name>Burlingame, CA</name><desc>43.9326 kWh</desc></wpt><wpt lat="37.3986946" lon="-121.9439508"><name>Mansion Grove</name><desc>46.667 kWh</desc></wpt><wpt lat="37.3986946" lon="-121.9439508"><name>Mansion Grove</name><desc>46.328 kWh</desc></wpt><wpt lat="39.1637941" lon="-123.2101776"><name>Ukiah, CA - N State St</name><desc>49.8093 kWh</desc></wpt><wpt lat="40.8018746" lon="-124.1707558"><name>Eureka, CA</name><desc>48.8899 kWh</desc></wpt><wpt lat="40.866517" lon="-124.08284"><name>Arcata, CA</name><desc>12.9231 kWh</desc></wpt><wpt lat="41.7522404" lon="-124.1978539"><name>Crescent City, CA</name><desc>37.5524 kWh</desc></wpt><wpt lat="43.3678937" lon="-124.2174647"><name>Coos Bay, OR</name><desc>47.9372 kWh</desc></wpt><wpt lat="44.9617922" lon="-124.0159522"><name>Lincoln City, OR</name><desc>35.7671 kWh</desc></wpt><wpt lat="45.5392862" lon="-122.3873133"><name>Troutdale, OR</name><desc>50.1801 kWh</desc></wpt><wpt lat="46.8218166" lon="-123.095857"><name>Rochester, WA</name><desc>33.9 kWh</desc></wpt></gpx>